postcode,x,y,region_3_en,region_2_en,region_1_en,country_en,country_code,timezone,utc
43000,45.7123,16.8192,Krivaja,Bjelovar,Bjelovarsko-Bilogorska,Croatia,HR,Europe/Zagreb,UTC +1.0
43000,45.8976,16.8529,Gornji Tomaš,Bjelovar,Bjelovarsko-Bilogorska,Croatia,HR,Europe/Zagreb,UTC +1.0
43000,45.9333,16.8667,Gornje Plavnice,Bjelovar,Bjelovarsko-Bilogorska,Croatia,HR,Europe/Zagreb,UTC +1.0
43000,46.0256,16.7883,Jakopovac,Bjelovar,Bjelovarsko-Bilogorska,Croatia,HR,Europe/Zagreb,UTC +1.0
43000,45.9516,16.8918,Kupinovac,Bjelovar,Bjelovarsko-Bilogorska,Croatia,HR,Europe/Zagreb,UTC +1.0
43000,45.8581,16.8838,Stari Pavljani,Bjelovar,Bjelovarsko-Bilogorska,Croatia,HR,Europe/Zagreb,UTC +1.0
43000,45.95,16.85,Starčevljani,Bjelovar,Bjelovarsko-Bilogorska,Croatia,HR,Europe/Zagreb,UTC +1.0
43000,45.8667,16.9167,Prespa,Bjelovar,Bjelovarsko-Bilogorska,Croatia,HR,Europe/Zagreb,UTC +1.0
43000,45.6975,16.8247,Šimljana,Bjelovar,Bjelovarsko-Bilogorska,Croatia,HR,Europe/Zagreb,UTC +1.0
43000,46.0,16.8667,Botinac,Bjelovar,Bjelovarsko-Bilogorska,Croatia,HR,Europe/Zagreb,UTC +1.0
43000,45.88,17.0361,Pupelica,Bjelovar,Bjelovarsko-Bilogorska,Croatia,HR,Europe/Zagreb,UTC +1.0
43000,45.8675,16.8408,Brezovac,Bjelovar,Bjelovarsko-Bilogorska,Croatia,HR,Europe/Zagreb,UTC +1.0
43000,45.9883,16.8514,Kapela,Bjelovar,Bjelovarsko-Bilogorska,Croatia,HR,Europe/Zagreb,UTC +1.0
43000,46.0139,16.8992,Jabučeta,Bjelovar,Bjelovarsko-Bilogorska,Croatia,HR,Europe/Zagreb,UTC +1.0
43000,45.9333,17.05,Jasenik,Bjelovar,Bjelovarsko-Bilogorska,Croatia,HR,Europe/Zagreb,UTC +1.0
43000,45.85,16.8333,Malo Korenovo,Bjelovar,Bjelovarsko-Bilogorska,Croatia,HR,Europe/Zagreb,UTC +1.0
43000,45.8764,16.875,Ždralovi,Bjelovar,Bjelovarsko-Bilogorska,Croatia,HR,Europe/Zagreb,UTC +1.0
43000,46.01,16.8039,Pavlin Kloštar,Bjelovar,Bjelovarsko-Bilogorska,Croatia,HR,Europe/Zagreb,UTC +1.0
43000,45.9167,16.7333,Tuk,Bjelovar,Bjelovarsko-Bilogorska,Croatia,HR,Europe/Zagreb,UTC +1.0
43000,45.9667,16.7333,Kraljevac,Bjelovar,Bjelovarsko-Bilogorska,Croatia,HR,Europe/Zagreb,UTC +1.0
43000,45.85,16.8,Veliko Korenovo,Bjelovar,Bjelovarsko-Bilogorska,Croatia,HR,Europe/Zagreb,UTC +1.0
43000,45.8328,16.7861,Narta,Bjelovar,Bjelovarsko-Bilogorska,Croatia,HR,Europe/Zagreb,UTC +1.0
43000,45.85,16.85,Novi Pavljani,Bjelovar,Bjelovarsko-Bilogorska,Croatia,HR,Europe/Zagreb,UTC +1.0
43000,45.7536,16.8261,Babinac,Bjelovar,Bjelovarsko-Bilogorska,Croatia,HR,Europe/Zagreb,UTC +1.0
43000,45.9,16.8167,Stare Plavnice,Bjelovar,Bjelovarsko-Bilogorska,Croatia,HR,Europe/Zagreb,UTC +1.0
43000,45.7608,16.8847,Stara Plošćica,Bjelovar,Bjelovarsko-Bilogorska,Croatia,HR,Europe/Zagreb,UTC +1.0
43000,45.7333,16.8,Donja Petrička,Bjelovar,Bjelovarsko-Bilogorska,Croatia,HR,Europe/Zagreb,UTC +1.0
43000,45.8833,17.0,Kašljavac,Bjelovar,Bjelovarsko-Bilogorska,Croatia,HR,Europe/Zagreb,UTC +1.0
43000,45.7936,16.7848,Rastovac,Bjelovar,Bjelovarsko-Bilogorska,Croatia,HR,Europe/Zagreb,UTC +1.0
43000,45.7333,16.7833,Gornja Petrička,Bjelovar,Bjelovarsko-Bilogorska,Croatia,HR,Europe/Zagreb,UTC +1.0
43000,45.9667,16.7667,Kakinac,Bjelovar,Bjelovarsko-Bilogorska,Croatia,HR,Europe/Zagreb,UTC +1.0
43000,45.835,16.9589,Severin,Bjelovar,Bjelovarsko-Bilogorska,Croatia,HR,Europe/Zagreb,UTC +1.0
43000,45.9732,16.9222,Višnjevac,Bjelovar,Bjelovarsko-Bilogorska,Croatia,HR,Europe/Zagreb,UTC +1.0
43000,45.8269,16.8769,Obrovnica,Bjelovar,Bjelovarsko-Bilogorska,Croatia,HR,Europe/Zagreb,UTC +1.0
43000,45.95,16.8167,Kobasičari,Bjelovar,Bjelovarsko-Bilogorska,Croatia,HR,Europe/Zagreb,UTC +1.0
43000,45.9667,16.8667,Stara Diklenica,Bjelovar,Bjelovarsko-Bilogorska,Croatia,HR,Europe/Zagreb,UTC +1.0
43000,46.0,16.8833,Lipovo Brdo,Bjelovar,Bjelovarsko-Bilogorska,Croatia,HR,Europe/Zagreb,UTC +1.0
43000,46.0183,16.7555,Zrinski Topolovac,Bjelovar,Bjelovarsko-Bilogorska,Croatia,HR,Europe/Zagreb,UTC +1.0
43000,45.9167,16.9333,Maglenča,Bjelovar,Bjelovarsko-Bilogorska,Croatia,HR,Europe/Zagreb,UTC +1.0
43000,45.95,16.9833,Vrbica,Bjelovar,Bjelovarsko-Bilogorska,Croatia,HR,Europe/Zagreb,UTC +1.0
43000,46.0,16.7667,Domankuš,Bjelovar,Bjelovarsko-Bilogorska,Croatia,HR,Europe/Zagreb,UTC +1.0
43000,45.8986,16.8489,Bjelovar,Bjelovar,Bjelovarsko-Bilogorska,Croatia,HR,Europe/Zagreb,UTC +1.0
43000,45.6978,16.7689,Samarica,Bjelovar,Bjelovarsko-Bilogorska,Croatia,HR,Europe/Zagreb,UTC +1.0
43000,45.9358,16.7833,Predavac,Bjelovar,Bjelovarsko-Bilogorska,Croatia,HR,Europe/Zagreb,UTC +1.0
43000,45.9706,16.7986,Podgorci,Bjelovar,Bjelovarsko-Bilogorska,Croatia,HR,Europe/Zagreb,UTC +1.0
43000,45.9003,16.7144,Rajić,Bjelovar,Bjelovarsko-Bilogorska,Croatia,HR,Europe/Zagreb,UTC +1.0
43000,45.8658,16.9764,Orovac,Bjelovar,Bjelovarsko-Bilogorska,Croatia,HR,Europe/Zagreb,UTC +1.0
43000,46.0372,16.82,Sredice Gornje,Bjelovar,Bjelovarsko-Bilogorska,Croatia,HR,Europe/Zagreb,UTC +1.0
43000,45.9,16.9,Grginac,Bjelovar,Bjelovarsko-Bilogorska,Croatia,HR,Europe/Zagreb,UTC +1.0
43000,46.0256,16.8725,Gornje Zdelice,Bjelovar,Bjelovarsko-Bilogorska,Croatia,HR,Europe/Zagreb,UTC +1.0
43000,45.8417,16.8558,Galovac,Bjelovar,Bjelovarsko-Bilogorska,Croatia,HR,Europe/Zagreb,UTC +1.0
43000,45.9447,16.735,Rovišće,Bjelovar,Bjelovarsko-Bilogorska,Croatia,HR,Europe/Zagreb,UTC +1.0
43000,45.8976,16.8529,Puričani,Bjelovar,Bjelovarsko-Bilogorska,Croatia,HR,Europe/Zagreb,UTC +1.0
43000,45.7222,16.8928,Ruškovac,Bjelovar,Bjelovarsko-Bilogorska,Croatia,HR,Europe/Zagreb,UTC +1.0
43000,45.9304,16.8872,Letičani,Bjelovar,Bjelovarsko-Bilogorska,Croatia,HR,Europe/Zagreb,UTC +1.0
43000,45.7383,16.8303,Berek,Bjelovar,Bjelovarsko-Bilogorska,Croatia,HR,Europe/Zagreb,UTC +1.0
43000,45.8976,16.8529,Stanići,Bjelovar,Bjelovarsko-Bilogorska,Croatia,HR,Europe/Zagreb,UTC +1.0
43000,45.9356,16.9342,Veliko Trojstvo,Bjelovar,Bjelovarsko-Bilogorska,Croatia,HR,Europe/Zagreb,UTC +1.0
43000,45.8976,16.8529,Žabjak,Bjelovar,Bjelovarsko-Bilogorska,Croatia,HR,Europe/Zagreb,UTC +1.0
43000,45.8976,16.8529,Visovi,Bjelovar,Bjelovarsko-Bilogorska,Croatia,HR,Europe/Zagreb,UTC +1.0
43000,45.8976,16.8529,Tvrda Reka,Bjelovar,Bjelovarsko-Bilogorska,Croatia,HR,Europe/Zagreb,UTC +1.0
43000,45.8976,16.8529,Stari Skucani,Bjelovar,Bjelovarsko-Bilogorska,Croatia,HR,Europe/Zagreb,UTC +1.0
43000,45.8976,16.8529,Stančići,Bjelovar,Bjelovarsko-Bilogorska,Croatia,HR,Europe/Zagreb,UTC +1.0
43000,45.8976,16.8529,Srijedska,Bjelovar,Bjelovarsko-Bilogorska,Croatia,HR,Europe/Zagreb,UTC +1.0
43000,45.8976,16.8529,Paulovac,Bjelovar,Bjelovarsko-Bilogorska,Croatia,HR,Europe/Zagreb,UTC +1.0
43000,45.8976,16.8529,Gornje Rovišće,Bjelovar,Bjelovarsko-Bilogorska,Croatia,HR,Europe/Zagreb,UTC +1.0
43000,45.8976,16.8529,Lalići,Bjelovar,Bjelovarsko-Bilogorska,Croatia,HR,Europe/Zagreb,UTC +1.0
43000,46.0464,16.8692,Donji Mosti,Bjelovar,Bjelovarsko-Bilogorska,Croatia,HR,Europe/Zagreb,UTC +1.0
43000,46.0167,16.8833,Babotok,Bjelovar,Bjelovarsko-Bilogorska,Croatia,HR,Europe/Zagreb,UTC +1.0
43000,45.9056,17.0211,Šandrovac,Bjelovar,Bjelovarsko-Bilogorska,Croatia,HR,Europe/Zagreb,UTC +1.0
43000,45.8667,16.7167,Breza,Bjelovar,Bjelovarsko-Bilogorska,Croatia,HR,Europe/Zagreb,UTC +1.0
43000,45.8976,16.8529,Zvijerci,Bjelovar,Bjelovarsko-Bilogorska,Croatia,HR,Europe/Zagreb,UTC +1.0
43000,45.7667,16.7833,Križic,Bjelovar,Bjelovarsko-Bilogorska,Croatia,HR,Europe/Zagreb,UTC +1.0
43000,45.8167,16.8333,Kolarevo Selo,Bjelovar,Bjelovarsko-Bilogorska,Croatia,HR,Europe/Zagreb,UTC +1.0
43000,45.8483,16.9059,Kokinac,Bjelovar,Bjelovarsko-Bilogorska,Croatia,HR,Europe/Zagreb,UTC +1.0
43000,46.0472,16.7675,Križ Gornji,Bjelovar,Bjelovarsko-Bilogorska,Croatia,HR,Europe/Zagreb,UTC +1.0
43000,45.9833,16.95,Kegljevac,Bjelovar,Bjelovarsko-Bilogorska,Croatia,HR,Europe/Zagreb,UTC +1.0
43000,45.8525,16.9314,Patkovac,Bjelovar,Bjelovarsko-Bilogorska,Croatia,HR,Europe/Zagreb,UTC +1.0
43000,45.8976,16.8529,Mala Ciglena,Bjelovar,Bjelovarsko-Bilogorska,Croatia,HR,Europe/Zagreb,UTC +1.0
43000,45.9333,16.9167,Martinac,Bjelovar,Bjelovarsko-Bilogorska,Croatia,HR,Europe/Zagreb,UTC +1.0
43000,45.8976,16.8529,Prokljuvani,Bjelovar,Bjelovarsko-Bilogorska,Croatia,HR,Europe/Zagreb,UTC +1.0
43000,45.8284,16.811,Paljevine,Bjelovar,Bjelovarsko-Bilogorska,Croatia,HR,Europe/Zagreb,UTC +1.0
43000,45.7789,16.8119,Ivanska,Bjelovar,Bjelovarsko-Bilogorska,Croatia,HR,Europe/Zagreb,UTC +1.0
43000,45.9167,16.7833,Klokočevac,Bjelovar,Bjelovarsko-Bilogorska,Croatia,HR,Europe/Zagreb,UTC +1.0
43000,45.7333,16.8667,Potok,Bjelovar,Bjelovarsko-Bilogorska,Croatia,HR,Europe/Zagreb,UTC +1.0
43000,45.9667,16.8833,Srednja Diklenica,Bjelovar,Bjelovarsko-Bilogorska,Croatia,HR,Europe/Zagreb,UTC +1.0
43000,45.7167,16.8667,Šimljanica,Bjelovar,Bjelovarsko-Bilogorska,Croatia,HR,Europe/Zagreb,UTC +1.0
43000,45.8833,16.8833,Novoseljani,Bjelovar,Bjelovarsko-Bilogorska,Croatia,HR,Europe/Zagreb,UTC +1.0
43000,45.9833,16.7167,Kovačevac,Bjelovar,Bjelovarsko-Bilogorska,Croatia,HR,Europe/Zagreb,UTC +1.0
43000,45.8976,16.8529,Đurđic,Bjelovar,Bjelovarsko-Bilogorska,Croatia,HR,Europe/Zagreb,UTC +1.0
43000,46.0622,16.8628,Srednji Mosti,Bjelovar,Bjelovarsko-Bilogorska,Croatia,HR,Europe/Zagreb,UTC +1.0
43000,45.8976,16.8529,Prekobrdo,Bjelovar,Bjelovarsko-Bilogorska,Croatia,HR,Europe/Zagreb,UTC +1.0
43000,45.8976,16.8529,Prnjavor,Bjelovar,Bjelovarsko-Bilogorska,Croatia,HR,Europe/Zagreb,UTC +1.0
43000,45.8976,16.8529,Reškovci,Bjelovar,Bjelovarsko-Bilogorska,Croatia,HR,Europe/Zagreb,UTC +1.0
43000,45.8976,16.8529,Šiptari,Bjelovar,Bjelovarsko-Bilogorska,Croatia,HR,Europe/Zagreb,UTC +1.0
43000,45.7718,16.5506,Lipovčani,Bjelovar,Bjelovarsko-Bilogorska,Croatia,HR,Europe/Zagreb,UTC +1.0
43000,45.9667,16.9667,Dominkovica,Bjelovar,Bjelovarsko-Bilogorska,Croatia,HR,Europe/Zagreb,UTC +1.0
43000,45.8,16.8167,Utiskani,Bjelovar,Bjelovarsko-Bilogorska,Croatia,HR,Europe/Zagreb,UTC +1.0
43000,45.9486,16.8281,Novi Skucani,Bjelovar,Bjelovarsko-Bilogorska,Croatia,HR,Europe/Zagreb,UTC +1.0
43000,45.8628,17.0078,Ravneš,Bjelovar,Bjelovarsko-Bilogorska,Croatia,HR,Europe/Zagreb,UTC +1.0
