postcode,latitude,longitude,region_3_en,region_2_en,region_1_en,country_en,country_code,timezone,utc
200101,-1.1811,-90.1968,Española Hood-Puerto Baquerizo Moreno,Cantón San Cristóbal,Galápagos,Ecuador,EC,Pacific/Galapagos,UTC -6.0
200104,-0.8258,-89.4288,El Progreso,Cantón San Cristóbal,Galápagos,Ecuador,EC,Pacific/Galapagos,UTC -6.0
200103,-0.9554,-90.9665,Puerto Villamil,Cantón Isabela,Galápagos,Ecuador,EC,Pacific/Galapagos,UTC -6.0
200107,-0.5377,-91.2237,Isla Fernandina Narborough,Cantón Isabela,Galápagos,Ecuador,EC,Pacific/Galapagos,UTC -6.0
200102,-0.7402,-90.3138,Puerto Ayora,Cantón Santa Cruz,Galápagos,Ecuador,EC,Pacific/Galapagos,UTC -6.0
200105,-0.6955,-90.3255,Bellavista,Cantón Santa Cruz,Galápagos,Ecuador,EC,Pacific/Galapagos,UTC -6.0
200106,-0.4848,-90.4482,Isla Pinzon,Cantón Santa Cruz,Galápagos,Ecuador,EC,Pacific/Galapagos,UTC -6.0
10101,-2.8965,-79.0029,Cuenca_El Vecino,Cantón Cuenca,Azuay,Ecuador,EC,Pacific/Galapagos,UTC -6.0
10102,-2.8867,-78.9943,Cuenca_El Vecino,Cantón Cuenca,Azuay,Ecuador,EC,Pacific/Galapagos,UTC -6.0
10103,-2.8905,-78.9818,Cuenca_Totorocoha,Cantón Cuenca,Azuay,Ecuador,EC,Pacific/Galapagos,UTC -6.0
10104,-2.9016,-78.9903,Cuenca_Totorocoha,Cantón Cuenca,Azuay,Ecuador,EC,Pacific/Galapagos,UTC -6.0
10105,-2.881,-79.0117,Cuenca_Cañaribamba,Cantón Cuenca,Azuay,Ecuador,EC,Pacific/Galapagos,UTC -6.0
10106,-2.8523,-79.0158,Cuenca_San Blas,Cantón Cuenca,Azuay,Ecuador,EC,Pacific/Galapagos,UTC -6.0
10107,-2.8629,-78.984,Cuenca_El Sagrario,Cantón Cuenca,Azuay,Ecuador,EC,Pacific/Galapagos,UTC -6.0
10108,-2.8483,-78.9433,Cuenca_Gil Ramirez Davalos,Cantón Cuenca,Azuay,Ecuador,EC,Pacific/Galapagos,UTC -6.0
10109,-2.8665,-78.9334,Cuenca_Bellavista,Cantón Cuenca,Azuay,Ecuador,EC,Pacific/Galapagos,UTC -6.0
10110,-2.8639,-78.8902,Cuenca_Bellavista,Cantón Cuenca,Azuay,Ecuador,EC,Pacific/Galapagos,UTC -6.0
10111,-2.8515,-79.0142,Sinincay,Cantón Cuenca,Azuay,Ecuador,EC,Pacific/Galapagos,UTC -6.0
10112,-2.801,-79.1703,Cuenca_Hermano Miguel,Cantón Cuenca,Azuay,Ecuador,EC,Pacific/Galapagos,UTC -6.0
10113,-2.7691,-79.0567,Cuenca_Machangara,Cantón Cuenca,Azuay,Ecuador,EC,Pacific/Galapagos,UTC -6.0
10114,-2.7341,-79.0253,Cuenca_Machangara,Cantón Cuenca,Azuay,Ecuador,EC,Pacific/Galapagos,UTC -6.0
10115,-2.7932,-78.9698,Paccha-Nulti,Cantón Cuenca,Azuay,Ecuador,EC,Pacific/Galapagos,UTC -6.0
10116,-2.8958,-79.0513,San Joaquin,Cantón Cuenca,Azuay,Ecuador,EC,Pacific/Galapagos,UTC -6.0
10117,-2.8714,-79.0723,Sayausi,Cantón Cuenca,Azuay,Ecuador,EC,Pacific/Galapagos,UTC -6.0
10118,-2.8729,-79.0459,Checa (Jidcay)-Chiquintad,Cantón Cuenca,Azuay,Ecuador,EC,Pacific/Galapagos,UTC -6.0
10119,-2.8729,-79.0459,Octavio Cordero Palacios (Sta. Rosa)-Sidcay,Cantón Cuenca,Azuay,Ecuador,EC,Pacific/Galapagos,UTC -6.0
10120,-2.8729,-79.0459,Ricaurte-Llacao,Cantón Cuenca,Azuay,Ecuador,EC,Pacific/Galapagos,UTC -6.0
10201,-2.9115,-79.0238,Cuenca_Yanuncay,Cantón Cuenca,Azuay,Ecuador,EC,Pacific/Galapagos,UTC -6.0
10202,-2.8999,-79.0222,Cuenca_Sucre,Cantón Cuenca,Azuay,Ecuador,EC,Pacific/Galapagos,UTC -6.0
10203,-2.906,-79.014,Cuenca_Sucre,Cantón Cuenca,Azuay,Ecuador,EC,Pacific/Galapagos,UTC -6.0
10204,-2.9156,-78.9987,Cuenca_Huayna Capac,Cantón Cuenca,Azuay,Ecuador,EC,Pacific/Galapagos,UTC -6.0
10205,-2.9185,-79.0275,Cuenca_Yanuncay,Cantón Cuenca,Azuay,Ecuador,EC,Pacific/Galapagos,UTC -6.0
10206,-2.9193,-79.0456,Cuenca_Yanuncay,Cantón Cuenca,Azuay,Ecuador,EC,Pacific/Galapagos,UTC -6.0
10207,-2.8929,-79.0435,Cuenca_El Batan,Cantón Cuenca,Azuay,Ecuador,EC,Pacific/Galapagos,UTC -6.0
10208,-2.8921,-79.0161,Cuenca_San Sebastian,Cantón Cuenca,Azuay,Ecuador,EC,Pacific/Galapagos,UTC -6.0
10209,-2.8959,-78.9747,Cuenca_San Sebastian,Cantón Cuenca,Azuay,Ecuador,EC,Pacific/Galapagos,UTC -6.0
10210,-2.9057,-78.9732,Cuenca_Monay,Cantón Cuenca,Azuay,Ecuador,EC,Pacific/Galapagos,UTC -6.0
10211,-2.9363,-78.966,Valle,Cantón Cuenca,Azuay,Ecuador,EC,Pacific/Galapagos,UTC -6.0
10212,-2.9363,-78.966,Valle,Cantón Cuenca,Azuay,Ecuador,EC,Pacific/Galapagos,UTC -6.0
10213,-2.9259,-79.0112,Turi,Cantón Cuenca,Azuay,Ecuador,EC,Pacific/Galapagos,UTC -6.0
10214,-2.9216,-79.0646,Baños,Cantón Cuenca,Azuay,Ecuador,EC,Pacific/Galapagos,UTC -6.0
10215,-2.9398,-78.9212,Santa Ana,Cantón Cuenca,Azuay,Ecuador,EC,Pacific/Galapagos,UTC -6.0
10216,-3.0309,-78.9319,Quingeo,Cantón Cuenca,Azuay,Ecuador,EC,Pacific/Galapagos,UTC -6.0
10217,-3.0142,-79.0344,Tarqui,Cantón Cuenca,Azuay,Ecuador,EC,Pacific/Galapagos,UTC -6.0
10218,-2.9363,-78.966,Valle,Cantón Cuenca,Azuay,Ecuador,EC,Pacific/Galapagos,UTC -6.0
10219,-2.9091,-79.413,Chaucha,Cantón Cuenca,Azuay,Ecuador,EC,Pacific/Galapagos,UTC -6.0
10220,-2.767,-79.397,Molleturo,Cantón Cuenca,Azuay,Ecuador,EC,Pacific/Galapagos,UTC -6.0
10303,-3.1795,-79.1593,Giron-San Gerardo-Asuncion,Cantón Girón,Azuay,Ecuador,EC,Pacific/Galapagos,UTC -6.0
10401,-2.8926,-78.7781,Gualaceo,Cantón Gualaceo,Azuay,Ecuador,EC,Pacific/Galapagos,UTC -6.0
10402,-2.8926,-78.7781,Gualaceo,Cantón Gualaceo,Azuay,Ecuador,EC,Pacific/Galapagos,UTC -6.0
10403,-2.912,-78.7079,Daniel Cordova Toral (El Oriente)-Remigio Crespo Toral (Gulag)-Luis Cordero Vega-Mariano Moreno,Cantón Gualaceo,Azuay,Ecuador,EC,Pacific/Galapagos,UTC -6.0
10405,-2.965,-78.815,San Juan-Simon Bolivar (Cab. En Gañanzol),Cantón Gualaceo,Azuay,Ecuador,EC,Pacific/Galapagos,UTC -6.0
10406,-2.9291,-78.8987,Zhidmad,Cantón Gualaceo,Azuay,Ecuador,EC,Pacific/Galapagos,UTC -6.0
10407,-2.8667,-78.85,Jadan,Cantón Gualaceo,Azuay,Ecuador,EC,Pacific/Galapagos,UTC -6.0
10502,-3.3439,-79.2046,El Progreso (Cab.En Zhiota)-Las Nieves (Chaya),Cantón Nabón,Azuay,Ecuador,EC,Pacific/Galapagos,UTC -6.0
10503,-3.2844,-79.0425,Nabon-Cochapata,Cantón Nabón,Azuay,Ecuador,EC,Pacific/Galapagos,UTC -6.0
10602,-2.7086,-78.7068,Guarainag-Tomebamba-Dug Dug-Bulan (Jose Victor Izquierdo),Cantón Paute,Azuay,Ecuador,EC,Pacific/Galapagos,UTC -6.0
10606,-2.8106,-78.7867,San Cristobal (Carlos Ordoñez Lazo)-Chican (Guillermo Ortega)-El Cabo-Paute,Cantón Paute,Azuay,Ecuador,EC,Pacific/Galapagos,UTC -6.0
10304,-3.1616,-79.4834,San Rafael De Sharug,Pucara,Azuay,Ecuador,EC,Pacific/Galapagos,UTC -6.0
10305,-3.2157,-79.4688,Pucara,Pucara,Azuay,Ecuador,EC,Pacific/Galapagos,UTC -6.0
10306,-3.2157,-79.4688,Pucara,Pucara,Azuay,Ecuador,EC,Pacific/Galapagos,UTC -6.0
10302,-3.1275,-79.2424,San Fernando-Chumblin,Cantón San Fernando,Azuay,Ecuador,EC,Pacific/Galapagos,UTC -6.0
10301,-3.2023,-79.3635,Abdon Calderon (La Union)-Santa Isabel (Chaguarurco)-Zhaglli (Shaglli ),Cantón Santa Isabel,Azuay,Ecuador,EC,Pacific/Galapagos,UTC -6.0
10801,-3.1886,-78.9584,Jima (Gima),Cantón Sigsig,Azuay,Ecuador,EC,Pacific/Galapagos,UTC -6.0
10802,-3.1121,-78.9056,Ludo-San Jose De Raranga,Cantón Sigsig,Azuay,Ecuador,EC,Pacific/Galapagos,UTC -6.0
10803,-3.093,-78.7918,San Bartolome-Guel-Sigsig-Cuchil (Cutchil),Cantón Sigsig,Azuay,Ecuador,EC,Pacific/Galapagos,UTC -6.0
10501,-3.4892,-79.1306,Susudel-San Felipe De Oña,Oña,Azuay,Ecuador,EC,Pacific/Galapagos,UTC -6.0
10404,-2.9867,-78.734,San Martin De Puzhio-Luis Galarza Orellana (Cab. En Delegsol)-Principal-Chordeleg-La Union,Chordeleg,Azuay,Ecuador,EC,Pacific/Galapagos,UTC -6.0
10605,-2.8577,-78.6547,El Pan-San Vicente,El Pan,Azuay,Ecuador,EC,Pacific/Galapagos,UTC -6.0
10603,-2.6477,-78.5471,Amaluza-Palamas,Sevilla De Oro,Azuay,Ecuador,EC,Pacific/Galapagos,UTC -6.0
10604,-2.8028,-78.654,Sevilla De Oro,Sevilla De Oro,Azuay,Ecuador,EC,Pacific/Galapagos,UTC -6.0
10601,-2.7725,-78.7125,Guachapala,Guachapala,Azuay,Ecuador,EC,Pacific/Galapagos,UTC -6.0
10701,-3.062,-79.7458,Camilo Ponce Enriquez,Camilo Ponce Enríquez,Azuay,Ecuador,EC,Pacific/Galapagos,UTC -6.0
10702,-2.9246,-79.5582,El Carmen De Pijili,Camilo Ponce Enríquez,Azuay,Ecuador,EC,Pacific/Galapagos,UTC -6.0
10703,-3.062,-79.7458,Camilo Ponce Enriquez,Camilo Ponce Enríquez,Azuay,Ecuador,EC,Pacific/Galapagos,UTC -6.0
20101,-1.5926,-79.001,Guaranda,Cantón Guaranda,Bolívar,Ecuador,EC,Pacific/Galapagos,UTC -6.0
20102,-1.5926,-79.001,Guaranda,Cantón Guaranda,Bolívar,Ecuador,EC,Pacific/Galapagos,UTC -6.0
20103,-1.5926,-79.001,Guaranda,Cantón Guaranda,Bolívar,Ecuador,EC,Pacific/Galapagos,UTC -6.0
20104,-1.5926,-79.001,Guaranda,Cantón Guaranda,Bolívar,Ecuador,EC,Pacific/Galapagos,UTC -6.0
20105,-1.5115,-79.1109,Santafe (Santa Fe)-Julio E. Moreno (Catanahuan Grande)-San Simon (Yacoto)-Sanlorenzo,Cantón Guaranda,Bolívar,Ecuador,EC,Pacific/Galapagos,UTC -6.0
20106,-1.5926,-79.001,Guaranda,Cantón Guaranda,Bolívar,Ecuador,EC,Pacific/Galapagos,UTC -6.0
20107,-1.5926,-79.001,Guaranda,Cantón Guaranda,Bolívar,Ecuador,EC,Pacific/Galapagos,UTC -6.0
20108,-1.4054,-79.0186,Salinas,Cantón Guaranda,Bolívar,Ecuador,EC,Pacific/Galapagos,UTC -6.0
20109,-1.2424,-78.9572,Simiatug,Cantón Guaranda,Bolívar,Ecuador,EC,Pacific/Galapagos,UTC -6.0
20110,-1.2103,-79.1255,San Luis De Pambil,Cantón Guaranda,Bolívar,Ecuador,EC,Pacific/Galapagos,UTC -6.0
20111,-1.2042,-79.0643,Facundo Vela,Cantón Guaranda,Bolívar,Ecuador,EC,Pacific/Galapagos,UTC -6.0
20201,-1.9437,-79.0663,Chillanes,Cantón Chillanes,Bolívar,Ecuador,EC,Pacific/Galapagos,UTC -6.0
20202,-1.9559,-79.236,San Jose Del Tambo (Tambopamba),Cantón Chillanes,Bolívar,Ecuador,EC,Pacific/Galapagos,UTC -6.0
20302,-1.6729,-79.0326,San Sebastian-San Jose De Chimbo,Cantón Chimbo,Bolívar,Ecuador,EC,Pacific/Galapagos,UTC -6.0
20306,-1.6658,-79.1709,Telimbela,Cantón Chimbo,Bolívar,Ecuador,EC,Pacific/Galapagos,UTC -6.0
20307,-1.6801,-79.1946,Magdalena (Chapacoto)-Asuncion (Asancoto),Cantón Chimbo,Bolívar,Ecuador,EC,Pacific/Galapagos,UTC -6.0
20401,-1.4311,-79.2805,Echeandia,Canton Echeandia,Bolívar,Ecuador,EC,Pacific/Galapagos,UTC -6.0
20301,-1.7088,-79.0431,San Miguel,Cantón San Miguel,Bolívar,Ecuador,EC,Pacific/Galapagos,UTC -6.0
20303,-1.7271,-78.944,Santiago-San Vicente,Cantón San Miguel,Bolívar,Ecuador,EC,Pacific/Galapagos,UTC -6.0
20304,-1.8183,-79.0674,San Pablo (San Pablo De Atenas),Cantón San Miguel,Bolívar,Ecuador,EC,Pacific/Galapagos,UTC -6.0
20305,-1.815,-79.0704,Balsapamba-Bilovan-Regulo De Mora,Cantón San Miguel,Bolívar,Ecuador,EC,Pacific/Galapagos,UTC -6.0
20403,-1.6082,-79.219,Caluma,Canton Caluma,Bolívar,Ecuador,EC,Pacific/Galapagos,UTC -6.0
20402,-1.2857,-79.3146,Las Naves,Canton Las Naves,Bolívar,Ecuador,EC,Pacific/Galapagos,UTC -6.0
30101,-2.7397,-78.8486,Azogues,Cantón Azogues,Cañar,Ecuador,EC,Pacific/Galapagos,UTC -6.0
30102,-2.7397,-78.8486,Azogues,Cantón Azogues,Cañar,Ecuador,EC,Pacific/Galapagos,UTC -6.0
