postcode,x,y,region_3_en,region_2_en,region_1_en,country_en,country_code,timezone,utc
4574,56.818,27.3056,Žogi,Krišjāņu Parish,Balvu novads,Latvia,LV,Europe/Riga,UTC +2.0
3264,57.5484,22.7018,Dūmele,Dundagas Parish,Talsu novads,Latvia,LV,Europe/Riga,UTC +2.0
4561,57.1016,27.1878,Reči,Balvu Parish,Balvu novads,Latvia,LV,Europe/Riga,UTC +2.0
5101,56.6448,25.2299,Aizkraukle,Aizkraukles Parish,Aizkraukles novads,Latvia,LV,Europe/Riga,UTC +2.0
5101,56.6048,25.2553,Aizkraukles stacija,Aizkraukles Parish,Aizkraukles novads,Latvia,LV,Europe/Riga,UTC +2.0
5134,56.4587,25.4858,Jaunjelgavas,Jaunjelgavas Parish,Aizkraukles novads,Latvia,LV,Europe/Riga,UTC +2.0
5111,56.4782,25.2189,Daudzeva,Daudzeses Parish,Aizkraukles novads,Latvia,LV,Europe/Riga,UTC +2.0
5111,56.4782,25.2189,Daudzese,Daudzeses Parish,Aizkraukles novads,Latvia,LV,Europe/Riga,UTC +2.0
5124,56.6114,25.3608,Sece,Seces Parish,Aizkraukles novads,Latvia,LV,Europe/Riga,UTC +2.0
5124,56.6114,25.3608,Ziedāni,Seces Parish,Aizkraukles novads,Latvia,LV,Europe/Riga,UTC +2.0
5124,56.6114,25.3608,Purviņi,Seces Parish,Aizkraukles novads,Latvia,LV,Europe/Riga,UTC +2.0
5124,56.6114,25.3608,Bitāni,Seces Parish,Aizkraukles novads,Latvia,LV,Europe/Riga,UTC +2.0
5123,56.6121,25.4802,Sērene,Sērenes Parish,Aizkraukles novads,Latvia,LV,Europe/Riga,UTC +2.0
5123,56.6121,25.4802,Dīķi,Sērenes Parish,Aizkraukles novads,Latvia,LV,Europe/Riga,UTC +2.0
5123,56.6121,25.4802,Mellēni,Sērenes Parish,Aizkraukles novads,Latvia,LV,Europe/Riga,UTC +2.0
5123,56.6121,25.4802,Talsiņi,Sērenes Parish,Aizkraukles novads,Latvia,LV,Europe/Riga,UTC +2.0
5123,56.6121,25.4802,Lielziedi,Sērenes Parish,Aizkraukles novads,Latvia,LV,Europe/Riga,UTC +2.0
5128,56.5698,25.4976,Staburags,Staburaga Parish,Aizkraukles novads,Latvia,LV,Europe/Riga,UTC +2.0
5130,56.4587,25.4858,Sunākste,Sunākstes Parish,Aizkraukles novads,Latvia,LV,Europe/Riga,UTC +2.0
5120,56.6338,25.9095,Ķūģi,Aiviekstes Parish,Aizkraukles novads,Latvia,LV,Europe/Riga,UTC +2.0
5120,56.6338,25.9095,Kriškalni,Aiviekstes Parish,Aizkraukles novads,Latvia,LV,Europe/Riga,UTC +2.0
5120,56.6338,25.9095,Maiļupsala,Aiviekstes Parish,Aizkraukles novads,Latvia,LV,Europe/Riga,UTC +2.0
5120,56.6338,25.9095,Īvāni,Aiviekstes Parish,Aizkraukles novads,Latvia,LV,Europe/Riga,UTC +2.0
5120,56.6338,25.9095,Krievciems,Aiviekstes Parish,Aizkraukles novads,Latvia,LV,Europe/Riga,UTC +2.0
5129,56.6007,25.5127,Rīteri,Klintaines Parish,Aizkraukles novads,Latvia,LV,Europe/Riga,UTC +2.0
5129,56.6007,25.5127,Stukmaņi,Klintaines Parish,Aizkraukles novads,Latvia,LV,Europe/Riga,UTC +2.0
5109,56.7369,25.7667,Vietalva,Vietalvas Parish,Aizkraukles novads,Latvia,LV,Europe/Riga,UTC +2.0
5109,56.7115,25.6883,Odziena,Vietalvas Parish,Aizkraukles novads,Latvia,LV,Europe/Riga,UTC +2.0
5135,56.4587,25.4858,Vecbebri,Bebru Parish,Aizkraukles novads,Latvia,LV,Europe/Riga,UTC +2.0
5108,56.7929,25.5937,Irši,Iršu Parish,Aizkraukles novads,Latvia,LV,Europe/Riga,UTC +2.0
5113,56.6516,25.4364,Koknese,Kokneses Parish,Aizkraukles novads,Latvia,LV,Europe/Riga,UTC +2.0
5113,56.6516,25.4364,Bormaņi,Kokneses Parish,Aizkraukles novads,Latvia,LV,Europe/Riga,UTC +2.0
5133,56.4587,25.4858,Ērberģe,Mazzalves Parish,Aizkraukles novads,Latvia,LV,Europe/Riga,UTC +2.0
5118,56.2028,25.3075,Nereta,Neretas Parish,Aizkraukles novads,Latvia,LV,Europe/Riga,UTC +2.0
5110,56.1923,25.1717,Pilskalne,Pilskalnes Parish,Aizkraukles novads,Latvia,LV,Europe/Riga,UTC +2.0
5112,56.273,25.1758,Sproģi,Zalves Parish,Aizkraukles novads,Latvia,LV,Europe/Riga,UTC +2.0
5112,56.2998,25.2113,Vērtūži,Zalves Parish,Aizkraukles novads,Latvia,LV,Europe/Riga,UTC +2.0
5112,56.3266,25.2468,Zalve,Zalves Parish,Aizkraukles novads,Latvia,LV,Europe/Riga,UTC +2.0
5125,56.645,25.1206,Skrīveri,,Aizkraukles novads,Latvia,LV,Europe/Riga,UTC +2.0
5125,56.645,25.1206,Zemkopības institūts,,Aizkraukles novads,Latvia,LV,Europe/Riga,UTC +2.0
5125,56.645,25.1206,Klidziņa,,Aizkraukles novads,Latvia,LV,Europe/Riga,UTC +2.0
5125,56.645,25.1206,Ziedugravas,,Aizkraukles novads,Latvia,LV,Europe/Riga,UTC +2.0
5125,56.645,25.1206,Līči,,Aizkraukles novads,Latvia,LV,Europe/Riga,UTC +2.0
4301,57.4183,27.0006,Aizupītes,Alsviķu Parish,Alūksnes novads,Latvia,LV,Europe/Riga,UTC +2.0
4333,57.4443,26.9381,Alsviķi,Alsviķu Parish,Alūksnes novads,Latvia,LV,Europe/Riga,UTC +2.0
4333,57.4061,26.8908,Strautiņi,Alsviķu Parish,Alūksnes novads,Latvia,LV,Europe/Riga,UTC +2.0
4333,57.4252,26.9145,Pullans,Alsviķu Parish,Alūksnes novads,Latvia,LV,Europe/Riga,UTC +2.0
4341,57.3333,27.0333,Anna,Annas Parish,Alūksnes novads,Latvia,LV,Europe/Riga,UTC +2.0
4344,57.3726,26.6758,Jaunzemi,Ilzenes Parish,Alūksnes novads,Latvia,LV,Europe/Riga,UTC +2.0
4350,57.4005,27.2064,Beja,Jaunalūksnes Parish,Alūksnes novads,Latvia,LV,Europe/Riga,UTC +2.0
4350,57.4387,27.1158,Kolberģis,Jaunalūksnes Parish,Alūksnes novads,Latvia,LV,Europe/Riga,UTC +2.0
4340,57.2838,27.0684,Jaunanna,Jaunannas Parish,Alūksnes novads,Latvia,LV,Europe/Riga,UTC +2.0
4336,57.5272,26.8704,Jaunlaicene,Jaunlaicenes Parish,Alūksnes novads,Latvia,LV,Europe/Riga,UTC +2.0
4342,57.3234,26.8856,Kalncempji,Kalncempju Parish,Alūksnes novads,Latvia,LV,Europe/Riga,UTC +2.0
4354,57.3432,27.4716,Liepna,Liepnas Parish,Alūksnes novads,Latvia,LV,Europe/Riga,UTC +2.0
4359,57.362,27.1639,Brenci,Malienas Parish,Alūksnes novads,Latvia,LV,Europe/Riga,UTC +2.0
4358,57.3383,27.2346,Mālupe,Mālupes Parish,Alūksnes novads,Latvia,LV,Europe/Riga,UTC +2.0
4358,57.3267,27.3127,Sofikalns,Mālupes Parish,Alūksnes novads,Latvia,LV,Europe/Riga,UTC +2.0
4351,57.4912,27.1944,Mārkalne,Mārkalnes Parish,Alūksnes novads,Latvia,LV,Europe/Riga,UTC +2.0
4352,57.4762,27.4402,Pededze,Pededzes Parish,Alūksnes novads,Latvia,LV,Europe/Riga,UTC +2.0
4335,57.5933,26.9445,Korneti,Veclaicenes Parish,Alūksnes novads,Latvia,LV,Europe/Riga,UTC +2.0
4345,57.359,26.7771,Zeltiņi,Zeltiņu Parish,Alūksnes novads,Latvia,LV,Europe/Riga,UTC +2.0
4332,57.4875,26.9768,Māriņkalns,Ziemera Parish,Alūksnes novads,Latvia,LV,Europe/Riga,UTC +2.0
4332,57.5334,27.0614,Ziemeri,Ziemera Parish,Alūksnes novads,Latvia,LV,Europe/Riga,UTC +2.0
4501,57.1163,27.2589,Centramuiža,Balvu Parish,Balvu novads,Latvia,LV,Europe/Riga,UTC +2.0
4501,57.1466,27.3787,Verpuļeva,Balvu Parish,Balvu novads,Latvia,LV,Europe/Riga,UTC +2.0
4501,57.1466,27.3787,Lemešava,Balvu Parish,Balvu novads,Latvia,LV,Europe/Riga,UTC +2.0
4501,57.1466,27.3787,Salmaņi,Balvu Parish,Balvu novads,Latvia,LV,Europe/Riga,UTC +2.0
4501,57.1466,27.3787,Stepjugabali,Balvu Parish,Balvu novads,Latvia,LV,Europe/Riga,UTC +2.0
4501,57.1466,27.3787,Vaņki,Balvu Parish,Balvu novads,Latvia,LV,Europe/Riga,UTC +2.0
4501,57.1466,27.3787,Žaugupe,Balvu Parish,Balvu novads,Latvia,LV,Europe/Riga,UTC +2.0
4561,57.0862,27.2173,Dobenieki,Balvu Parish,Balvu novads,Latvia,LV,Europe/Riga,UTC +2.0
4561,57.0862,27.2173,Rāvusala,Balvu Parish,Balvu novads,Latvia,LV,Europe/Riga,UTC +2.0
4561,57.0862,27.2173,Pilskalns,Balvu Parish,Balvu novads,Latvia,LV,Europe/Riga,UTC +2.0
4561,57.0862,27.2173,Lācupe,Balvu Parish,Balvu novads,Latvia,LV,Europe/Riga,UTC +2.0
4561,57.0862,27.2173,Lāčugabali,Balvu Parish,Balvu novads,Latvia,LV,Europe/Riga,UTC +2.0
4561,57.0862,27.2173,Keņi,Balvu Parish,Balvu novads,Latvia,LV,Europe/Riga,UTC +2.0
4561,57.0862,27.2173,Dzeņulauza,Balvu Parish,Balvu novads,Latvia,LV,Europe/Riga,UTC +2.0
4561,57.0862,27.2173,Āžudambis,Balvu Parish,Balvu novads,Latvia,LV,Europe/Riga,UTC +2.0
4561,57.0939,27.17,Silamala,Balvu Parish,Balvu novads,Latvia,LV,Europe/Riga,UTC +2.0
4561,57.11,27.2067,Mēķi,Balvu Parish,Balvu novads,Latvia,LV,Europe/Riga,UTC +2.0
4561,57.0856,27.2355,Naudaskalns,Balvu Parish,Balvu novads,Latvia,LV,Europe/Riga,UTC +2.0
4561,57.062,27.3037,Ozolsala,Balvu Parish,Balvu novads,Latvia,LV,Europe/Riga,UTC +2.0
4561,57.0809,27.127,Dūrupe,Balvu Parish,Balvu novads,Latvia,LV,Europe/Riga,UTC +2.0
4561,57.0766,27.2821,Plītinava,Balvu Parish,Balvu novads,Latvia,LV,Europe/Riga,UTC +2.0
4561,57.0791,27.2258,Kārklinieki,Balvu Parish,Balvu novads,Latvia,LV,Europe/Riga,UTC +2.0
4501,57.1291,27.4071,Silakrogs,Bērzkalnes Parish,Balvu novads,Latvia,LV,Europe/Riga,UTC +2.0
4501,57.1466,27.3787,Lazdukalns,Bērzkalnes Parish,Balvu novads,Latvia,LV,Europe/Riga,UTC +2.0
4501,57.1222,27.3379,Dubļava,Bērzkalnes Parish,Balvu novads,Latvia,LV,Europe/Riga,UTC +2.0
4501,57.1466,27.3787,Vējava,Bērzkalnes Parish,Balvu novads,Latvia,LV,Europe/Riga,UTC +2.0
4501,57.1466,27.3787,Režgaļi,Bērzkalnes Parish,Balvu novads,Latvia,LV,Europe/Riga,UTC +2.0
4501,57.1466,27.3787,Lemešava,Bērzkalnes Parish,Balvu novads,Latvia,LV,Europe/Riga,UTC +2.0
4501,57.1466,27.3787,Šūcene,Bērzkalnes Parish,Balvu novads,Latvia,LV,Europe/Riga,UTC +2.0
4590,57.0929,27.3523,Brūklāji,Bērzkalnes Parish,Balvu novads,Latvia,LV,Europe/Riga,UTC +2.0
4590,57.0972,27.3436,Lielmežnieki,Bērzkalnes Parish,Balvu novads,Latvia,LV,Europe/Riga,UTC +2.0
4590,57.0929,27.3523,Užgova,Bērzkalnes Parish,Balvu novads,Latvia,LV,Europe/Riga,UTC +2.0
4590,57.0929,27.3523,Babāni,Bērzkalnes Parish,Balvu novads,Latvia,LV,Europe/Riga,UTC +2.0
4590,57.1037,27.3495,Bērzkalne,Bērzkalnes Parish,Balvu novads,Latvia,LV,Europe/Riga,UTC +2.0
4590,57.0929,27.3523,Kārnīte,Bērzkalnes Parish,Balvu novads,Latvia,LV,Europe/Riga,UTC +2.0
4590,57.0929,27.3523,Krievkalns,Bērzkalnes Parish,Balvu novads,Latvia,LV,Europe/Riga,UTC +2.0
