postal_code,latitude,longitude,region_1_en,region_2_en,region_3_en,country_code,country_en,timezone,utc
32000,35.2516,-3.9372,Al Hoceima,Tanger-Tetouan-Al Hoceima,Al-Hoceima,MA,Morocco,Africa/Casablanca,UTC+1.0
32003,35.1065,-3.9685,Ait Youssef Ou Ali,Tanger-Tetouan-Al Hoceima,Al-Hoceima,MA,Morocco,Africa/Casablanca,UTC+1.0
32004,34.9265,-3.832,Arbaa Taourirt,Tanger-Tetouan-Al Hoceima,Al-Hoceima,MA,Morocco,Africa/Casablanca,UTC+1.0
32006,35.1412,-4.1363,Rouadi,Tanger-Tetouan-Al Hoceima,Al-Hoceima,MA,Morocco,Africa/Casablanca,UTC+1.0
32013,35.0745,-4.2158,Senada,Tanger-Tetouan-Al Hoceima,Al-Hoceima,MA,Morocco,Africa/Casablanca,UTC+1.0
32014,35.1521,-4.3259,Torres De Alcala,Tanger-Tetouan-Al Hoceima,Al-Hoceima,MA,Morocco,Africa/Casablanca,UTC+1.0
32022,35.0672,-3.9867,Ait Kamra,Tanger-Tetouan-Al Hoceima,Al-Hoceima,MA,Morocco,Africa/Casablanca,UTC+1.0
32023,34.95,-3.98,Chakrane,Tanger-Tetouan-Al Hoceima,Al-Hoceima,MA,Morocco,Africa/Casablanca,UTC+1.0
32024,35.1844,-3.9933,Izemmouren,Tanger-Tetouan-Al Hoceima,Al-Hoceima,MA,Morocco,Africa/Casablanca,UTC+1.0
32050,35.1051,-3.8403,Bni Bouayach,Tanger-Tetouan-Al Hoceima,Al-Hoceima,MA,Morocco,Africa/Casablanca,UTC+1.0
32072,35.0982,-4.0326,Nekkour,Tanger-Tetouan-Al Hoceima,Al-Hoceima,MA,Morocco,Africa/Casablanca,UTC+1.0
32102,35.1002,-4.3106,Bni Boufrah,Tanger-Tetouan-Al Hoceima,Al-Hoceima,MA,Morocco,Africa/Casablanca,UTC+1.0
32122,35.0584,-4.1738,Beni Gmil Mestassa,Tanger-Tetouan-Al Hoceima,Al-Hoceima,MA,Morocco,Africa/Casablanca,UTC+1.0
32152,35.0225,-4.1401,Bni Hadifa,Tanger-Tetouan-Al Hoceima,Al-Hoceima,MA,Morocco,Africa/Casablanca,UTC+1.0
32172,35.0526,-4.0707,Bni Abdallah,Tanger-Tetouan-Al Hoceima,Al-Hoceima,MA,Morocco,Africa/Casablanca,UTC+1.0
32202,35.1464,-3.8506,Imrabten,Tanger-Tetouan-Al Hoceima,Al-Hoceima,MA,Morocco,Africa/Casablanca,UTC+1.0
32250,35.1464,-3.8506,Imzouren,Tanger-Tetouan-Al Hoceima,Al-Hoceima,MA,Morocco,Africa/Casablanca,UTC+1.0
32253,35.1464,-3.8506,Troukout,Tanger-Tetouan-Al Hoceima,Al-Hoceima,MA,Morocco,Africa/Casablanca,UTC+1.0
32302,34.9391,-4.4938,Issaguen,Tanger-Tetouan-Al Hoceima,Al-Hoceima,MA,Morocco,Africa/Casablanca,UTC+1.0
32322,34.7492,-4.6575,Ikaouen,Tanger-Tetouan-Al Hoceima,Al-Hoceima,MA,Morocco,Africa/Casablanca,UTC+1.0
32323,34.9177,-4.5713,Ketama,Tanger-Tetouan-Al Hoceima,Al-Hoceima,MA,Morocco,Africa/Casablanca,UTC+1.0
32324,34.9395,-4.5522,Tabarannt,Tanger-Tetouan-Al Hoceima,Al-Hoceima,MA,Morocco,Africa/Casablanca,UTC+1.0
32325,35.1517,-4.4277,Taghzout,Tanger-Tetouan-Al Hoceima,Al-Hoceima,MA,Morocco,Africa/Casablanca,UTC+1.0
32326,34.9395,-4.5522,Tizi Tchen,Tanger-Tetouan-Al Hoceima,Al-Hoceima,MA,Morocco,Africa/Casablanca,UTC+1.0
32350,34.9377,-4.3186,Targuist,Tanger-Tetouan-Al Hoceima,Al-Hoceima,MA,Morocco,Africa/Casablanca,UTC+1.0
32352,34.9377,-4.3186,Bni Ammart,Tanger-Tetouan-Al Hoceima,Al-Hoceima,MA,Morocco,Africa/Casablanca,UTC+1.0
32372,34.9391,-4.4938,Ain Benabbou,Tanger-Tetouan-Al Hoceima,Al-Hoceima,MA,Morocco,Africa/Casablanca,UTC+1.0
32373,34.9391,-4.4938,Bni Bounsar,Tanger-Tetouan-Al Hoceima,Al-Hoceima,MA,Morocco,Africa/Casablanca,UTC+1.0
32374,34.9391,-4.4938,Bni Bchir,Tanger-Tetouan-Al Hoceima,Al-Hoceima,MA,Morocco,Africa/Casablanca,UTC+1.0
32375,34.9391,-4.4938,Sidi Bouzineb,Tanger-Tetouan-Al Hoceima,Al-Hoceima,MA,Morocco,Africa/Casablanca,UTC+1.0
91000,35.1688,-5.2636,Chefchaouen,Tanger-Tetouan-Al Hoceima,Chefchaouen Province,MA,Morocco,Africa/Casablanca,UTC+1.0
91002,35.0617,-5.1983,Bab Taza,Tanger-Tetouan-Al Hoceima,Chefchaouen Province,MA,Morocco,Africa/Casablanca,UTC+1.0
91003,35.1152,-5.2309,Steha,Tanger-Tetouan-Al Hoceima,Chefchaouen Province,MA,Morocco,Africa/Casablanca,UTC+1.0
91022,35.0839,-5.0052,Ain Beida,Tanger-Tetouan-Al Hoceima,Chefchaouen Province,MA,Morocco,Africa/Casablanca,UTC+1.0
91023,35.1136,-4.9709,Asifane,Tanger-Tetouan-Al Hoceima,Chefchaouen Province,MA,Morocco,Africa/Casablanca,UTC+1.0
91024,35.0839,-5.0052,Asjen,Tanger-Tetouan-Al Hoceima,Chefchaouen Province,MA,Morocco,Africa/Casablanca,UTC+1.0
91025,34.98,-5.4234,Beni Rzen,Tanger-Tetouan-Al Hoceima,Chefchaouen Province,MA,Morocco,Africa/Casablanca,UTC+1.0
91026,35.0839,-5.0052,Brikcha,Tanger-Tetouan-Al Hoceima,Chefchaouen Province,MA,Morocco,Africa/Casablanca,UTC+1.0
91032,35.2294,-5.2368,Derkoul,Tanger-Tetouan-Al Hoceima,Chefchaouen Province,MA,Morocco,Africa/Casablanca,UTC+1.0
91033,34.9487,-5.248,Fifi,Tanger-Tetouan-Al Hoceima,Chefchaouen Province,MA,Morocco,Africa/Casablanca,UTC+1.0
91034,35.2294,-5.2368,Beni Bouzra,Tanger-Tetouan-Al Hoceima,Chefchaouen Province,MA,Morocco,Africa/Casablanca,UTC+1.0
91035,35.2294,-5.2368,Kaa Asrass,Tanger-Tetouan-Al Hoceima,Chefchaouen Province,MA,Morocco,Africa/Casablanca,UTC+1.0
91036,35.0839,-5.0052,Tassift,Tanger-Tetouan-Al Hoceima,Chefchaouen Province,MA,Morocco,Africa/Casablanca,UTC+1.0
91042,35.1781,-5.3216,Derdera,Tanger-Tetouan-Al Hoceima,Chefchaouen Province,MA,Morocco,Africa/Casablanca,UTC+1.0
91043,35.1781,-5.3216,Had Rhdir Krouch,Tanger-Tetouan-Al Hoceima,Chefchaouen Province,MA,Morocco,Africa/Casablanca,UTC+1.0
91044,35.2516,-5.1825,Talembote,Tanger-Tetouan-Al Hoceima,Chefchaouen Province,MA,Morocco,Africa/Casablanca,UTC+1.0
91045,35.1045,-5.4608,Tanacob,Tanger-Tetouan-Al Hoceima,Chefchaouen Province,MA,Morocco,Africa/Casablanca,UTC+1.0
91046,35.1781,-5.3216,Tlata Assifane,Tanger-Tetouan-Al Hoceima,Chefchaouen Province,MA,Morocco,Africa/Casablanca,UTC+1.0
91052,34.9983,-4.893,Bab Berret,Tanger-Tetouan-Al Hoceima,Chefchaouen Province,MA,Morocco,Africa/Casablanca,UTC+1.0
91072,34.9363,-4.7794,Tamorote,Tanger-Tetouan-Al Hoceima,Chefchaouen Province,MA,Morocco,Africa/Casablanca,UTC+1.0
91073,34.9363,-4.7794,Iouane,Tanger-Tetouan-Al Hoceima,Chefchaouen Province,MA,Morocco,Africa/Casablanca,UTC+1.0
91102,35.1064,-4.9389,Bni Ahmed,Tanger-Tetouan-Al Hoceima,Chefchaouen Province,MA,Morocco,Africa/Casablanca,UTC+1.0
91122,35.134,-5.3659,El Melha,Tanger-Tetouan-Al Hoceima,Chefchaouen Province,MA,Morocco,Africa/Casablanca,UTC+1.0
91123,35.134,-5.3659,Bni Ahmed Gharbia,Tanger-Tetouan-Al Hoceima,Chefchaouen Province,MA,Morocco,Africa/Casablanca,UTC+1.0
91124,35.134,-5.3659,Mansoura,Tanger-Tetouan-Al Hoceima,Chefchaouen Province,MA,Morocco,Africa/Casablanca,UTC+1.0
91152,35.0839,-5.0052,Mokrisset,Tanger-Tetouan-Al Hoceima,Chefchaouen Province,MA,Morocco,Africa/Casablanca,UTC+1.0
91153,35.2055,-4.6652,Jebha,Tanger-Tetouan-Al Hoceima,Chefchaouen Province,MA,Morocco,Africa/Casablanca,UTC+1.0
91172,35.1312,-4.6553,Bni Smih,Tanger-Tetouan-Al Hoceima,Chefchaouen Province,MA,Morocco,Africa/Casablanca,UTC+1.0
91173,35.2425,-4.7925,Amtar,Tanger-Tetouan-Al Hoceima,Chefchaouen Province,MA,Morocco,Africa/Casablanca,UTC+1.0
91174,35.0199,-4.5181,Ouaouzgane,Tanger-Tetouan-Al Hoceima,Chefchaouen Province,MA,Morocco,Africa/Casablanca,UTC+1.0
91202,35.0839,-5.0052,Zoumi,Tanger-Tetouan-Al Hoceima,Chefchaouen Province,MA,Morocco,Africa/Casablanca,UTC+1.0
94022,35.7132,-5.6967,Bahraouiyne Tanja,Tanger-Tetouan-Al Hoceima,Fahs-Anjra,MA,Morocco,Africa/Casablanca,UTC+1.0
94023,35.7132,-5.6967,Bahriyne El Aouama,Tanger-Tetouan-Al Hoceima,Fahs-Anjra,MA,Morocco,Africa/Casablanca,UTC+1.0
94025,35.7132,-5.6967,El Borch,Tanger-Tetouan-Al Hoceima,Fahs-Anjra,MA,Morocco,Africa/Casablanca,UTC+1.0
94026,35.7132,-5.6967,Zoco Jemis De Anyera,Tanger-Tetouan-Al Hoceima,Fahs-Anjra,MA,Morocco,Africa/Casablanca,UTC+1.0
94031,35.6548,-5.6836,Hakkama,Tanger-Tetouan-Al Hoceima,Fahs-Anjra,MA,Morocco,Africa/Casablanca,UTC+1.0
94053,35.737,-5.6314,Melloussa,Tanger-Tetouan-Al Hoceima,Fahs-Anjra,MA,Morocco,Africa/Casablanca,UTC+1.0
94122,35.7877,-5.4709,Tarhremt,Tanger-Tetouan-Al Hoceima,Fahs-Anjra,MA,Morocco,Africa/Casablanca,UTC+1.0
94152,35.8421,-5.5543,Ksar Sghir,Tanger-Tetouan-Al Hoceima,Fahs-Anjra,MA,Morocco,Africa/Casablanca,UTC+1.0
92000,35.1932,-6.1557,Larache,Tanger-Tetouan-Al Hoceima,Larache,MA,Morocco,Africa/Casablanca,UTC+1.0
92002,35.1932,-6.1557,Sebt Bni Garfet,Tanger-Tetouan-Al Hoceima,Larache,MA,Morocco,Africa/Casablanca,UTC+1.0
92022,35.3868,-5.8883,Arbaa Ayacha,Tanger-Tetouan-Al Hoceima,Larache,MA,Morocco,Africa/Casablanca,UTC+1.0
92023,35.3035,-5.7799,Sidi Ali,Tanger-Tetouan-Al Hoceima,Larache,MA,Morocco,Africa/Casablanca,UTC+1.0
92024,35.2201,-5.6715,Zaaroura,Tanger-Tetouan-Al Hoceima,Larache,MA,Morocco,Africa/Casablanca,UTC+1.0
92052,35.2117,-5.9437,Al Aouamra,Tanger-Tetouan-Al Hoceima,Larache,MA,Morocco,Africa/Casablanca,UTC+1.0
92072,35.0468,-6.0592,Zouada,Tanger-Tetouan-Al Hoceima,Larache,MA,Morocco,Africa/Casablanca,UTC+1.0
92102,35.2534,-6.0796,Khemis Sahel,Tanger-Tetouan-Al Hoceima,Larache,MA,Morocco,Africa/Casablanca,UTC+1.0
92150,35.0004,-5.9038,Ksar El Kebir,Tanger-Tetouan-Al Hoceima,Larache,MA,Morocco,Africa/Casablanca,UTC+1.0
92172,35.1269,-5.9917,Mecherah,Tanger-Tetouan-Al Hoceima,Larache,MA,Morocco,Africa/Casablanca,UTC+1.0
92173,35.1269,-5.9917,Souk Tolba,Tanger-Tetouan-Al Hoceima,Larache,MA,Morocco,Africa/Casablanca,UTC+1.0
92202,35.0327,-5.7738,Tatoufet,Tanger-Tetouan-Al Hoceima,Larache,MA,Morocco,Africa/Casablanca,UTC+1.0
92252,35.0327,-5.7738,Tlata Rissana,Tanger-Tetouan-Al Hoceima,Larache,MA,Morocco,Africa/Casablanca,UTC+1.0
92272,35.0327,-5.7738,Rissana Janoubia,Tanger-Tetouan-Al Hoceima,Larache,MA,Morocco,Africa/Casablanca,UTC+1.0
93034,35.553,-5.2447,Moulay Abdesslam,Tanger-Tetouan-Al Hoceima,Larache,MA,Morocco,Africa/Casablanca,UTC+1.0
90025,35.4509,-5.8449,Hajr Enhal,Tanger-Tetouan-Al Hoceima,Tanger-Assilah,MA,Morocco,Africa/Casablanca,UTC+1.0
90036,35.4509,-5.8449,Sebt Zeniate,Tanger-Tetouan-Al Hoceima,Tanger-Assilah,MA,Morocco,Africa/Casablanca,UTC+1.0
90050,35.4652,-6.0342,Assilah,Tanger-Tetouan-Al Hoceima,Tanger-Assilah,MA,Morocco,Africa/Casablanca,UTC+1.0
90052,35.5377,-5.7174,Dar Chaoui,Tanger-Tetouan-Al Hoceima,Tanger-Assilah,MA,Morocco,Africa/Casablanca,UTC+1.0
90054,35.3693,-5.9724,Tnine Sidi El Yamani,Tanger-Tetouan-Al Hoceima,Tanger-Assilah,MA,Morocco,Africa/Casablanca,UTC+1.0
90102,35.4637,-5.8621,Gzenaya,Tanger-Tetouan-Al Hoceima,Tanger-Assilah,MA,Morocco,Africa/Casablanca,UTC+1.0
90302,35.5151,-5.9308,Had Rharbia,Tanger-Tetouan-Al Hoceima,Tanger-Assilah,MA,Morocco,Africa/Casablanca,UTC+1.0
90072,35.4314,-5.6557,Bghaghza,Tanger-Tetouan-Al Hoceima,Tetouan,MA,Morocco,Africa/Casablanca,UTC+1.0
93015,35.553,-5.2447,Asmaten,Tanger-Tetouan-Al Hoceima,Tetouan,MA,Morocco,Africa/Casablanca,UTC+1.0
93022,35.553,-5.2447,Azla,Tanger-Tetouan-Al Hoceima,Tetouan,MA,Morocco,Africa/Casablanca,UTC+1.0
93023,35.553,-5.2447,Beni Yder,Tanger-Tetouan-Al Hoceima,Tetouan,MA,Morocco,Africa/Casablanca,UTC+1.0
93024,35.553,-5.2447,Dar Ben Saddouk,Tanger-Tetouan-Al Hoceima,Tetouan,MA,Morocco,Africa/Casablanca,UTC+1.0
93026,35.553,-5.2447,El Fendeq,Tanger-Tetouan-Al Hoceima,Tetouan,MA,Morocco,Africa/Casablanca,UTC+1.0
93032,35.553,-5.2447,Zaouia Sidi Kacem,Tanger-Tetouan-Al Hoceima,Tetouan,MA,Morocco,Africa/Casablanca,UTC+1.0
93033,35.553,-5.2447,Jemaa El Oued,Tanger-Tetouan-Al Hoceima,Tetouan,MA,Morocco,Africa/Casablanca,UTC+1.0
93052,35.553,-5.2447,Bni Karrich Fouki,Tanger-Tetouan-Al Hoceima,Tetouan,MA,Morocco,Africa/Casablanca,UTC+1.0
