postal_code,latitude,longitude,country_el,country_tr,country_en,country_code,Region_1_el,Region_1_tr,region_1_en,Region_2_lc,Region_2_el,Region_2_tr,Region_2_en,Region_3_lc,Region_3_e1,Region_3_tr,Region_3_en,timezone,utc
5280,35.0395,33.9818,Κύπρος,Kıbrıs,Cyprus,CY,Αμμόχωστος,Gazimağusa,Famagusta,Paralimni,Παραλίμνι,Paralimni,Paralimni,,,,,Asia/Famagusta,UTC +2.0
5281,35.0395,33.9818,Κύπρος,Kıbrıs,Cyprus,CY,Αμμόχωστος,Gazimağusa,Famagusta,Paralimni,Παραλίμνι,Paralimni,Paralimni,,,,,Asia/Famagusta,UTC +2.0
5282,35.0395,33.9818,Κύπρος,Kıbrıs,Cyprus,CY,Αμμόχωστος,Gazimağusa,Famagusta,Paralimni,Παραλίμνι,Paralimni,Paralimni,,,,,Asia/Famagusta,UTC +2.0
5283,35.0395,33.9818,Κύπρος,Kıbrıs,Cyprus,CY,Αμμόχωστος,Gazimağusa,Famagusta,Paralimni,Παραλίμνι,Paralimni,Paralimni,,,,,Asia/Famagusta,UTC +2.0
5284,35.0395,33.9818,Κύπρος,Kıbrıs,Cyprus,CY,Αμμόχωστος,Gazimağusa,Famagusta,Paralimni,Παραλίμνι,Paralimni,Paralimni,,,,,Asia/Famagusta,UTC +2.0
5285,35.0395,33.9818,Κύπρος,Kıbrıs,Cyprus,CY,Αμμόχωστος,Gazimağusa,Famagusta,Paralimni,Παραλίμνι,Paralimni,Paralimni,,,,,Asia/Famagusta,UTC +2.0
5286,35.0395,33.9818,Κύπρος,Kıbrıs,Cyprus,CY,Αμμόχωστος,Gazimağusa,Famagusta,Paralimni,Παραλίμνι,Paralimni,Paralimni,,,,,Asia/Famagusta,UTC +2.0
5288,35.0395,33.9818,Κύπρος,Kıbrıs,Cyprus,CY,Αμμόχωστος,Gazimağusa,Famagusta,Paralimni,Παραλίμνι,Paralimni,Paralimni,,,,,Asia/Famagusta,UTC +2.0
5289,35.0395,33.9818,Κύπρος,Kıbrıs,Cyprus,CY,Αμμόχωστος,Gazimağusa,Famagusta,Paralimni,Παραλίμνι,Paralimni,Paralimni,,,,,Asia/Famagusta,UTC +2.0
5290,35.0395,33.9818,Κύπρος,Kıbrıs,Cyprus,CY,Αμμόχωστος,Gazimağusa,Famagusta,Paralimni,Παραλίμνι,Paralimni,Paralimni,,,,,Asia/Famagusta,UTC +2.0
5291,35.0395,33.9818,Κύπρος,Kıbrıs,Cyprus,CY,Αμμόχωστος,Gazimağusa,Famagusta,Paralimni,Παραλίμνι,Paralimni,Paralimni,,,,,Asia/Famagusta,UTC +2.0
5292,35.0395,33.9818,Κύπρος,Kıbrıs,Cyprus,CY,Αμμόχωστος,Gazimağusa,Famagusta,Paralimni,Παραλίμνι,Paralimni,Paralimni,,,,,Asia/Famagusta,UTC +2.0
5295,35.0395,33.9818,Κύπρος,Kıbrıs,Cyprus,CY,Αμμόχωστος,Gazimağusa,Famagusta,Paralimni,Παραλίμνι,Paralimni,Paralimni,,,,,Asia/Famagusta,UTC +2.0
5296,35.0395,33.9818,Κύπρος,Kıbrıs,Cyprus,CY,Αμμόχωστος,Gazimağusa,Famagusta,Paralimni,Παραλίμνι,Paralimni,Paralimni,,,,,Asia/Famagusta,UTC +2.0
5297,35.0395,33.9818,Κύπρος,Kıbrıs,Cyprus,CY,Αμμόχωστος,Gazimağusa,Famagusta,Paralimni,Παραλίμνι,Paralimni,Paralimni,,,,,Asia/Famagusta,UTC +2.0
5320,35.0088,33.8926,Κύπρος,Kıbrıs,Cyprus,CY,Αμμόχωστος,Gazimağusa,Famagusta,Liopetri,Λιοπέτρι,Liopetri,Liopetri,,,,,Asia/Famagusta,UTC +2.0
5330,34.9821,34.0018,Κύπρος,Kıbrıs,Cyprus,CY,Αμμόχωστος,Gazimağusa,Famagusta,Agia Napa,Αγία Νάπα,Ayia Napa,Agia Napa,,,,,Asia/Famagusta,UTC +2.0
5350,35.0412,33.9224,Κύπρος,Kıbrıs,Cyprus,CY,Αμμόχωστος,Gazimağusa,Famagusta,Frenaros,Φρέναρος,Frenaros,Frenaros,,,,,Asia/Famagusta,UTC +2.0
5370,35.0246,33.9459,Κύπρος,Kıbrıs,Cyprus,CY,Αμμόχωστος,Gazimağusa,Famagusta,Sotira,Σωτήρα,Sotira,Sotira,,,,,Asia/Famagusta,UTC +2.0
5380,35.0648,33.9608,Κύπρος,Kıbrıs,Cyprus,CY,Αμμόχωστος,Gazimağusa,Famagusta,Derinköy,Ντερινκόι,Derinköy,Deryneia,,,,,Asia/Famagusta,UTC +2.0
5390,35.0262,33.9518,Κύπρος,Kıbrıs,Cyprus,CY,Αμμόχωστος,Gazimağusa,Famagusta,Sotira,Σωτήρα,Sotira,Sotira,,,,,Asia/Famagusta,UTC +2.0
5391,35.0262,33.9518,Κύπρος,Kıbrıs,Cyprus,CY,Αμμόχωστος,Gazimağusa,Famagusta,Sotira,Σωτήρα,Sotira,Sotira,,,,,Asia/Famagusta,UTC +2.0
5500,35.0552,33.7839,Κύπρος,Kıbrıs,Cyprus,CY,Αμμόχωστος,Gazimağusa,Famagusta,Düzce,Δύζτσε,Düzce,Düzce,,,,,Asia/Famagusta,UTC +2.0
5510,35.0362,33.8392,Κύπρος,Kıbrıs,Cyprus,CY,Αμμόχωστος,Gazimağusa,Famagusta,Avgorou,Αυγόρου,Avgorou,Avgorou,,,,,Asia/Famagusta,UTC +2.0
5520,35.1002,33.8615,Κύπρος,Kıbrıs,Cyprus,CY,Αμμόχωστος,Gazimağusa,Famagusta,Güvercinlik,Γκουβερτζινλίκ,Güvercinlik,Güvercinlik,,,,,Asia/Famagusta,UTC +2.0
5521,35.1002,33.8615,Κύπρος,Kıbrıs,Cyprus,CY,Αμμόχωστος,Gazimağusa,Famagusta,Güvercinlik,Γκουβερτζινλίκ,Güvercinlik,Güvercinlik,,,,,Asia/Famagusta,UTC +2.0
5522,35.1002,33.8615,Κύπρος,Kıbrıs,Cyprus,CY,Αμμόχωστος,Gazimağusa,Famagusta,Güvercinlik,Γκουβερτζινλίκ,Güvercinlik,Güvercinlik,,,,,Asia/Famagusta,UTC +2.0
5523,35.1002,33.8615,Κύπρος,Kıbrıs,Cyprus,CY,Αμμόχωστος,Gazimağusa,Famagusta,Güvercinlik,Γκουβερτζινλίκ,Güvercinlik,Güvercinlik,,,,,Asia/Famagusta,UTC +2.0
5524,35.1002,33.8615,Κύπρος,Kıbrıs,Cyprus,CY,Αμμόχωστος,Gazimağusa,Famagusta,Güvercinlik,Γκουβερτζινλίκ,Güvercinlik,Güvercinlik,,,,,Asia/Famagusta,UTC +2.0
5525,35.1002,33.8615,Κύπρος,Kıbrıs,Cyprus,CY,Αμμόχωστος,Gazimağusa,Famagusta,Güvercinlik,Γκουβερτζινλίκ,Güvercinlik,Güvercinlik,,,,,Asia/Famagusta,UTC +2.0
5540,35.1047,33.681,Κύπρος,Kıbrıs,Cyprus,CY,Αμμόχωστος,Gazimağusa,Famagusta,Akdoğan,Ακντογάν,Akdoğan,Akdoğan,,,,,Asia/Famagusta,UTC +2.0
5560,35.1198,33.717,Κύπρος,Kıbrıs,Cyprus,CY,Αμμόχωστος,Gazimağusa,Famagusta,Türkmenköy,Τουρκμενκόι,Türkmenköy,Türkmenköy,,,,,Asia/Famagusta,UTC +2.0
5561,35.1198,33.717,Κύπρος,Kıbrıs,Cyprus,CY,Αμμόχωστος,Gazimağusa,Famagusta,Türkmenköy,Τουρκμενκόι,Türkmenköy,Türkmenköy,,,,,Asia/Famagusta,UTC +2.0
5562,35.1334,33.6556,Κύπρος,Kıbrıs,Cyprus,CY,Αμμόχωστος,Gazimağusa,Famagusta,Vadili,Βαντίλι,Vadili,Vadili,,,,,Asia/Famagusta,UTC +2.0
5563,35.0964,33.794,Κύπρος,Kıbrıs,Cyprus,CY,Αμμόχωστος,Gazimağusa,Famagusta,Çayönü,Τσαγιονιού,Çayönü,Çayönü,,,,,Asia/Famagusta,UTC +2.0
5564,35.1027,33.7158,Κύπρος,Kıbrıs,Cyprus,CY,Αμμόχωστος,Gazimağusa,Famagusta,Türkmenköy,Τουρκμενκόι,Türkmenköy,Türkmenköy,,,,,Asia/Famagusta,UTC +2.0
5565,35.1085,33.7507,Κύπρος,Kıbrıs,Cyprus,CY,Αμμόχωστος,Gazimağusa,Famagusta,Köprülü,Κοπρουλού,Köprülü,Köprülü,,,,,Asia/Famagusta,UTC +2.0
5566,35.074,33.7622,Κύπρος,Kıbrıs,Cyprus,CY,Αμμόχωστος,Gazimağusa,Famagusta,İncirli,Ιντσιρλί,İncirli,İncirli,,,,,Asia/Famagusta,UTC +2.0
5567,35.1571,33.7011,Κύπρος,Kıbrıs,Cyprus,CY,Αμμόχωστος,Gazimağusa,Famagusta,İnönü,Ινονιού,İnönü,İnönü,,,,,Asia/Famagusta,UTC +2.0
5568,35.1664,33.6392,Κύπρος,Kıbrıs,Cyprus,CY,Αμμόχωστος,Gazimağusa,Famagusta,Turunçlu,Τουρουντσλού,Turunçlu,Turunçlu,,,,,Asia/Famagusta,UTC +2.0
5600,35.2598,33.7319,Κύπρος,Kıbrıs,Cyprus,CY,Αμμόχωστος,Gazimağusa,Famagusta,Geçitkale,Γκετσιτκαλέ,Geçitkale,Geçitkale,,,,,Asia/Famagusta,UTC +2.0
5620,35.2305,33.8005,Κύπρος,Kıbrıs,Cyprus,CY,Αμμόχωστος,Gazimağusa,Famagusta,Yıldırım,Γιλντιρίμ,Yıldırım,Yıldırım,,,,,Asia/Famagusta,UTC +2.0
5621,35.1964,33.8742,Κύπρος,Kıbrıs,Cyprus,CY,Αμμόχωστος,Gazimağusa,Famagusta,Yeniboğaziçi,Γιενιμπογιαζιτσί,Yeniboğaziçi,Yeniboğaziçi,,,,,Asia/Famagusta,UTC +2.0
5622,35.3206,33.7105,Κύπρος,Kıbrıs,Cyprus,CY,Αμμόχωστος,Gazimağusa,Famagusta,Arıdamı,Αρινταμί,Arıdamı,Arıdamı,,,,,Asia/Famagusta,UTC +2.0
5623,35.2107,33.8266,Κύπρος,Kıbrıs,Cyprus,CY,Αμμόχωστος,Gazimağusa,Famagusta,Atlılar,Ατλιλάρ,Atlılar,Atlılar,,,,,Asia/Famagusta,UTC +2.0
5624,35.2305,33.8005,Κύπρος,Kıbrıs,Cyprus,CY,Αμμόχωστος,Gazimağusa,Famagusta,Yıldırım,Γιλντιρίμ,Yıldırım,Yıldırım,,,,,Asia/Famagusta,UTC +2.0
5625,35.2826,33.6878,Κύπρος,Kıbrıs,Cyprus,CY,Αμμόχωστος,Gazimağusa,Famagusta,Çamlıca,Τσαμλίτσα,Çamlıca,Çamlıca,,,,,Asia/Famagusta,UTC +2.0
5626,35.2598,33.7863,Κύπρος,Kıbrıs,Cyprus,CY,Αμμόχωστος,Gazimağusa,Famagusta,Akova,Ακόβα,Akova,Akova,,,,,Asia/Famagusta,UTC +2.0
5627,35.1627,33.8832,Κύπρος,Kıbrıs,Cyprus,CY,Αμμόχωστος,Gazimağusa,Famagusta,Tuzla,Τούζλα,Tuzla,Tuzla,,,,,Asia/Famagusta,UTC +2.0
5628,35.1996,33.8586,Κύπρος,Kıbrıs,Cyprus,CY,Αμμόχωστος,Gazimağusa,Famagusta,Mormenekşe,Μορμενέκσε,Mormenekşe,Mormenekşe,,,,,Asia/Famagusta,UTC +2.0
5629,35.2118,33.7769,Κύπρος,Kıbrıs,Cyprus,CY,Αμμόχωστος,Gazimağusa,Famagusta,Muratağa,Μουραταγά,Muratağa,Muratağa,,,,,Asia/Famagusta,UTC +2.0
5630,35.3326,33.6893,Κύπρος,Kıbrıs,Cyprus,CY,Αμμόχωστος,Gazimağusa,Famagusta,Mallıdağ,Μαλλιντάγ,Mallıdağ,Mallıdağ,,,,,Asia/Famagusta,UTC +2.0
5631,35.2401,33.7802,Κύπρος,Kıbrıs,Cyprus,CY,Αμμόχωστος,Gazimağusa,Famagusta,Yıldırım,Γιλντιρίμ,Yıldırım,Yıldırım,,,,,Asia/Famagusta,UTC +2.0
5632,35.225,33.7689,Κύπρος,Kıbrıs,Cyprus,CY,Αμμόχωστος,Gazimağusa,Famagusta,Alaniçi,Αλανιτσί,Alaniçi,Alaniçi,,,,,Asia/Famagusta,UTC +2.0
5633,35.2178,33.761,Κύπρος,Kıbrıs,Cyprus,CY,Αμμόχωστος,Gazimağusa,Famagusta,Alaniçi,Αλανιτσί,Alaniçi,Alaniçi,,,,,Asia/Famagusta,UTC +2.0
5634,35.2267,33.7596,Κύπρος,Kıbrıs,Cyprus,CY,Αμμόχωστος,Gazimağusa,Famagusta,Alaniçi,Αλανιτσί,Alaniçi,Alaniçi,,,,,Asia/Famagusta,UTC +2.0
5635,35.1754,33.7577,Κύπρος,Kıbrıs,Cyprus,CY,Αμμόχωστος,Gazimağusa,Famagusta,Dörtyol,Ντορτιόλ,Dörtyol,Dörtyol,,,,,Asia/Famagusta,UTC +2.0
5636,35.225,33.7689,Κύπρος,Kıbrıs,Cyprus,CY,Αμμόχωστος,Gazimağusa,Famagusta,Alaniçi,Αλανιτσί,Alaniçi,Alaniçi,,,,,Asia/Famagusta,UTC +2.0
5637,35.2104,33.8007,Κύπρος,Kıbrıs,Cyprus,CY,Αμμόχωστος,Gazimağusa,Famagusta,Sandallar,Σαντάλλαρ,Sandallar,Sandallar,,,,,Asia/Famagusta,UTC +2.0
5638,35.1721,33.8337,Κύπρος,Kıbrıs,Cyprus,CY,Αμμόχωστος,Gazimağusa,Famagusta,Mutluyaka,Μουτλουγιακά,Mutluyaka,Mutluyaka,,,,,Asia/Famagusta,UTC +2.0
5650,35.2229,33.6178,Κύπρος,Kıbrıs,Cyprus,CY,Αμμόχωστος,Gazimağusa,Famagusta,Ulukışla,Ουλουκισλά,Ulukışla,Ulukışla,,,,,Asia/Famagusta,UTC +2.0
5651,35.3053,33.6046,Κύπρος,Kıbrıs,Cyprus,CY,Αμμόχωστος,Gazimağusa,Famagusta,Ergenekon,Εργκενεκον,Ergenekon,Ergenekon,,,,,Asia/Famagusta,UTC +2.0
5652,35.2033,33.5878,Κύπρος,Kıbrıs,Cyprus,CY,Αμμόχωστος,Gazimağusa,Famagusta,Aslanköy,Ασλανκόι,Aslanköy,Aslanköy,,,,,Asia/Famagusta,UTC +2.0
5653,35.2443,33.6466,Κύπρος,Kıbrıs,Cyprus,CY,Αμμόχωστος,Gazimağusa,Famagusta,Pınarlı,Πιναρλί,Pınarlı,Pınarlı,,,,,Asia/Famagusta,UTC +2.0
5654,35.2547,33.6012,Κύπρος,Kıbrıs,Cyprus,CY,Αμμόχωστος,Gazimağusa,Famagusta,Serdarlı,Σερνταρλί,Serdarlı,Serdarlı,,,,,Asia/Famagusta,UTC +2.0
5655,35.2174,33.6981,Κύπρος,Kıbrıs,Cyprus,CY,Αμμόχωστος,Gazimağusa,Famagusta,Nergizli,Νεργκισλί,Nergizli,Nergizli,,,,,Asia/Famagusta,UTC +2.0
5656,35.2648,33.6604,Κύπρος,Kıbrıs,Cyprus,CY,Αμμόχωστος,Gazimağusa,Famagusta,Gönendere,Γκονεντερέ,Gönendere,Gönendere,,,,,Asia/Famagusta,UTC +2.0
5657,35.2828,33.573,Κύπρος,Kıbrıs,Cyprus,CY,Αμμόχωστος,Gazimağusa,Famagusta,Görneç,Γκορνέτς,Görneç,Görneç,,,,,Asia/Famagusta,UTC +2.0
5658,35.193,33.6406,Κύπρος,Kıbrıs,Cyprus,CY,Αμμόχωστος,Gazimağusa,Famagusta,Kurudere,Κουρουντέρε,Kurudere,Kurudere,,,,,Asia/Famagusta,UTC +2.0
5659,35.1827,33.7267,Κύπρος,Kıbrıs,Cyprus,CY,Αμμόχωστος,Gazimağusa,Famagusta,Pirhan,Πιρχάν,Pirhan,Pirhan,,,,,Asia/Famagusta,UTC +2.0
5660,35.31,33.6336,Κύπρος,Kıbrıs,Cyprus,CY,Αμμόχωστος,Gazimağusa,Famagusta,Tirmen,Τιρμέν,Tirmen,Tirmen,,,,,Asia/Famagusta,UTC +2.0
5661,35.2538,33.6873,Κύπρος,Kıbrıs,Cyprus,CY,Αμμόχωστος,Gazimağusa,Famagusta,Sütlüce,Σουτλούτσε,Sütlüce,Sütlüce,,,,,Asia/Famagusta,UTC +2.0
5700,35.2863,33.8917,Κύπρος,Kıbrıs,Cyprus,CY,Αμμόχωστος,Gazimağusa,Famagusta,İskele,Ισκέλε,İskele,İskele,,,,,Asia/Famagusta,UTC +2.0
5720,35.3408,33.9686,Κύπρος,Kıbrıs,Cyprus,CY,Αμμόχωστος,Gazimağusa,Famagusta,Kalecik,Καλετσίκ,Kalecik,Kalecik,,,,,Asia/Famagusta,UTC +2.0
5721,35.3893,34.0147,Κύπρος,Kıbrıs,Cyprus,CY,Αμμόχωστος,Gazimağusa,Famagusta,Zeybekköy,Ζεϊμπεκκόι,Zeybekköy,Zeybekköy,,,,,Asia/Famagusta,UTC +2.0
5722,35.3288,33.9282,Κύπρος,Kıbrıs,Cyprus,CY,Αμμόχωστος,Gazimağusa,Famagusta,Yarköy,Γιαρκόι,Yarköy,Yarköy,,,,,Asia/Famagusta,UTC +2.0
5723,35.366,34.0288,Κύπρος,Kıbrıs,Cyprus,CY,Αμμόχωστος,Gazimağusa,Famagusta,Çayırova,Τσαγίροβα,Çayırova,Çayırova,,,,,Asia/Famagusta,UTC +2.0
5724,35.2366,33.8605,Κύπρος,Kıbrıs,Cyprus,CY,Αμμόχωστος,Gazimağusa,Famagusta,Kuzucuk,Κουζουτσούκ,Kuzucuk,Kuzucuk,,,,,Asia/Famagusta,UTC +2.0
5725,35.3548,33.9627,Κύπρος,Kıbrıs,Cyprus,CY,Αμμόχωστος,Gazimağusa,Famagusta,Kurtuluş,Κουρτουλούς,Kurtuluş,Kurtuluş,,,,,Asia/Famagusta,UTC +2.0
5726,35.3796,34.0714,Κύπρος,Kıbrıs,Cyprus,CY,Αμμόχωστος,Gazimağusa,Famagusta,Bafra,Μπάφρα,Bafra,Bafra,,,,,Asia/Famagusta,UTC +2.0
5727,35.3427,33.9999,Κύπρος,Kıbrıs,Cyprus,CY,Αμμόχωστος,Gazimağusa,Famagusta,Kalecik,Καλετσίκ,Kalecik,Kalecik,,,,,Asia/Famagusta,UTC +2.0
5728,35.27,33.8259,Κύπρος,Kıbrıs,Cyprus,CY,Αμμόχωστος,Gazimağusa,Famagusta,Boğaziçi,Μπογιαζίτσι,Boğaziçi,Boğaziçi,,,,,Asia/Famagusta,UTC +2.0
5729,35.3988,34.0255,Κύπρος,Kıbrıs,Cyprus,CY,Αμμόχωστος,Gazimağusa,Famagusta,Sazlıköy,Σαζλικόι,Sazlıköy,Sazlıköy,,,,,Asia/Famagusta,UTC +2.0
5730,35.3135,33.9476,Κύπρος,Kıbrıs,Cyprus,CY,Αμμόχωστος,Gazimağusa,Famagusta,Boğaz,Μπογιάζ,Boğaz,Boğaz,,,,,Asia/Famagusta,UTC +2.0
5731,35.3136,33.9525,Κύπρος,Kıbrıs,Cyprus,CY,Αμμόχωστος,Gazimağusa,Famagusta,Boğaz,Μπογιάζ,Boğaz,Boğaz,,,,,Asia/Famagusta,UTC +2.0
5732,35.3632,33.9965,Κύπρος,Kıbrıs,Cyprus,CY,Αμμόχωστος,Gazimağusa,Famagusta,Tuzluca,Τουζλούτσα,Tuzluca,Tuzluca,,,,,Asia/Famagusta,UTC +2.0
5733,35.2862,33.9101,Κύπρος,Kıbrıs,Cyprus,CY,Αμμόχωστος,Gazimağusa,Famagusta,Bahçeler,Μπαχτσελέρ,Bahçeler,Bahçeler,,,,,Asia/Famagusta,UTC +2.0
5734,35.2365,33.8718,Κύπρος,Kıbrıs,Cyprus,CY,Αμμόχωστος,Gazimağusa,Famagusta,Ötüken,Οτουκέν,Ötüken,Ötüken,,,,,Asia/Famagusta,UTC +2.0
5735,35.2729,33.8523,Κύπρος,Kıbrıs,Cyprus,CY,Αμμόχωστος,Gazimağusa,Famagusta,Sınırüstü,Σινιρούστου,Sınırüstü,Sınırüstü,,,,,Asia/Famagusta,UTC +2.0
5750,35.3739,33.753,Κύπρος,Kıbrıs,Cyprus,CY,Αμμόχωστος,Gazimağusa,Famagusta,Tatlısu,Τατλισού,Tatlısu,Tatlısu,,,,,Asia/Famagusta,UTC +2.0
5761,35.3702,33.8922,Κύπρος,Kıbrıs,Cyprus,CY,Αμμόχωστος,Gazimağusa,Famagusta,Ardahan,Αρνταχάν,Ardahan,Ardahan,,,,,Asia/Famagusta,UTC +2.0
5762,35.327,33.8151,Κύπρος,Kıbrıs,Cyprus,CY,Αμμόχωστος,Gazimağusa,Famagusta,Altınova,Αλτινόβα,Altınova,Altınova,,,,,Asia/Famagusta,UTC +2.0
5763,35.3566,33.8859,Κύπρος,Kıbrıs,Cyprus,CY,Αμμόχωστος,Gazimağusa,Famagusta,Ardahan,Αρνταχάν,Ardahan,Ardahan,,,,,Asia/Famagusta,UTC +2.0
5764,35.3592,33.9223,Κύπρος,Kıbrıs,Cyprus,CY,Αμμόχωστος,Gazimağusa,Famagusta,Turnalar,Τουρναλάρ,Turnalar,Turnalar,,,,,Asia/Famagusta,UTC +2.0
5765,35.4215,33.9052,Κύπρος,Kıbrıs,Cyprus,CY,Αμμόχωστος,Gazimağusa,Famagusta,Kaplıca,Καπλίτσα,Kaplıca,Kaplıca,,,,,Asia/Famagusta,UTC +2.0
5766,35.3885,33.8988,Κύπρος,Kıbrıs,Cyprus,CY,Αμμόχωστος,Gazimağusa,Famagusta,Kaplıca,Καπλίτσα,Kaplıca,Kaplıca,,,,,Asia/Famagusta,UTC +2.0
5767,35.3953,33.9729,Κύπρος,Kıbrıs,Cyprus,CY,Αμμόχωστος,Gazimağusa,Famagusta,Kilitkaya,Κιλιτκαγιά,Kilitkaya,Kilitkaya,,,,,Asia/Famagusta,UTC +2.0
5768,35.3471,33.7992,Κύπρος,Kıbrıs,Cyprus,CY,Αμμόχωστος,Gazimağusa,Famagusta,Ağıllar,Αγιλάρ,Ağıllar,Ağıllar,,,,,Asia/Famagusta,UTC +2.0
5769,35.3659,33.9384,Κύπρος,Kıbrıs,Cyprus,CY,Αμμόχωστος,Gazimağusa,Famagusta,Ergazi,Εργαζί,Ergazi,Ergazi,,,,,Asia/Famagusta,UTC +2.0
5770,35.333,33.7518,Κύπρος,Kıbrıs,Cyprus,CY,Αμμόχωστος,Gazimağusa,Famagusta,Çınarlı,Τσιναρλί,Çınarlı,Çınarlı,,,,,Asia/Famagusta,UTC +2.0
