postcode,latitude,longitude,region_3_en,region_2_en,region_1_en,country_en,country_code,timezone,utc
4150573,41.1496,-8.611,Porto,Porto,Porto,Portugal,PT,Europe/Lisbon,UTC+0
2080520,39.1755,-8.5693,Fazendas de Almeirim,Almeirim,Santarém,Portugal,PT,Europe/Lisbon,UTC+0
2080533,39.1755,-8.5693,Fazendas de Almeirim,Almeirim,Santarém,Portugal,PT,Europe/Lisbon,UTC+0
2080547,39.1755,-8.5693,Fazendas de Almeirim,Almeirim,Santarém,Portugal,PT,Europe/Lisbon,UTC+0
2080573,39.1755,-8.5693,Fazendas de Almeirim,Almeirim,Santarém,Portugal,PT,Europe/Lisbon,UTC+0
2080597,39.1755,-8.5693,Fazendas de Almeirim,Almeirim,Santarém,Portugal,PT,Europe/Lisbon,UTC+0
2080602,39.1755,-8.5693,Fazendas de Almeirim,Almeirim,Santarém,Portugal,PT,Europe/Lisbon,UTC+0
2080634,39.1755,-8.5693,Fazendas de Almeirim,Almeirim,Santarém,Portugal,PT,Europe/Lisbon,UTC+0
2080718,39.1098,-8.5803,Raposa,Almeirim,Santarém,Portugal,PT,Europe/Lisbon,UTC+0
2080719,39.1116,-8.5585,Vale do Inferno,Almeirim,Santarém,Portugal,PT,Europe/Lisbon,UTC+0
2090133,39.2571,-8.5819,Alpiarça,Alpiarça,Santarém,Portugal,PT,Europe/Lisbon,UTC+0
2090140,39.2571,-8.5819,Alpiarça,Alpiarça,Santarém,Portugal,PT,Europe/Lisbon,UTC+0
2090162,39.2571,-8.5819,Alpiarça,Alpiarça,Santarém,Portugal,PT,Europe/Lisbon,UTC+0
2090216,39.2653,-8.5865,Frade de Baixo,Alpiarça,Santarém,Portugal,PT,Europe/Lisbon,UTC+0
2090218,39.2653,-8.5865,Gouxa,Alpiarça,Santarém,Portugal,PT,Europe/Lisbon,UTC+0
2090311,39.2571,-8.5819,Reserva Natural Municipal,Alpiarça,Santarém,Portugal,PT,Europe/Lisbon,UTC+0
2130051,38.9792,-8.8076,Benavente,Benavente,Santarém,Portugal,PT,Europe/Lisbon,UTC+0
2130056,38.9792,-8.8076,Benavente,Benavente,Santarém,Portugal,PT,Europe/Lisbon,UTC+0
2130059,38.9792,-8.8076,Benavente,Benavente,Santarém,Portugal,PT,Europe/Lisbon,UTC+0
2130133,38.8599,-8.7449,Santo Estevão,Benavente,Santarém,Portugal,PT,Europe/Lisbon,UTC+0
2130151,38.8599,-8.7449,Santo Estevão,Benavente,Santarém,Portugal,PT,Europe/Lisbon,UTC+0
2130175,38.95,-8.75,Barrosa,Benavente,Santarém,Portugal,PT,Europe/Lisbon,UTC+0
2130185,38.9792,-8.8076,Benavente,Benavente,Santarém,Portugal,PT,Europe/Lisbon,UTC+0
2130200,38.9792,-8.8076,Benavente,Benavente,Santarém,Portugal,PT,Europe/Lisbon,UTC+0
2130204,38.9792,-8.8076,Benavente,Benavente,Santarém,Portugal,PT,Europe/Lisbon,UTC+0
2130231,38.9792,-8.8076,Benavente,Benavente,Santarém,Portugal,PT,Europe/Lisbon,UTC+0
2130252,38.9792,-8.8076,Benavente,Benavente,Santarém,Portugal,PT,Europe/Lisbon,UTC+0
2130278,38.9792,-8.8076,Benavente,Benavente,Santarém,Portugal,PT,Europe/Lisbon,UTC+0
2130351,38.9792,-8.8076,Benavente,Benavente,Santarém,Portugal,PT,Europe/Lisbon,UTC+0
2130373,38.9792,-8.8076,Benavente,Benavente,Santarém,Portugal,PT,Europe/Lisbon,UTC+0
2135000,38.9371,-8.8718,Samora Correia,Benavente,Santarém,Portugal,PT,Europe/Lisbon,UTC+0
2135038,38.9371,-8.8718,Samora Correia,Benavente,Santarém,Portugal,PT,Europe/Lisbon,UTC+0
2135045,38.9371,-8.8718,Samora Correia,Benavente,Santarém,Portugal,PT,Europe/Lisbon,UTC+0
2135078,38.9371,-8.8718,Samora Correia,Benavente,Santarém,Portugal,PT,Europe/Lisbon,UTC+0
2135123,38.9209,-8.8838,Porto Alto,Benavente,Santarém,Portugal,PT,Europe/Lisbon,UTC+0
2135133,38.9209,-8.8838,Porto Alto,Benavente,Santarém,Portugal,PT,Europe/Lisbon,UTC+0
2135190,38.9371,-8.8718,Samora Correia,Benavente,Santarém,Portugal,PT,Europe/Lisbon,UTC+0
2135198,38.9209,-8.8838,Porto Alto,Benavente,Santarém,Portugal,PT,Europe/Lisbon,UTC+0
2135239,38.9371,-8.8718,Samora Correia,Benavente,Santarém,Portugal,PT,Europe/Lisbon,UTC+0
2135241,38.9371,-8.8718,Samora Correia,Benavente,Santarém,Portugal,PT,Europe/Lisbon,UTC+0
2135249,38.9371,-8.8718,Samora Correia,Benavente,Santarém,Portugal,PT,Europe/Lisbon,UTC+0
2135308,38.9371,-8.8718,Samora Correia,Benavente,Santarém,Portugal,PT,Europe/Lisbon,UTC+0
2135330,38.9371,-8.8718,Samora Correia,Benavente,Santarém,Portugal,PT,Europe/Lisbon,UTC+0
2135343,38.9371,-8.8718,Samora Correia,Benavente,Santarém,Portugal,PT,Europe/Lisbon,UTC+0
2135344,38.9371,-8.8718,Samora Correia,Benavente,Santarém,Portugal,PT,Europe/Lisbon,UTC+0
2070018,39.1602,-8.7874,Cartaxo,Cartaxo,Santarém,Portugal,PT,Europe/Lisbon,UTC+0
2070040,39.1602,-8.7874,Cartaxo,Cartaxo,Santarém,Portugal,PT,Europe/Lisbon,UTC+0
2070063,39.1602,-8.7874,Cartaxo,Cartaxo,Santarém,Portugal,PT,Europe/Lisbon,UTC+0
2070069,39.1602,-8.7874,Cartaxo,Cartaxo,Santarém,Portugal,PT,Europe/Lisbon,UTC+0
2070073,39.1602,-8.7874,Cartaxo,Cartaxo,Santarém,Portugal,PT,Europe/Lisbon,UTC+0
2070216,39.1432,-8.8413,Casal Branco,Cartaxo,Santarém,Portugal,PT,Europe/Lisbon,UTC+0
2070301,39.1768,-8.8665,Casal Lambel,Cartaxo,Santarém,Portugal,PT,Europe/Lisbon,UTC+0
2070303,39.1768,-8.8665,Ereira,Cartaxo,Santarém,Portugal,PT,Europe/Lisbon,UTC+0
2070313,39.1768,-8.8665,Ereira,Cartaxo,Santarém,Portugal,PT,Europe/Lisbon,UTC+0
2070374,39.1495,-8.8388,Pero Rego,Cartaxo,Santarém,Portugal,PT,Europe/Lisbon,UTC+0
2070433,39.1495,-8.8388,Pontével,Cartaxo,Santarém,Portugal,PT,Europe/Lisbon,UTC+0
2070449,39.1495,-8.8388,Vale da Zebra,Cartaxo,Santarém,Portugal,PT,Europe/Lisbon,UTC+0
2070568,39.1712,-8.8265,Vale da Pinta,Cartaxo,Santarém,Portugal,PT,Europe/Lisbon,UTC+0
2070642,39.1722,-8.7666,Vila Chã de Ourique,Cartaxo,Santarém,Portugal,PT,Europe/Lisbon,UTC+0
2070656,39.1722,-8.7666,Vila Chã de Ourique,Cartaxo,Santarém,Portugal,PT,Europe/Lisbon,UTC+0
2070737,39.124,-8.8181,Vale da Pedra,Cartaxo,Santarém,Portugal,PT,Europe/Lisbon,UTC+0
2070998,39.1495,-8.8388,Pontével,Cartaxo,Santarém,Portugal,PT,Europe/Lisbon,UTC+0
2140074,39.3156,-8.428,Chamusca,Chamusca,Santarém,Portugal,PT,Europe/Lisbon,UTC+0
2140097,39.3156,-8.428,Chamusca,Chamusca,Santarém,Portugal,PT,Europe/Lisbon,UTC+0
2140107,39.311,-8.5631,Chamusca,Chamusca,Santarém,Portugal,PT,Europe/Lisbon,UTC+0
2140115,39.311,-8.5631,Chamusca,Chamusca,Santarém,Portugal,PT,Europe/Lisbon,UTC+0
2140153,39.311,-8.5631,Chamusca,Chamusca,Santarém,Portugal,PT,Europe/Lisbon,UTC+0
2140166,39.311,-8.5631,Chamusca,Chamusca,Santarém,Portugal,PT,Europe/Lisbon,UTC+0
2140221,39.2559,-8.3625,Gaviãozinho,Chamusca,Santarém,Portugal,PT,Europe/Lisbon,UTC+0
2140230,39.2644,-8.3556,Casal do Geraldo de Cima,Chamusca,Santarém,Portugal,PT,Europe/Lisbon,UTC+0
2140410,39.2906,-8.5198,Vale de Cavalos,Chamusca,Santarém,Portugal,PT,Europe/Lisbon,UTC+0
2140417,39.2906,-8.5198,Vale de Cavalos,Chamusca,Santarém,Portugal,PT,Europe/Lisbon,UTC+0
2140430,39.2906,-8.5198,Vale de Cavalos,Chamusca,Santarém,Portugal,PT,Europe/Lisbon,UTC+0
2140432,39.2906,-8.5198,Vale de Cavalos,Chamusca,Santarém,Portugal,PT,Europe/Lisbon,UTC+0
2140437,39.2906,-8.5198,Vale de Cavalos,Chamusca,Santarém,Portugal,PT,Europe/Lisbon,UTC+0
2140507,39.1842,-8.446,Corvas de Baixo,Chamusca,Santarém,Portugal,PT,Europe/Lisbon,UTC+0
2140521,39.2112,-8.4051,Salvador,Chamusca,Santarém,Portugal,PT,Europe/Lisbon,UTC+0
2140531,39.2153,-8.3957,Parreira,Chamusca,Santarém,Portugal,PT,Europe/Lisbon,UTC+0
2140662,39.4167,-8.4167,Carregueira,Chamusca,Santarém,Portugal,PT,Europe/Lisbon,UTC+0
2140665,39.4167,-8.4167,Carregueira,Chamusca,Santarém,Portugal,PT,Europe/Lisbon,UTC+0
2250040,39.4667,-8.3333,Constância,Constância,Santarém,Portugal,PT,Europe/Lisbon,UTC+0
2250047,39.4667,-8.3333,Constância,Constância,Santarém,Portugal,PT,Europe/Lisbon,UTC+0
2250323,39.4333,-8.3,Malpique,Constância,Santarém,Portugal,PT,Europe/Lisbon,UTC+0
2250326,39.4333,-8.3,Malpique,Constância,Santarém,Portugal,PT,Europe/Lisbon,UTC+0
2250363,39.4333,-8.3,Aldeia de Santa Margarida,Constância,Santarém,Portugal,PT,Europe/Lisbon,UTC+0
2250998,39.4333,-8.3,Malpique,Constância,Santarém,Portugal,PT,Europe/Lisbon,UTC+0
2100014,38.9859,-8.5191,Azervada de Baixo,Coruche,Santarém,Portugal,PT,Europe/Lisbon,UTC+0
2100044,38.9667,-8.5333,Monte Amoreira de Baixo,Coruche,Santarém,Portugal,PT,Europe/Lisbon,UTC+0
2100046,38.9667,-8.5333,Herdade da Raposeira,Coruche,Santarém,Portugal,PT,Europe/Lisbon,UTC+0
2100046,38.9667,-8.5333,Monte da Corelita,Coruche,Santarém,Portugal,PT,Europe/Lisbon,UTC+0
2100050,38.943,-8.4992,Valverde,Coruche,Santarém,Portugal,PT,Europe/Lisbon,UTC+0
2100101,38.9595,-8.5252,Coruche,Coruche,Santarém,Portugal,PT,Europe/Lisbon,UTC+0
2100182,38.9595,-8.5252,Coruche,Coruche,Santarém,Portugal,PT,Europe/Lisbon,UTC+0
2100307,38.9862,-8.2863,Couço,Coruche,Santarém,Portugal,PT,Europe/Lisbon,UTC+0
2100324,38.9862,-8.2863,Couço,Coruche,Santarém,Portugal,PT,Europe/Lisbon,UTC+0
2100377,38.9805,-8.2807,Varejola,Coruche,Santarém,Portugal,PT,Europe/Lisbon,UTC+0
2100400,39.066,-8.4594,Foros do Ameixial,Coruche,Santarém,Portugal,PT,Europe/Lisbon,UTC+0
2100400,39.0611,-8.4818,Medronheira,Coruche,Santarém,Portugal,PT,Europe/Lisbon,UTC+0
2100500,38.9624,-8.6342,Monte das Figueiras,Coruche,Santarém,Portugal,PT,Europe/Lisbon,UTC+0
2100510,38.9039,-8.6144,Fajarda,Coruche,Santarém,Portugal,PT,Europe/Lisbon,UTC+0
