postcode,latitude,longitude,region_3_en,region_2_en,region_1_en,country_en,country_code,timezone,utc
3100,-13.6389,-72.6181,Curahuasi,Abancay,Apurimac,Peru,PE,America/Lima,UTC-5
3100,-13.6389,-72.6181,Curahuasi,Abancay,Apurimac,Peru,PE,America/Lima,UTC-5
3100,-13.6389,-72.6181,Curahuasi,Abancay,Apurimac,Peru,PE,America/Lima,UTC-5
3110,-13.4888,-72.814,San Pedro De Cachora,Abancay,Apurimac,Peru,PE,America/Lima,UTC-5
3110,-13.4888,-72.814,San Pedro De Cachora,Abancay,Apurimac,Peru,PE,America/Lima,UTC-5
3120,-13.4761,-72.9753,Huanipaca,Abancay,Apurimac,Peru,PE,America/Lima,UTC-5
3120,-13.4761,-72.9753,Huanipaca,Abancay,Apurimac,Peru,PE,America/Lima,UTC-5
3300,-13.804,-72.7881,Lambrama,Abancay,Apurimac,Peru,PE,America/Lima,UTC-5
3300,-13.804,-72.7881,Lambrama,Abancay,Apurimac,Peru,PE,America/Lima,UTC-5
3305,-13.9742,-72.8915,Circa,Abancay,Apurimac,Peru,PE,America/Lima,UTC-5
3305,-13.9742,-72.8915,Circa,Abancay,Apurimac,Peru,PE,America/Lima,UTC-5
3305,-13.9742,-72.8915,Circa,Abancay,Apurimac,Peru,PE,America/Lima,UTC-5
3305,-13.9742,-72.8915,Circa,Abancay,Apurimac,Peru,PE,America/Lima,UTC-5
3305,-13.9742,-72.8915,Circa,Abancay,Apurimac,Peru,PE,America/Lima,UTC-5
3400,-13.7848,-73.0317,Pichirhua,Abancay,Apurimac,Peru,PE,America/Lima,UTC-5
3400,-13.7848,-73.0317,Pichirhua,Abancay,Apurimac,Peru,PE,America/Lima,UTC-5
3400,-13.7848,-73.0317,Pichirhua,Abancay,Apurimac,Peru,PE,America/Lima,UTC-5
3400,-13.7848,-73.0317,Pichirhua,Abancay,Apurimac,Peru,PE,America/Lima,UTC-5
3400,-13.7848,-73.0317,Pichirhua,Abancay,Apurimac,Peru,PE,America/Lima,UTC-5
3600,-14.296,-73.4785,Pampachiri,Andahuaylas,Apurimac,Peru,PE,America/Lima,UTC-5
3600,-14.296,-73.4785,Pampachiri,Andahuaylas,Apurimac,Peru,PE,America/Lima,UTC-5
3600,-14.296,-73.4785,Pampachiri,Andahuaylas,Apurimac,Peru,PE,America/Lima,UTC-5
3600,-14.296,-73.4785,Pampachiri,Andahuaylas,Apurimac,Peru,PE,America/Lima,UTC-5
3610,-14.0977,-73.437,Pomacocha,Andahuaylas,Apurimac,Peru,PE,America/Lima,UTC-5
3620,-13.9692,-73.4582,Tumay Huaraca,Andahuaylas,Apurimac,Peru,PE,America/Lima,UTC-5
3620,-13.9692,-73.4582,Tumay Huaraca,Andahuaylas,Apurimac,Peru,PE,America/Lima,UTC-5
3630,-13.9896,-73.551,Huayana,Andahuaylas,Apurimac,Peru,PE,America/Lima,UTC-5
3650,-13.8798,-73.6156,Chiara,Andahuaylas,Apurimac,Peru,PE,America/Lima,UTC-5
3660,-13.7895,-73.6576,San Antonio De Cachi,Andahuaylas,Apurimac,Peru,PE,America/Lima,UTC-5
3660,-13.7895,-73.6576,San Antonio De Cachi,Andahuaylas,Apurimac,Peru,PE,America/Lima,UTC-5
3660,-13.7895,-73.6576,San Antonio De Cachi,Andahuaylas,Apurimac,Peru,PE,America/Lima,UTC-5
3670,-13.7696,-73.5472,Huancaray,Andahuaylas,Apurimac,Peru,PE,America/Lima,UTC-5
3670,-13.7696,-73.5472,Huancaray,Andahuaylas,Apurimac,Peru,PE,America/Lima,UTC-5
3700,-13.6275,-73.453,Talavera,Andahuaylas,Apurimac,Peru,PE,America/Lima,UTC-5
3700,-13.6275,-73.453,Talavera,Andahuaylas,Apurimac,Peru,PE,America/Lima,UTC-5
3700,-13.6275,-73.453,Talavera,Andahuaylas,Apurimac,Peru,PE,America/Lima,UTC-5
3700,-13.6892,-73.3681,Andahuaylas,Andahuaylas,Apurimac,Peru,PE,America/Lima,UTC-5
3760,-13.6653,-73.1625,Kishuara,Andahuaylas,Apurimac,Peru,PE,America/Lima,UTC-5
3760,-13.6653,-73.1625,Kishuara,Andahuaylas,Apurimac,Peru,PE,America/Lima,UTC-5
3760,-13.6653,-73.1625,Kishuara,Andahuaylas,Apurimac,Peru,PE,America/Lima,UTC-5
3760,-13.6653,-73.1625,Kishuara,Andahuaylas,Apurimac,Peru,PE,America/Lima,UTC-5
3770,-13.6124,-73.0459,Pacobamba,Andahuaylas,Apurimac,Peru,PE,America/Lima,UTC-5
3770,-13.6043,-73.062,Pacobamba,Andahuaylas,Apurimac,Peru,PE,America/Lima,UTC-5
3780,-13.6393,-73.0946,Huancarama,Andahuaylas,Apurimac,Peru,PE,America/Lima,UTC-5
3800,-13.6334,-73.4886,Santa María De Chicmo,Andahuaylas,Apurimac,Peru,PE,America/Lima,UTC-5
3800,-13.6612,-73.5463,Santa María De Chicmo,Andahuaylas,Apurimac,Peru,PE,America/Lima,UTC-5
3800,-13.6612,-73.5463,Santa María De Chicmo,Andahuaylas,Apurimac,Peru,PE,America/Lima,UTC-5
3800,-13.6612,-73.5463,Santa María De Chicmo,Andahuaylas,Apurimac,Peru,PE,America/Lima,UTC-5
3340,-14.2561,-72.555,Oropesa,Antabamba,Apurimac,Peru,PE,America/Lima,UTC-5
3340,-14.436,-72.5231,Oropesa,Antabamba,Apurimac,Peru,PE,America/Lima,UTC-5
3340,-14.436,-72.5231,Oropesa,Antabamba,Apurimac,Peru,PE,America/Lima,UTC-5
3340,-14.436,-72.5231,Oropesa,Antabamba,Apurimac,Peru,PE,America/Lima,UTC-5
3455,-14.219,-72.9791,Pachaconas,Antabamba,Apurimac,Peru,PE,America/Lima,UTC-5
3455,-14.219,-72.9791,Pachaconas,Antabamba,Apurimac,Peru,PE,America/Lima,UTC-5
3455,-14.219,-72.9791,Pachaconas,Antabamba,Apurimac,Peru,PE,America/Lima,UTC-5
3460,-14.323,-72.9802,Sabaino,Antabamba,Apurimac,Peru,PE,America/Lima,UTC-5
3460,-14.323,-72.9802,Sabaino,Antabamba,Apurimac,Peru,PE,America/Lima,UTC-5
3465,-14.518,-72.7501,Antabamba,Antabamba,Apurimac,Peru,PE,America/Lima,UTC-5
3465,-14.518,-72.7501,Antabamba,Antabamba,Apurimac,Peru,PE,America/Lima,UTC-5
3465,-14.518,-72.7501,Antabamba,Antabamba,Apurimac,Peru,PE,America/Lima,UTC-5
3465,-14.518,-72.7501,Antabamba,Antabamba,Apurimac,Peru,PE,America/Lima,UTC-5
3470,-14.3403,-72.7867,Huaquirca,Antabamba,Apurimac,Peru,PE,America/Lima,UTC-5
3470,-14.3403,-72.7867,Huaquirca,Antabamba,Apurimac,Peru,PE,America/Lima,UTC-5
3475,-14.5586,-72.9084,Juan Espinoza Medrano,Antabamba,Apurimac,Peru,PE,America/Lima,UTC-5
3475,-14.5586,-72.9084,Juan Espinoza Medrano,Antabamba,Apurimac,Peru,PE,America/Lima,UTC-5
3475,-14.5586,-72.9084,Juan Espinoza Medrano,Antabamba,Apurimac,Peru,PE,America/Lima,UTC-5
3475,-14.5586,-72.9084,Juan Espinoza Medrano,Antabamba,Apurimac,Peru,PE,America/Lima,UTC-5
3475,-14.5586,-72.9084,Juan Espinoza Medrano,Antabamba,Apurimac,Peru,PE,America/Lima,UTC-5
3475,-14.5586,-72.9084,Juan Espinoza Medrano,Antabamba,Apurimac,Peru,PE,America/Lima,UTC-5
3475,-14.5586,-72.9084,Juan Espinoza Medrano,Antabamba,Apurimac,Peru,PE,America/Lima,UTC-5
3475,-14.5586,-72.9084,Juan Espinoza Medrano,Antabamba,Apurimac,Peru,PE,America/Lima,UTC-5
3475,-14.5586,-72.9084,Juan Espinoza Medrano,Antabamba,Apurimac,Peru,PE,America/Lima,UTC-5
3475,-14.5586,-72.9084,Juan Espinoza Medrano,Antabamba,Apurimac,Peru,PE,America/Lima,UTC-5
4140,-15.7901,-71.4553,Yanque,Caylloma,Arequipa,Peru,PE,America/Lima,UTC-5
3475,-14.5586,-72.9084,Juan Espinoza Medrano,Antabamba,Apurimac,Peru,PE,America/Lima,UTC-5
3410,-13.9014,-73.1526,Tintay,Aymaraes,Apurimac,Peru,PE,America/Lima,UTC-5
3410,-13.9035,-73.1345,Tintay,Aymaraes,Apurimac,Peru,PE,America/Lima,UTC-5
3410,-13.9035,-73.1345,Tintay,Aymaraes,Apurimac,Peru,PE,America/Lima,UTC-5
3410,-13.9035,-73.1345,Tintay,Aymaraes,Apurimac,Peru,PE,America/Lima,UTC-5
3410,-13.9094,-73.1581,Tintay,Aymaraes,Apurimac,Peru,PE,America/Lima,UTC-5
3415,-13.9159,-73.2455,Lucre,Aymaraes,Apurimac,Peru,PE,America/Lima,UTC-5
3425,-14.0078,-73.0868,Chapimarca,Aymaraes,Apurimac,Peru,PE,America/Lima,UTC-5
3425,-14.0078,-73.0868,Chapimarca,Aymaraes,Apurimac,Peru,PE,America/Lima,UTC-5
3425,-14.0078,-73.0868,Chapimarca,Aymaraes,Apurimac,Peru,PE,America/Lima,UTC-5
3425,-14.0078,-73.0868,Chapimarca,Aymaraes,Apurimac,Peru,PE,America/Lima,UTC-5
3425,-14.0078,-73.0868,Chapimarca,Aymaraes,Apurimac,Peru,PE,America/Lima,UTC-5
3430,-14.1304,-73.1978,Justo Apu Sahuaraura,Aymaraes,Apurimac,Peru,PE,America/Lima,UTC-5
3435,-14.1056,-73.1179,Tapairihua,Aymaraes,Apurimac,Peru,PE,America/Lima,UTC-5
3440,-14.2313,-73.1598,Yanaca,Aymaraes,Apurimac,Peru,PE,America/Lima,UTC-5
3440,-14.2313,-73.1598,Yanaca,Aymaraes,Apurimac,Peru,PE,America/Lima,UTC-5
3440,-14.2313,-73.1598,Yanaca,Aymaraes,Apurimac,Peru,PE,America/Lima,UTC-5
3445,-14.224,-73.0877,Pocohuanca,Aymaraes,Apurimac,Peru,PE,America/Lima,UTC-5
3445,-14.224,-73.0877,Pocohuanca,Aymaraes,Apurimac,Peru,PE,America/Lima,UTC-5
3500,-13.9769,-73.2583,Colcabamba,Aymaraes,Apurimac,Peru,PE,America/Lima,UTC-5
3510,-14.0247,-73.3137,Toraya,Aymaraes,Apurimac,Peru,PE,America/Lima,UTC-5
3530,-14.0979,-73.244,Huayllo,Aymaraes,Apurimac,Peru,PE,America/Lima,UTC-5
3530,-14.0979,-73.244,Huayllo,Aymaraes,Apurimac,Peru,PE,America/Lima,UTC-5
3530,-14.0979,-73.244,Huayllo,Aymaraes,Apurimac,Peru,PE,America/Lima,UTC-5
3540,-14.1708,-73.284,Soraya,Aymaraes,Apurimac,Peru,PE,America/Lima,UTC-5
3540,-14.1708,-73.284,Soraya,Aymaraes,Apurimac,Peru,PE,America/Lima,UTC-5
