postcode,latitude,longitude,region_3_en,region_2_en,region_1_en,country_en,country_code,timezone,utc
7800,23.55,89.7833,Faridpursadar,Faridpur,Dhaka Division,Bangladesh,BD,Asia/Dhaka,UTC+6
1742,24.43,90.5342,Rajendrapur Canttome,Gazipur,Dhaka Division,Bangladesh,BD,Asia/Dhaka,UTC+6
2338,24.2162,90.95,Laksmipur,Kishoreganj,Dhaka Division,Bangladesh,BD,Asia/Dhaka,UTC+6
2380,24.3491,90.9571,Ostagram,Kishoreganj,Dhaka Division,Bangladesh,BD,Asia/Dhaka,UTC+6
1544,23.5604,90.3444,Shekher Nagar,Munshiganj,Dhaka Division,Bangladesh,BD,Asia/Dhaka,UTC+6
1464,23.7871,90.5252,Murapara,Narayanganj,Dhaka Division,Bangladesh,BD,Asia/Dhaka,UTC+6
1604,23.999,90.6925,Madhabdi,Narshingdi,Dhaka Division,Bangladesh,BD,Asia/Dhaka,UTC+6
7700,23.7187,89.6105,Rajbari Sadar,Rajbari,Dhaka Division,Bangladesh,BD,Asia/Dhaka,UTC+6
8023,23.2709,90.453,Upshi,Shariatpur,Dhaka Division,Bangladesh,BD,Asia/Dhaka,UTC+6
1920,24.2857,90.0003,Basail,Tangail,Dhaka Division,Bangladesh,BD,Asia/Dhaka,UTC+6
1945,24.0977,90.1303,Mohera,Tangail,Dhaka Division,Bangladesh,BD,Asia/Dhaka,UTC+6
1981,24.2857,90.0003,Zahidganj,Tangail,Dhaka Division,Bangladesh,BD,Asia/Dhaka,UTC+6
7320,23.6098,89.3147,Shailakupa,Jinaidaha,Khulna Division,Bangladesh,BD,Asia/Dhaka,UTC+6
7350,23.439,89.1684,Naldanga,Jinaidaha,Khulna Division,Bangladesh,BD,Asia/Dhaka,UTC+6
9281,22.5829,89.2827,Godaipur,Khulna,Khulna Division,Bangladesh,BD,Asia/Dhaka,UTC+6
7611,23.3824,89.4612,Langalbadh,Magura,Khulna Division,Bangladesh,BD,Asia/Dhaka,UTC+6
7520,23.043,89.6309,Kalia,Narail,Khulna Division,Bangladesh,BD,Asia/Dhaka,UTC+6
9430,22.6297,89.1474,Debbhata,Satkhira,Khulna Division,Bangladesh,BD,Asia/Dhaka,UTC+6
5890,24.8089,88.987,Adamdighi,Bogra,Rājshāhi Division,Bangladesh,BD,Asia/Dhaka,UTC+6
5930,25.0617,89.1665,kalai,Joypurhat,Rājshāhi Division,Bangladesh,BD,Asia/Dhaka,UTC+6
6560,25.1198,88.6013,Sapahar,Naogaon,Rājshāhi Division,Bangladesh,BD,Asia/Dhaka,UTC+6
6201,24.7514,88.3819,Rajshahi Court,Rajshahi,Rājshāhi Division,Bangladesh,BD,Asia/Dhaka,UTC+6
6202,24.7514,88.3819,Rajshahi Canttonment,Rajshahi,Rājshāhi Division,Bangladesh,BD,Asia/Dhaka,UTC+6
6280,24.1978,88.8464,Bagha,Rajshahi,Rājshāhi Division,Bangladesh,BD,Asia/Dhaka,UTC+6
3440,24.2283,91.2428,Nasirnagar,Brahmanbaria,Chittagong,Bangladesh,BD,Asia/Dhaka,UTC+6
3602,23.2453,90.7281,Baburhat,Chandpur,Chittagong,Bangladesh,BD,Asia/Dhaka,UTC+6
4223,22.3948,91.8365,Export Processing,Chittagong,Chittagong,Bangladesh,BD,Asia/Dhaka,UTC+6
4369,22.4192,91.9447,Charandwip,Chittagong,Chittagong,Bangladesh,BD,Asia/Dhaka,UTC+6
3510,23.539,90.7511,Chandia,Comilla,Chittagong,Bangladesh,BD,Asia/Dhaka,UTC+6
3943,23.1167,91.4333,Munshirhat,Feni,Chittagong,Bangladesh,BD,Asia/Dhaka,UTC+6
4440,23.0222,91.9808,Ramghar Head Office,Khagrachari,Chittagong,Bangladesh,BD,Asia/Dhaka,UTC+6
4580,22.4934,92.2359,Longachh,Rangamati,Chittagong,Bangladesh,BD,Asia/Dhaka,UTC+6
8564,22.2848,89.9709,Tiarkhali,Pirojpur,Barisal Division,Bangladesh,BD,Asia/Dhaka,UTC+6
8566,22.2848,89.9709,Shilarganj,Pirojpur,Barisal Division,Bangladesh,BD,Asia/Dhaka,UTC+6
3221,24.3826,91.9019,Keramatnaga,Moulvibazar,Sylhet Division,Bangladesh,BD,Asia/Dhaka,UTC+6
3061,24.9086,91.5303,Syedpur,Sunamganj,Sylhet Division,Bangladesh,BD,Asia/Dhaka,UTC+6
3131,24.7809,91.8772,Dashghar,Sylhet,Sylhet Division,Bangladesh,BD,Asia/Dhaka,UTC+6
3172,24.8167,92.1167,Mathiura,Sylhet,Sylhet Division,Bangladesh,BD,Asia/Dhaka,UTC+6
5226,25.8623,88.654,Maharajganj,Dinajpur,Rangpur Division,Bangladesh,BD,Asia/Dhaka,UTC+6
5730,25.2821,89.353,Palashbari,Gaibandha,Rangpur Division,Bangladesh,BD,Asia/Dhaka,UTC+6
5530,26.1249,89.1408,Hatibandha,Lalmonirhat,Rangpur Division,Bangladesh,BD,Asia/Dhaka,UTC+6
5102,25.9152,88.1013,Shibganj,Thakurgaon,Rangpur Division,Bangladesh,BD,Asia/Dhaka,UTC+6
2030,25.1424,89.7622,Dewangonj,Jamalpur,Dhaka Division,Bangladesh,BD,Asia/Dhaka,UTC+6
2410,25.0867,90.5119,Purbadhola,Netrakona,Dhaka Division,Bangladesh,BD,Asia/Dhaka,UTC+6
2100,25.0929,90.0827,Sherpur Shadar,Sherpur,Dhaka Division,Bangladesh,BD,Asia/Dhaka,UTC+6
1208,23.7591,90.4003,Dhaka Politechnic,Dhaka,Dhaka Division,Bangladesh,BD,Asia/Dhaka,UTC+6
1217,23.726,90.4251,Shantinagr TSO,Dhaka,Dhaka Division,Bangladesh,BD,Asia/Dhaka,UTC+6
1310,23.7223,90.311,Keraniganj,Dhaka,Dhaka Division,Bangladesh,BD,Asia/Dhaka,UTC+6
1312,23.7167,90.35,Ati,Dhaka,Dhaka Division,Bangladesh,BD,Asia/Dhaka,UTC+6
1332,23.5412,90.2538,Narisha,Dhaka,Dhaka Division,Bangladesh,BD,Asia/Dhaka,UTC+6
7932,23.2365,90.1424,Bahadurpur,Madaripur,Dhaka Division,Bangladesh,BD,Asia/Dhaka,UTC+6
1526,23.4576,90.4677,Pura EDSO,Munshiganj,Dhaka Division,Bangladesh,BD,Asia/Dhaka,UTC+6
1632,24.0186,90.7129,Radhaganj bazar,Narshingdi,Dhaka Division,Bangladesh,BD,Asia/Dhaka,UTC+6
8020,23.3029,90.4087,Naria,Shariatpur,Dhaka Division,Bangladesh,BD,Asia/Dhaka,UTC+6
1910,24.1597,89.9621,Delduar,Tangail,Dhaka Division,Bangladesh,BD,Asia/Dhaka,UTC+6
1983,24.2857,90.0003,Dhalapara,Tangail,Dhaka Division,Bangladesh,BD,Asia/Dhaka,UTC+6
9342,22.6686,89.6365,Sonatunia,Bagherhat,Khulna Division,Bangladesh,BD,Asia/Dhaka,UTC+6
9343,22.6686,89.6365,Gourambha,Bagherhat,Khulna Division,Bangladesh,BD,Asia/Dhaka,UTC+6
7404,23.1586,89.2586,Jessore Airbach,Jessore,Khulna Division,Bangladesh,BD,Asia/Dhaka,UTC+6
7470,23.227,89.3375,Bagharpara,Jessore,Khulna Division,Bangladesh,BD,Asia/Dhaka,UTC+6
9203,23.1149,89.3222,BIT Khulna,Khulna,Khulna Division,Bangladesh,BD,Asia/Dhaka,UTC+6
7631,23.4381,89.504,Binodpur,Magura,Khulna Division,Bangladesh,BD,Asia/Dhaka,UTC+6
9454,22.2847,89.2738,Gabura,Satkhira,Khulna Division,Bangladesh,BD,Asia/Dhaka,UTC+6
9461,22.5227,89.2455,Baradal,Satkhira,Khulna Division,Bangladesh,BD,Asia/Dhaka,UTC+6
5826,24.806,89.3138,Sonatola,Bogra,Rājshāhi Division,Bangladesh,BD,Asia/Dhaka,UTC+6
6590,24.7398,88.9639,Raninagar,Naogaon,Rājshāhi Division,Bangladesh,BD,Asia/Dhaka,UTC+6
6621,24.393,89.0088,Dhapari,Pabna,Rājshāhi Division,Bangladesh,BD,Asia/Dhaka,UTC+6
6260,24.4461,88.7166,Putia,Rajshahi,Rājshāhi Division,Bangladesh,BD,Asia/Dhaka,UTC+6
6710,24.6115,89.6328,Kazipur,Sirajganj,Rājshāhi Division,Bangladesh,BD,Asia/Dhaka,UTC+6
3610,23.2519,90.8551,Hajiganj,Chandpur,Chittagong,Bangladesh,BD,Asia/Dhaka,UTC+6
4322,22.8574,91.5332,Darrogahat,Chittagong,Chittagong,Bangladesh,BD,Asia/Dhaka,UTC+6
4762,20.8583,92.2977,St.Martin,Cox’s Bazar,Chittagong,Bangladesh,BD,Asia/Dhaka,UTC+6
3703,22.9362,90.905,Mandari,Lakshmipur,Chittagong,Bangladesh,BD,Asia/Dhaka,UTC+6
3712,23.0391,90.7681,Nagerdighirpar,Lakshmipur,Chittagong,Bangladesh,BD,Asia/Dhaka,UTC+6
3831,22.95,91.3,Alaiarpur,Noakhali,Chittagong,Bangladesh,BD,Asia/Dhaka,UTC+6
8233,22.8975,90.2542,Batajor,Barishal,Barisal Division,Bangladesh,BD,Asia/Dhaka,UTC+6
8240,22.9551,90.1842,Agailzhara,Barishal,Barisal Division,Bangladesh,BD,Asia/Dhaka,UTC+6
8260,22.8225,90.3484,Barajalia,Barishal,Barisal Division,Bangladesh,BD,Asia/Dhaka,UTC+6
8280,22.5287,90.3567,Sahebganj,Barishal,Barisal Division,Bangladesh,BD,Asia/Dhaka,UTC+6
8281,22.5287,90.3567,Charamandi,Barishal,Barisal Division,Bangladesh,BD,Asia/Dhaka,UTC+6
8341,22.3183,90.7172,Dularhat,Bhola,Barisal Division,Bangladesh,BD,Asia/Dhaka,UTC+6
8624,22.3888,90.6012,Kalaia,Patuakhali,Barisal Division,Bangladesh,BD,Asia/Dhaka,UTC+6
8650,21.9924,90.2133,Khepupara,Patuakhali,Barisal Division,Bangladesh,BD,Asia/Dhaka,UTC+6
8560,22.2862,89.9588,Mathbaria,Pirojpur,Barisal Division,Bangladesh,BD,Asia/Dhaka,UTC+6
3212,24.5956,91.651,Kalighat,Moulvibazar,Sylhet Division,Bangladesh,BD,Asia/Dhaka,UTC+6
3251,24.5268,91.8135,Juri,Moulvibazar,Sylhet Division,Bangladesh,BD,Asia/Dhaka,UTC+6
3065,24.9086,91.5303,Shiramsi,Sunamganj,Sylhet Division,Bangladesh,BD,Asia/Dhaka,UTC+6
3084,24.8517,91.7191,Gabindaganj Natun Ba,Sunamganj,Sylhet Division,Bangladesh,BD,Asia/Dhaka,UTC+6
3100,24.9328,91.8739,Sylhe Sadar,Sylhet,Sylhet Division,Bangladesh,BD,Asia/Dhaka,UTC+6
5711,25.4869,89.4661,Naldanga,Gaibandha,Rangpur Division,Bangladesh,BD,Asia/Dhaka,UTC+6
2053,24.7199,89.7987,Jagannath Ghat,Jamalpur,Dhaka Division,Bangladesh,BD,Asia/Dhaka,UTC+6
2430,25.0011,90.8077,Kalmakanda,Netrakona,Dhaka Division,Bangladesh,BD,Asia/Dhaka,UTC+6
2120,25.1856,90.0668,Jhinaigati,Sherpur,Dhaka Division,Bangladesh,BD,Asia/Dhaka,UTC+6
1321,23.6551,90.1055,Hasnabad,Dhaka,Dhaka Division,Bangladesh,BD,Asia/Dhaka,UTC+6
1350,23.9122,90.2683,Dhamrai,Dhaka,Dhaka Division,Bangladesh,BD,Asia/Dhaka,UTC+6
1711,24.0942,90.4858,Nishat Nagar,Gazipur,Dhaka Division,Bangladesh,BD,Asia/Dhaka,UTC+6
1751,24.0311,90.276,Safipur,Gazipur,Dhaka Division,Bangladesh,BD,Asia/Dhaka,UTC+6
8100,23.0713,89.8345,Gopalganj Sadar,Gopalganj,Dhaka Division,Bangladesh,BD,Asia/Dhaka,UTC+6
7933,23.3208,90.2057,Umedpur,Madaripur,Dhaka Division,Bangladesh,BD,Asia/Dhaka,UTC+6
1540,23.5604,90.3444,Sirajdikhan,Munshiganj,Dhaka Division,Bangladesh,BD,Asia/Dhaka,UTC+6
