postcode,latitude,longitude,region_3_en,region_2_en,region_1_en,country_en,country_code,timezone,utc
49800,38.7169,41.9765,Sarmaşik,Korkut,Muş,Turkey,TR,Europe/Istanbul,UTC+3
49700,38.6361,41.7695,Karakütük,Hasköy,Muş,Turkey,TR,Europe/Istanbul,UTC+3
49090,38.95,41.8167,Elçiler,Muş,Muş,Turkey,TR,Europe/Istanbul,UTC+3
49510,39.088,42.0525,Büngüldek,Bulanik,Muş,Turkey,TR,Europe/Istanbul,UTC+3
50400,38.7358,34.9309,Sarihidir,Ürgüp,Nevşehir,Turkey,TR,Europe/Istanbul,UTC+3
50900,38.7908,34.3139,Fakiuşaği,Gülşehir,Nevşehir,Turkey,TR,Europe/Istanbul,UTC+3
50800,38.8855,34.7062,Büyükkişla,Hacibektaş,Nevşehir,Turkey,TR,Europe/Istanbul,UTC+3
50800,38.9,34.5833,Kütükçü,Hacibektaş,Nevşehir,Turkey,TR,Europe/Istanbul,UTC+3
50800,39.0505,34.7737,Kayaalti,Hacibektaş,Nevşehir,Turkey,TR,Europe/Istanbul,UTC+3
52850,40.8022,37.7558,Uzunmahmut,Ulubey,Ordu,Turkey,TR,Europe/Istanbul,UTC+3
52750,41.0333,37.7833,Çerli,Perşembe,Ordu,Turkey,TR,Europe/Istanbul,UTC+3
52400,40.9325,37.3598,Geyikçeli,Fatsa,Ordu,Turkey,TR,Europe/Istanbul,UTC+3
52400,40.9625,37.4684,Yassitaş,Fatsa,Ordu,Turkey,TR,Europe/Istanbul,UTC+3
52410,40.9682,37.5695,İnönü,Fatsa,Ordu,Turkey,TR,Europe/Istanbul,UTC+3
52800,40.865,37.1766,Divanitürk,Kumru,Ordu,Turkey,TR,Europe/Istanbul,UTC+3
52900,40.5937,37.7649,Dursunlu,Mesudiye,Ordu,Turkey,TR,Europe/Istanbul,UTC+3
52900,40.5188,37.8929,Armutkolu,Mesudiye,Ordu,Turkey,TR,Europe/Istanbul,UTC+3
52700,40.7527,37.8918,Yeşilyurt,Korgan,Ordu,Turkey,TR,Europe/Istanbul,UTC+3
52300,41.0463,37.3146,Esenkale,Ünye,Ordu,Turkey,TR,Europe/Istanbul,UTC+3
52300,40.9297,37.433,Yenikent,Ünye,Ordu,Turkey,TR,Europe/Istanbul,UTC+3
52300,41.0034,37.3588,Sarihalil,Ünye,Ordu,Turkey,TR,Europe/Istanbul,UTC+3
52300,41.0308,37.2844,Üçpinar,Ünye,Ordu,Turkey,TR,Europe/Istanbul,UTC+3
52330,40.954,37.1446,Yenikizilcakese,Ünye,Ordu,Turkey,TR,Europe/Istanbul,UTC+3
52000,40.95,37.7,Karaoluk,Altinordu,Ordu,Turkey,TR,Europe/Istanbul,UTC+3
52010,40.9493,38.0871,Ayrilik,Gülyali,Ordu,Turkey,TR,Europe/Istanbul,UTC+3
52420,40.6564,37.5204,Karahasan,Çatalpinar,Ordu,Turkey,TR,Europe/Istanbul,UTC+3
52500,40.6867,37.3992,Aybasti,Aybasti,Ordu,Turkey,TR,Europe/Istanbul,UTC+3
53540,40.9451,40.4206,Ormanli,Kalkandere,Rize,Turkey,TR,Europe/Istanbul,UTC+3
53690,40.7352,40.7618,Ortaköy,İkizdere,Rize,Turkey,TR,Europe/Istanbul,UTC+3
53690,40.65,40.4833,Eskice,İkizdere,Rize,Turkey,TR,Europe/Istanbul,UTC+3
53340,41.1119,40.926,Sivritepe,Pazar,Rize,Turkey,TR,Europe/Istanbul,UTC+3
53340,41.1364,40.9301,Irmakköy,Pazar,Rize,Turkey,TR,Europe/Istanbul,UTC+3
53480,41.1966,41.0853,Yurtsever,Ardeşen,Rize,Turkey,TR,Europe/Istanbul,UTC+3
53480,41.1063,41.0884,Sinan,Ardeşen,Rize,Turkey,TR,Europe/Istanbul,UTC+3
53740,41.2532,41.2456,Arslandere,Findikli,Rize,Turkey,TR,Europe/Istanbul,UTC+3
53870,40.97,40.4341,Beştepe,Rize,Rize,Turkey,TR,Europe/Istanbul,UTC+3
53940,40.9979,40.4364,Çakmakçilar,Derepazari,Rize,Turkey,TR,Europe/Istanbul,UTC+3
53950,40.9728,40.5166,Kocatepe,Rize,Rize,Turkey,TR,Europe/Istanbul,UTC+3
54700,40.5149,30.3151,Aliplar,Geyve,Sakarya,Turkey,TR,Europe/Istanbul,UTC+3
54900,40.5386,30.0841,Bakacak,Pamukova,Sakarya,Turkey,TR,Europe/Istanbul,UTC+3
54300,40.7727,30.7838,Kalayik,Hendek,Sakarya,Turkey,TR,Europe/Istanbul,UTC+3
54300,40.7593,30.758,Balikliihsaniye,Hendek,Sakarya,Turkey,TR,Europe/Istanbul,UTC+3
54300,40.7846,30.725,Yayalar,Hendek,Sakarya,Turkey,TR,Europe/Istanbul,UTC+3
54500,41.1181,30.639,İhsaniye,Karasu,Sakarya,Turkey,TR,Europe/Istanbul,UTC+3
54500,41.0822,30.6074,Akkum,Karasu,Sakarya,Turkey,TR,Europe/Istanbul,UTC+3
54110,41.0333,30.526,Kuzca,Ferizli,Sakarya,Turkey,TR,Europe/Istanbul,UTC+3
54160,40.9514,30.4265,Levent,Söğütlü,Sakarya,Turkey,TR,Europe/Istanbul,UTC+3
54680,41.008,30.4123,Küçükkişla,Kaynarca,Sakarya,Turkey,TR,Europe/Istanbul,UTC+3
54100,40.8197,30.4519,Kömürlük,Adapazari,Sakarya,Turkey,TR,Europe/Istanbul,UTC+3
54100,40.798,30.5003,Abali,Adapazari,Sakarya,Turkey,TR,Europe/Istanbul,UTC+3
54405,40.6049,30.6885,Reşadiye,Akyazi,Sakarya,Turkey,TR,Europe/Istanbul,UTC+3
54405,40.7258,30.6425,Düzyazi,Akyazi,Sakarya,Turkey,TR,Europe/Istanbul,UTC+3
55400,41.4508,35.7288,Eynegazi,Bafra,Samsun,Turkey,TR,Europe/Istanbul,UTC+3
55400,41.6516,35.9071,Koruluk,Bafra,Samsun,Turkey,TR,Europe/Istanbul,UTC+3
55400,41.4224,35.8247,Düzköy,Bafra,Samsun,Turkey,TR,Europe/Istanbul,UTC+3
55400,41.5874,35.9038,Ağillar,Bafra,Samsun,Turkey,TR,Europe/Istanbul,UTC+3
55400,41.4834,35.8527,Başaran,Bafra,Samsun,Turkey,TR,Europe/Istanbul,UTC+3
55400,41.3835,35.7902,Asar,Bafra,Samsun,Turkey,TR,Europe/Istanbul,UTC+3
55300,41.0924,36.39,Akbaşlar,Tekkeköy,Samsun,Turkey,TR,Europe/Istanbul,UTC+3
55300,41.0966,36.5457,Yağbasan,Tekkeköy,Samsun,Turkey,TR,Europe/Istanbul,UTC+3
55300,41.1146,36.421,Zafer,Tekkeköy,Samsun,Turkey,TR,Europe/Istanbul,UTC+3
55900,41.0799,35.3665,Başalan,Vezirköprü,Samsun,Turkey,TR,Europe/Istanbul,UTC+3
55900,41.1201,35.4719,Doyran,Vezirköprü,Samsun,Turkey,TR,Europe/Istanbul,UTC+3
55900,41.2274,35.4668,Samur,Vezirköprü,Samsun,Turkey,TR,Europe/Istanbul,UTC+3
55900,41.123,35.3626,Gömlekhisar,Vezirköprü,Samsun,Turkey,TR,Europe/Istanbul,UTC+3
55900,41.2865,35.431,Kuruçay,Vezirköprü,Samsun,Turkey,TR,Europe/Istanbul,UTC+3
55900,41.2775,34.952,Dariçay,Vezirköprü,Samsun,Turkey,TR,Europe/Istanbul,UTC+3
55900,41.1015,35.4984,Kizilcaören,Vezirköprü,Samsun,Turkey,TR,Europe/Istanbul,UTC+3
55900,41.112,35.4272,Boğaköy,Vezirköprü,Samsun,Turkey,TR,Europe/Istanbul,UTC+3
55900,41.1833,35.3167,Ağcayazi,Vezirköprü,Samsun,Turkey,TR,Europe/Istanbul,UTC+3
55900,41.1675,35.1541,Sirbaşmak,Vezirköprü,Samsun,Turkey,TR,Europe/Istanbul,UTC+3
55700,41.1043,36.1039,Tekkeköy,Havza,Samsun,Turkey,TR,Europe/Istanbul,UTC+3
55700,40.9833,35.5667,Mesudiye,Havza,Samsun,Turkey,TR,Europe/Istanbul,UTC+3
55760,40.9157,36.1297,Büyükalan,Ladik,Samsun,Turkey,TR,Europe/Istanbul,UTC+3
55850,41.0333,35.8833,Kapuhayat,Kavak,Samsun,Turkey,TR,Europe/Istanbul,UTC+3
55850,41.081,35.9778,Ahirli,Kavak,Samsun,Turkey,TR,Europe/Istanbul,UTC+3
55850,41.1004,36.0124,Şeyhresul,Kavak,Samsun,Turkey,TR,Europe/Istanbul,UTC+3
55850,41.1177,36.1917,Mert,Kavak,Samsun,Turkey,TR,Europe/Istanbul,UTC+3
55850,41.1004,36.0124,Saraykent,Kavak,Samsun,Turkey,TR,Europe/Istanbul,UTC+3
55800,41.5213,35.6517,Tefekli,Alaçam,Samsun,Turkey,TR,Europe/Istanbul,UTC+3
55600,40.9613,36.9125,Örencik,Terme,Samsun,Turkey,TR,Europe/Istanbul,UTC+3
55600,41.2414,36.8249,Taşpinar,Terme,Samsun,Turkey,TR,Europe/Istanbul,UTC+3
55500,41.0598,36.7269,Ordubaşi,Çarşamba,Samsun,Turkey,TR,Europe/Istanbul,UTC+3
55500,41.29,36.6869,Paşayazi,Çarşamba,Samsun,Turkey,TR,Europe/Istanbul,UTC+3
55510,41.2167,36.6667,Çelikli,Çarşamba,Samsun,Turkey,TR,Europe/Istanbul,UTC+3
55080,41.1648,36.3701,Toygar,Canik,Samsun,Turkey,TR,Europe/Istanbul,UTC+3
55200,41.3061,36.1542,Köseli,Atakum,Samsun,Turkey,TR,Europe/Istanbul,UTC+3
55200,41.3245,36.1968,Elma Çukuru,Atakum,Samsun,Turkey,TR,Europe/Istanbul,UTC+3
55000,41.2046,36.1496,Akgöl,İlkadim,Samsun,Turkey,TR,Europe/Istanbul,UTC+3
55420,41.4333,36.05,Karagöl,Ondokuzmayis(Ballica),Samsun,Turkey,TR,Europe/Istanbul,UTC+3
55550,41.0017,36.513,Yeşilçam,Ayvacik,Samsun,Turkey,TR,Europe/Istanbul,UTC+3
57600,41.648,35.0938,Tatlicak,Gerze,Sinop,Turkey,TR,Europe/Istanbul,UTC+3
57600,41.752,35.0648,Pirahmet,Gerze,Sinop,Turkey,TR,Europe/Istanbul,UTC+3
57800,41.9037,34.819,Dereköy,Erfelek,Sinop,Turkey,TR,Europe/Istanbul,UTC+3
57800,41.848,34.8402,Horzum,Erfelek,Sinop,Turkey,TR,Europe/Istanbul,UTC+3
57800,41.8849,34.969,Hasandere,Erfelek,Sinop,Turkey,TR,Europe/Istanbul,UTC+3
57800,41.9453,34.8042,Şerefiye,Erfelek,Sinop,Turkey,TR,Europe/Istanbul,UTC+3
57200,41.3806,34.6842,Boyali,Boyabat,Sinop,Turkey,TR,Europe/Istanbul,UTC+3
57200,41.5333,34.6833,Salar,Boyabat,Sinop,Turkey,TR,Europe/Istanbul,UTC+3
57200,41.4918,34.7306,Ilicaköy,Boyabat,Sinop,Turkey,TR,Europe/Istanbul,UTC+3
