postal_code,latitude,longitude,region_1_en,region_2_en,region_3_en,country_code,country_en,timezone,utc
T0A 0A0,54.1958,-113.1506,Alberta,Division No. 13,Thorhild County,CA,Canada,America/St_Johns,UTC-2.5
T0A 0A1,54.0029,-111.7,Alberta,Division No. 12,Saddle Lake 125,CA,Canada,America/St_Johns,UTC-2.5
T0A 0A2,54.3603,-110.0863,Alberta,Division No. 12,Bonnyville No. 87,CA,Canada,America/St_Johns,UTC-2.5
T0A 0A3,54.3455,-111.6157,Alberta,Division No. 12,St. Paul County No. 19,CA,Canada,America/St_Johns,UTC-2.5
T0A 0A4,54.3455,-111.6157,Alberta,Division No. 12,St. Paul County No. 19,CA,Canada,America/St_Johns,UTC-2.5
T0A 0A5,54.3455,-111.6157,Alberta,Division No. 12,St. Paul County No. 19,CA,Canada,America/St_Johns,UTC-2.5
T0A 0A6,54.1533,-113.1258,Alberta,Division No. 13,Thorhild County,CA,Canada,America/St_Johns,UTC-2.5
T0A 0A7,53.8258,-113.3266,Alberta,Division No. 11,,CA,Canada,America/St_Johns,UTC-2.5
T0A 0A8,54.3455,-111.6157,Alberta,Division No. 12,St. Paul County No. 19,CA,Canada,America/St_Johns,UTC-2.5
T0A 0A9,53.8373,-113.4121,Alberta,Division No. 11,,CA,Canada,America/St_Johns,UTC-2.5
T0A 0B0,54.523,-110.3485,Alberta,Division No. 12,Bonnyville No. 87,CA,Canada,America/St_Johns,UTC-2.5
T0A 0B1,54.0955,-112.7881,Alberta,Division No. 12,Waskatenau,CA,Canada,America/St_Johns,UTC-2.5
T0A 0B2,54.3261,-112.9387,Alberta,Division No. 13,Thorhild County,CA,Canada,America/St_Johns,UTC-2.5
T0A 0B3,54.3455,-111.6157,Alberta,Division No. 12,St. Paul County No. 19,CA,Canada,America/St_Johns,UTC-2.5
T0A 0B4,55.2014,-112.4652,Alberta,Division No. 13,Athabasca County,CA,Canada,America/St_Johns,UTC-2.5
T0A 0B5,54.3455,-111.6157,Alberta,Division No. 12,St. Paul County No. 19,CA,Canada,America/St_Johns,UTC-2.5
T0A 0B6,53.9186,-110.2674,Alberta,Division No. 12,Bonnyville No. 87,CA,Canada,America/St_Johns,UTC-2.5
T0A 0B7,54.3455,-111.6157,Alberta,Division No. 12,St. Paul County No. 19,CA,Canada,America/St_Johns,UTC-2.5
T0A 0B8,54.3455,-111.6157,Alberta,Division No. 12,St. Paul County No. 19,CA,Canada,America/St_Johns,UTC-2.5
T0A 0B9,54.3455,-111.6157,Alberta,Division No. 12,St. Paul County No. 19,CA,Canada,America/St_Johns,UTC-2.5
T0A 0C0,54.0534,-111.5265,Alberta,Division No. 12,St. Paul County No. 19,CA,Canada,America/St_Johns,UTC-2.5
T0A 0C1,53.6701,-113.4919,Alberta,Division No. 11,,CA,Canada,America/St_Johns,UTC-2.5
T0A 0C2,54.8192,-112.5503,Alberta,Division No. 13,Athabasca County,CA,Canada,America/St_Johns,UTC-2.5
T0A 0C3,54.5873,-112.8038,Alberta,Division No. 13,Boyle,CA,Canada,America/St_Johns,UTC-2.5
T0A 0C4,54.3455,-111.6157,Alberta,Division No. 12,St. Paul County No. 19,CA,Canada,America/St_Johns,UTC-2.5
T0A 0C5,54.3455,-111.6157,Alberta,Division No. 12,St. Paul County No. 19,CA,Canada,America/St_Johns,UTC-2.5
T0A 0C6,54.3455,-111.6157,Alberta,Division No. 12,St. Paul County No. 19,CA,Canada,America/St_Johns,UTC-2.5
T0A 0C7,54.3455,-111.6157,Alberta,Division No. 12,St. Paul County No. 19,CA,Canada,America/St_Johns,UTC-2.5
T0A 0C8,54.06,-112.945,Alberta,Division No. 13,Thorhild County,CA,Canada,America/St_Johns,UTC-2.5
T0A 0C9,54.3455,-111.6157,Alberta,Division No. 12,St. Paul County No. 19,CA,Canada,America/St_Johns,UTC-2.5
T0A 0E0,54.604,-112.8412,Alberta,Division No. 13,Athabasca County,CA,Canada,America/St_Johns,UTC-2.5
T0A 0E1,54.2355,-113.0254,Alberta,Division No. 13,Thorhild County,CA,Canada,America/St_Johns,UTC-2.5
T0A 0E2,54.3319,-110.4828,Alberta,Division No. 12,Bonnyville No. 87,CA,Canada,America/St_Johns,UTC-2.5
T0A 0E3,53.8322,-110.4021,Alberta,Division No. 12,Unipouheos 121,CA,Canada,America/St_Johns,UTC-2.5
T0A 0E4,54.3455,-111.6157,Alberta,Division No. 12,St. Paul County No. 19,CA,Canada,America/St_Johns,UTC-2.5
T0A 0E5,54.3455,-111.6157,Alberta,Division No. 12,St. Paul County No. 19,CA,Canada,America/St_Johns,UTC-2.5
T0A 0E6,53.9506,-113.1089,Alberta,Division No. 11,,CA,Canada,America/St_Johns,UTC-2.5
T0A 0E7,54.8208,-112.675,Alberta,Division No. 13,Athabasca County,CA,Canada,America/St_Johns,UTC-2.5
T0A 0E8,53.9911,-111.2953,Alberta,Division No. 12,,CA,Canada,America/St_Johns,UTC-2.5
T0A 0E9,54.7696,-111.9725,Alberta,Division No. 12,Lac la Biche County,CA,Canada,America/St_Johns,UTC-2.5
T0A 0J0,54.1642,-112.2134,Alberta,Division No. 12,Smoky Lake County,CA,Canada,America/St_Johns,UTC-2.5
T0A 0K0,53.9385,-113.3568,Alberta,Division No. 11,,CA,Canada,America/St_Johns,UTC-2.5
T0A 0K1,53.7163,-113.5654,Alberta,Division No. 11,,CA,Canada,America/St_Johns,UTC-2.5
T0A 0K2,53.7163,-113.5654,Alberta,Division No. 11,,CA,Canada,America/St_Johns,UTC-2.5
T0A 0K3,53.7163,-113.5654,Alberta,Division No. 11,,CA,Canada,America/St_Johns,UTC-2.5
T0A 0K4,53.8373,-113.4134,Alberta,Division No. 11,,CA,Canada,America/St_Johns,UTC-2.5
T0A 0K5,53.7841,-113.4959,Alberta,Division No. 11,,CA,Canada,America/St_Johns,UTC-2.5
T0A 0M0,54.746,-112.8003,Alberta,Division No. 13,Athabasca County,CA,Canada,America/St_Johns,UTC-2.5
T0A 0N0,54.3055,-111.722,Alberta,Division No. 12,St. Paul County No. 19,CA,Canada,America/St_Johns,UTC-2.5
T0A 0P0,55.1255,-112.5339,Alberta,Division No. 13,Athabasca County,CA,Canada,America/St_Johns,UTC-2.5
T0A 0R0,54.6099,-112.553,Alberta,Division No. 13,Athabasca County,CA,Canada,America/St_Johns,UTC-2.5
T0A 0T0,54.294,-110.017,Alberta,Division No. 12,Bonnyville No. 87,CA,Canada,America/St_Johns,UTC-2.5
T0A 0Z0,54.0528,-113.0627,Alberta,Division No. 13,Thorhild County,CA,Canada,America/St_Johns,UTC-2.5
T0A 1A0,53.9225,-111.0585,Alberta,Division No. 12,St. Paul County No. 19,CA,Canada,America/St_Johns,UTC-2.5
T0A 1B0,54.502,-112.9026,Alberta,Division No. 13,Athabasca County,CA,Canada,America/St_Johns,UTC-2.5
T0A 1C0,57.9153,-110.5543,Alberta,Division No. 16,Wood Buffalo,CA,Canada,America/St_Johns,UTC-2.5
T0A 1E0,53.8766,-111.577,Alberta,Division No. 12,St. Paul County No. 19,CA,Canada,America/St_Johns,UTC-2.5
T0A 1H0,54.3573,-110.6801,Alberta,Division No. 12,Bonnyville No. 87,CA,Canada,America/St_Johns,UTC-2.5
T0A 1M0,53.9073,-110.4596,Alberta,Division No. 12,Puskiakiwenin 122,CA,Canada,America/St_Johns,UTC-2.5
T0A 1N0,53.9642,-113.2361,Alberta,Division No. 11,,CA,Canada,America/St_Johns,UTC-2.5
T0A 1N1,53.8276,-113.328,Alberta,Division No. 11,,CA,Canada,America/St_Johns,UTC-2.5
T0A 1N2,53.8276,-113.328,Alberta,Division No. 11,,CA,Canada,America/St_Johns,UTC-2.5
T0A 1N3,53.8276,-113.328,Alberta,Division No. 11,,CA,Canada,America/St_Johns,UTC-2.5
T0A 1N4,53.8276,-113.328,Alberta,Division No. 11,,CA,Canada,America/St_Johns,UTC-2.5
T0A 1N4,53.8276,-113.328,Alberta,Division No. 11,,CA,Canada,America/St_Johns,UTC-2.5
T0A 1N5,53.8276,-113.328,Alberta,Division No. 11,,CA,Canada,America/St_Johns,UTC-2.5
T0A 1N6,53.8276,-113.328,Alberta,Division No. 11,,CA,Canada,America/St_Johns,UTC-2.5
T0A 1P0,54.2295,-111.0282,Alberta,Division No. 12,Bonnyville No. 87,CA,Canada,America/St_Johns,UTC-2.5
T0A 1R0,54.2572,-111.7572,Alberta,Division No. 12,White Fish Lake 128,CA,Canada,America/St_Johns,UTC-2.5
T0A 1S0,54.3619,-111.371,Alberta,Division No. 12,Bonnyville No. 87,CA,Canada,America/St_Johns,UTC-2.5
T0A 1S1,54.3833,-111.3667,Alberta,Division No. 12,Bonnyville No. 87,CA,Canada,America/St_Johns,UTC-2.5
T0A 1V0,54.7961,-112.7728,Alberta,Division No. 13,Athabasca County,CA,Canada,America/St_Johns,UTC-2.5
T0A 1X0,54.7712,-111.9546,Alberta,Division No. 12,Lac la Biche County,CA,Canada,America/St_Johns,UTC-2.5
T0A 1Z0,54.6326,-112.3246,Alberta,Division No. 12,Lac la Biche County,CA,Canada,America/St_Johns,UTC-2.5
T0A 2A0,54.4298,-110.9003,Alberta,Division No. 12,Bonnyville No. 87,CA,Canada,America/St_Johns,UTC-2.5
T0A 2B0,54.4467,-112.0968,Alberta,Division No. 12,Smoky Lake County,CA,Canada,America/St_Johns,UTC-2.5
T0A 2C0,54.702,-112.1001,Alberta,Division No. 12,Lac la Biche County,CA,Canada,America/St_Johns,UTC-2.5
T0A 2C1,54.75,-111.9272,Alberta,Division No. 12,Lac la Biche County,CA,Canada,America/St_Johns,UTC-2.5
T0A 2C2,54.7643,-111.9677,Alberta,Division No. 12,Lac la Biche County,CA,Canada,America/St_Johns,UTC-2.5
T0A 2E0,54.5008,-110.5397,Alberta,Division No. 12,Bonnyville No. 87,CA,Canada,America/St_Johns,UTC-2.5
T0A 2G0,53.8896,-111.4657,Alberta,Division No. 12,St. Paul County No. 19,CA,Canada,America/St_Johns,UTC-2.5
T0A 2H0,53.671,-113.4862,Alberta,Division No. 11,,CA,Canada,America/St_Johns,UTC-2.5
T0A 2H1,53.5388,-113.5056,Alberta,Division No. 11,,CA,Canada,America/St_Johns,UTC-2.5
T0A 2J0,53.893,-110.7177,Alberta,Division No. 12,St. Paul County No. 19,CA,Canada,America/St_Johns,UTC-2.5
T0A 2K0,54.2555,-111.4265,Alberta,Division No. 12,St. Paul County No. 19,CA,Canada,America/St_Johns,UTC-2.5
T0A 2L0,54.3055,-111.722,Alberta,Division No. 12,St. Paul County No. 19,CA,Canada,America/St_Johns,UTC-2.5
T0A 2N0,53.7444,-113.5325,Alberta,Division No. 11,,CA,Canada,America/St_Johns,UTC-2.5
T0A 2P0,54.3271,-112.9511,Alberta,Division No. 13,Thorhild County,CA,Canada,America/St_Johns,UTC-2.5
T0A 2R0,54.0098,-113.2984,Alberta,Division No. 13,Thorhild County,CA,Canada,America/St_Johns,UTC-2.5
T0A 2T0,54.8369,-112.4589,Alberta,Division No. 13,Athabasca County,CA,Canada,America/St_Johns,UTC-2.5
T0A 2V0,54.081,-112.9883,Alberta,Division No. 13,Thorhild County,CA,Canada,America/St_Johns,UTC-2.5
T0A 2W0,54.0168,-113.0875,Alberta,Division No. 13,Thorhild County,CA,Canada,America/St_Johns,UTC-2.5
T0A 2W1,53.5507,-113.5338,Alberta,Division No. 11,,CA,Canada,America/St_Johns,UTC-2.5
T0A 2Y0,54.0534,-111.5265,Alberta,Division No. 12,St. Paul County No. 19,CA,Canada,America/St_Johns,UTC-2.5
T0A 2Z0,54.8333,-111.7438,Alberta,Division No. 12,Lac la Biche County,CA,Canada,America/St_Johns,UTC-2.5
T0A 3A0,53.995,-111.3013,Alberta,Division No. 12,,CA,Canada,America/St_Johns,UTC-2.5
T0A 3A1,53.985,-111.3177,Alberta,Division No. 12,,CA,Canada,America/St_Johns,UTC-2.5
T0A 3A2,53.9898,-111.2735,Alberta,Division No. 12,,CA,Canada,America/St_Johns,UTC-2.5
T0A 3A3,53.9863,-111.2795,Alberta,Division No. 12,,CA,Canada,America/St_Johns,UTC-2.5
T0A 3A4,53.9884,-111.2948,Alberta,Division No. 12,,CA,Canada,America/St_Johns,UTC-2.5
