postcode,latitude,longitude,region_3_en,region_2_en,region_1_en,country_en,country_code,timezone,utc
7000,47.8457,16.5233,Eisenstadt,Eisenstadt Stadt,Burgenland,Austria,AT,Europe/Vienna,UTC +1.0
7000,47.85,16.55,Eisenstadt,Eisenstadt Stadt,Burgenland,Austria,AT,Europe/Vienna,UTC +1.0
7000,47.8415,16.5041,Eisenstadt,Eisenstadt Stadt,Burgenland,Austria,AT,Europe/Vienna,UTC +1.0
7071,47.8012,16.6716,Rust,Rust Stadt,Burgenland,Austria,AT,Europe/Vienna,UTC +1.0
2443,47.9335,16.4791,Leithaprodersdorf,Eisenstadt-Umgebung,Burgenland,Austria,AT,Europe/Vienna,UTC +1.0
2443,47.9,16.55,Stotzing,Eisenstadt-Umgebung,Burgenland,Austria,AT,Europe/Vienna,UTC +1.0
2443,47.9156,16.5179,Loretto,Eisenstadt-Umgebung,Burgenland,Austria,AT,Europe/Vienna,UTC +1.0
2485,47.9167,16.4333,Wimpassing an der Leitha,Eisenstadt-Umgebung,Burgenland,Austria,AT,Europe/Vienna,UTC +1.0
2491,47.8656,16.3786,Neufeld an der Leitha,Eisenstadt-Umgebung,Burgenland,Austria,AT,Europe/Vienna,UTC +1.0
2491,47.8805,16.4445,Hornstein,Eisenstadt-Umgebung,Burgenland,Austria,AT,Europe/Vienna,UTC +1.0
2491,47.8333,16.4167,Steinbrunn,Eisenstadt-Umgebung,Burgenland,Austria,AT,Europe/Vienna,UTC +1.0
7011,47.781,16.5423,Siegendorf,Eisenstadt-Umgebung,Burgenland,Austria,AT,Europe/Vienna,UTC +1.0
7012,47.7647,16.5138,Zagersdorf,Eisenstadt-Umgebung,Burgenland,Austria,AT,Europe/Vienna,UTC +1.0
7013,47.7728,16.5281,Klingenbach,Eisenstadt-Umgebung,Burgenland,Austria,AT,Europe/Vienna,UTC +1.0
7033,47.7997,16.3994,Zillingtal,Eisenstadt-Umgebung,Burgenland,Austria,AT,Europe/Vienna,UTC +1.0
7034,47.7997,16.3994,Zillingtal,Eisenstadt-Umgebung,Burgenland,Austria,AT,Europe/Vienna,UTC +1.0
7035,47.7997,16.3994,Zillingtal,Eisenstadt-Umgebung,Burgenland,Austria,AT,Europe/Vienna,UTC +1.0
7035,47.8333,16.4167,Steinbrunn,Eisenstadt-Umgebung,Burgenland,Austria,AT,Europe/Vienna,UTC +1.0
7041,47.7975,16.5045,Wulkaprodersdorf,Eisenstadt-Umgebung,Burgenland,Austria,AT,Europe/Vienna,UTC +1.0
7051,47.8359,16.4804,Großhöflein,Eisenstadt-Umgebung,Burgenland,Austria,AT,Europe/Vienna,UTC +1.0
7052,47.8394,16.4626,Müllendorf,Eisenstadt-Umgebung,Burgenland,Austria,AT,Europe/Vienna,UTC +1.0
7053,47.8805,16.4445,Hornstein,Eisenstadt-Umgebung,Burgenland,Austria,AT,Europe/Vienna,UTC +1.0
7061,47.8219,16.6317,Trausdorf an der Wulka,Eisenstadt-Umgebung,Burgenland,Austria,AT,Europe/Vienna,UTC +1.0
7062,47.8034,16.6088,Sankt Margarethen im Burgenland,Eisenstadt-Umgebung,Burgenland,Austria,AT,Europe/Vienna,UTC +1.0
7063,47.8333,16.6667,Oggau am Neusiedler See,Eisenstadt-Umgebung,Burgenland,Austria,AT,Europe/Vienna,UTC +1.0
7064,47.8291,16.6196,Oslip,Eisenstadt-Umgebung,Burgenland,Austria,AT,Europe/Vienna,UTC +1.0
7072,47.75,16.6667,Mörbisch am See,Eisenstadt-Umgebung,Burgenland,Austria,AT,Europe/Vienna,UTC +1.0
7081,47.8523,16.6233,Schützen am Gebirge,Eisenstadt-Umgebung,Burgenland,Austria,AT,Europe/Vienna,UTC +1.0
7082,47.8942,16.6463,Donnerskirchen,Eisenstadt-Umgebung,Burgenland,Austria,AT,Europe/Vienna,UTC +1.0
7083,47.9129,16.6956,Purbach am Neusiedler See,Eisenstadt-Umgebung,Burgenland,Austria,AT,Europe/Vienna,UTC +1.0
7091,47.9445,16.7315,Breitenbrunn am Neusiedler See,Eisenstadt-Umgebung,Burgenland,Austria,AT,Europe/Vienna,UTC +1.0
7521,47.1076,16.4604,Eberau,Politischer Bezirk Güssing,Burgenland,Austria,AT,Europe/Vienna,UTC +1.0
7521,47.1284,16.4679,Bildein,Politischer Bezirk Güssing,Burgenland,Austria,AT,Europe/Vienna,UTC +1.0
7521,47.1333,16.4667,Bildein,Politischer Bezirk Güssing,Burgenland,Austria,AT,Europe/Vienna,UTC +1.0
7521,47.0824,16.463,Eberau,Politischer Bezirk Güssing,Burgenland,Austria,AT,Europe/Vienna,UTC +1.0
7521,47.104,16.4524,Eberau,Politischer Bezirk Güssing,Burgenland,Austria,AT,Europe/Vienna,UTC +1.0
7521,47.1171,16.4445,Eberau,Politischer Bezirk Güssing,Burgenland,Austria,AT,Europe/Vienna,UTC +1.0
7522,47.0139,16.4794,Heiligenbrunn,Politischer Bezirk Güssing,Burgenland,Austria,AT,Europe/Vienna,UTC +1.0
7522,47.0667,16.4167,Strem,Politischer Bezirk Güssing,Burgenland,Austria,AT,Europe/Vienna,UTC +1.0
7522,47.0979,16.4142,Strem,Politischer Bezirk Güssing,Burgenland,Austria,AT,Europe/Vienna,UTC +1.0
7522,47.0104,16.3888,Heiligenbrunn,Politischer Bezirk Güssing,Burgenland,Austria,AT,Europe/Vienna,UTC +1.0
7522,47.045,16.4143,Strem,Politischer Bezirk Güssing,Burgenland,Austria,AT,Europe/Vienna,UTC +1.0
7522,47.027,16.4169,Heiligenbrunn,Politischer Bezirk Güssing,Burgenland,Austria,AT,Europe/Vienna,UTC +1.0
7522,47.1175,16.4024,Eberau,Politischer Bezirk Güssing,Burgenland,Austria,AT,Europe/Vienna,UTC +1.0
7522,47.0145,16.4554,Heiligenbrunn,Politischer Bezirk Güssing,Burgenland,Austria,AT,Europe/Vienna,UTC +1.0
7522,47.0445,16.3935,Strem,Politischer Bezirk Güssing,Burgenland,Austria,AT,Europe/Vienna,UTC +1.0
7522,47.0167,16.4333,Heiligenbrunn,Politischer Bezirk Güssing,Burgenland,Austria,AT,Europe/Vienna,UTC +1.0
7533,47.1833,16.1667,Ollersdorf im Burgenland,Politischer Bezirk Güssing,Burgenland,Austria,AT,Europe/Vienna,UTC +1.0
7534,47.1333,16.2333,Rauchwart,Politischer Bezirk Güssing,Burgenland,Austria,AT,Europe/Vienna,UTC +1.0
7534,47.1833,16.2,Olbendorf,Politischer Bezirk Güssing,Burgenland,Austria,AT,Europe/Vienna,UTC +1.0
7535,47.1333,16.2333,Rauchwart,Politischer Bezirk Güssing,Burgenland,Austria,AT,Europe/Vienna,UTC +1.0
7535,47.1078,16.2591,Sankt Michael im Burgenland,Politischer Bezirk Güssing,Burgenland,Austria,AT,Europe/Vienna,UTC +1.0
7535,47.1167,16.25,Sankt Michael im Burgenland,Politischer Bezirk Güssing,Burgenland,Austria,AT,Europe/Vienna,UTC +1.0
7535,47.1333,16.2667,Sankt Michael im Burgenland,Politischer Bezirk Güssing,Burgenland,Austria,AT,Europe/Vienna,UTC +1.0
7536,47.1667,16.3,Güttenbach,Politischer Bezirk Güssing,Burgenland,Austria,AT,Europe/Vienna,UTC +1.0
7537,47.1591,16.2209,Neuberg im Burgenland,Politischer Bezirk Güssing,Burgenland,Austria,AT,Europe/Vienna,UTC +1.0
7540,47.0462,16.3323,Güssing,Politischer Bezirk Güssing,Burgenland,Austria,AT,Europe/Vienna,UTC +1.0
7540,47.0833,16.2333,Gerersdorf-Sulz,Politischer Bezirk Güssing,Burgenland,Austria,AT,Europe/Vienna,UTC +1.0
7540,47.0677,16.2921,Tschanigraben,Politischer Bezirk Güssing,Burgenland,Austria,AT,Europe/Vienna,UTC +1.0
7540,47.0584,16.4773,Moschendorf,Politischer Bezirk Güssing,Burgenland,Austria,AT,Europe/Vienna,UTC +1.0
7540,47.0576,16.3729,Güssing,Politischer Bezirk Güssing,Burgenland,Austria,AT,Europe/Vienna,UTC +1.0
7540,47.0595,16.3071,Güssing,Politischer Bezirk Güssing,Burgenland,Austria,AT,Europe/Vienna,UTC +1.0
7540,47.033,16.3245,Kleinmürbisch,Politischer Bezirk Güssing,Burgenland,Austria,AT,Europe/Vienna,UTC +1.0
7540,47.0748,16.2696,Gerersdorf-Sulz,Politischer Bezirk Güssing,Burgenland,Austria,AT,Europe/Vienna,UTC +1.0
7540,47.0167,16.3167,Inzenhof,Politischer Bezirk Güssing,Burgenland,Austria,AT,Europe/Vienna,UTC +1.0
7540,47.0594,16.3243,Güssing,Politischer Bezirk Güssing,Burgenland,Austria,AT,Europe/Vienna,UTC +1.0
7540,47.0433,16.3575,Güssing,Politischer Bezirk Güssing,Burgenland,Austria,AT,Europe/Vienna,UTC +1.0
7540,47.0167,16.2667,Neustift bei Güssing,Politischer Bezirk Güssing,Burgenland,Austria,AT,Europe/Vienna,UTC +1.0
7540,47.0164,16.362,Großmürbisch,Politischer Bezirk Güssing,Burgenland,Austria,AT,Europe/Vienna,UTC +1.0
7542,47.0748,16.2696,Gerersdorf-Sulz,Politischer Bezirk Güssing,Burgenland,Austria,AT,Europe/Vienna,UTC +1.0
7542,47.0643,16.2743,Güssing,Politischer Bezirk Güssing,Burgenland,Austria,AT,Europe/Vienna,UTC +1.0
7542,47.0667,16.25,Gerersdorf-Sulz,Politischer Bezirk Güssing,Burgenland,Austria,AT,Europe/Vienna,UTC +1.0
7543,47.0754,16.2103,Kukmirn,Politischer Bezirk Güssing,Burgenland,Austria,AT,Europe/Vienna,UTC +1.0
7543,47.1,16.2,Kukmirn,Politischer Bezirk Güssing,Burgenland,Austria,AT,Europe/Vienna,UTC +1.0
7543,47.0667,16.1667,Kukmirn,Politischer Bezirk Güssing,Burgenland,Austria,AT,Europe/Vienna,UTC +1.0
7543,47.1,16.1833,Kukmirn,Politischer Bezirk Güssing,Burgenland,Austria,AT,Europe/Vienna,UTC +1.0
7544,47.1,16.2833,Tobaj,Politischer Bezirk Güssing,Burgenland,Austria,AT,Europe/Vienna,UTC +1.0
7544,47.0833,16.3,Tobaj,Politischer Bezirk Güssing,Burgenland,Austria,AT,Europe/Vienna,UTC +1.0
7544,47.0974,16.2864,Tobaj,Politischer Bezirk Güssing,Burgenland,Austria,AT,Europe/Vienna,UTC +1.0
7544,47.1167,16.35,Tobaj,Politischer Bezirk Güssing,Burgenland,Austria,AT,Europe/Vienna,UTC +1.0
7544,47.0833,16.3,Tobaj,Politischer Bezirk Güssing,Burgenland,Austria,AT,Europe/Vienna,UTC +1.0
7544,47.1,16.2833,Tobaj,Politischer Bezirk Güssing,Burgenland,Austria,AT,Europe/Vienna,UTC +1.0
7551,47.1667,16.1667,Stegersbach,Politischer Bezirk Güssing,Burgenland,Austria,AT,Europe/Vienna,UTC +1.0
7551,47.1333,16.1667,Bocksdorf,Politischer Bezirk Güssing,Burgenland,Austria,AT,Europe/Vienna,UTC +1.0
7551,47.1167,16.1667,Rohr im Burgenland,Politischer Bezirk Güssing,Burgenland,Austria,AT,Europe/Vienna,UTC +1.0
7551,47.1167,16.1833,Heugraben,Politischer Bezirk Güssing,Burgenland,Austria,AT,Europe/Vienna,UTC +1.0
7552,47.2,16.1167,Stinatz,Politischer Bezirk Güssing,Burgenland,Austria,AT,Europe/Vienna,UTC +1.0
8291,47.1477,16.1235,Burgauberg-Neudauberg,Politischer Bezirk Güssing,Burgenland,Austria,AT,Europe/Vienna,UTC +1.0
8292,47.2,16.1167,Hackerberg,Politischer Bezirk Güssing,Burgenland,Austria,AT,Europe/Vienna,UTC +1.0
8292,47.1717,16.1195,Burgauberg-Neudauberg,Politischer Bezirk Güssing,Burgenland,Austria,AT,Europe/Vienna,UTC +1.0
8293,47.2167,16.1,Wörterberg,Politischer Bezirk Güssing,Burgenland,Austria,AT,Europe/Vienna,UTC +1.0
7561,46.9892,16.2608,Heiligenkreuz im Lafnitztal,Politischer Bezirk Jennersdorf,Burgenland,Austria,AT,Europe/Vienna,UTC +1.0
7561,46.9969,16.225,Heiligenkreuz im Lafnitztal,Politischer Bezirk Jennersdorf,Burgenland,Austria,AT,Europe/Vienna,UTC +1.0
7562,47.0,16.2,Eltendorf,Politischer Bezirk Jennersdorf,Burgenland,Austria,AT,Europe/Vienna,UTC +1.0
7562,47.0333,16.2,Eltendorf,Politischer Bezirk Jennersdorf,Burgenland,Austria,AT,Europe/Vienna,UTC +1.0
7563,47.0,16.1667,Königsdorf,Politischer Bezirk Jennersdorf,Burgenland,Austria,AT,Europe/Vienna,UTC +1.0
7564,47.05,16.1167,Rudersdorf,Politischer Bezirk Jennersdorf,Burgenland,Austria,AT,Europe/Vienna,UTC +1.0
7564,47.0167,16.1333,Rudersdorf,Politischer Bezirk Jennersdorf,Burgenland,Austria,AT,Europe/Vienna,UTC +1.0
7571,47.05,16.1167,Rudersdorf,Politischer Bezirk Jennersdorf,Burgenland,Austria,AT,Europe/Vienna,UTC +1.0
7572,47.1244,16.1151,Deutsch Kaltenbrunn,Politischer Bezirk Jennersdorf,Burgenland,Austria,AT,Europe/Vienna,UTC +1.0
