postcode,latitude,longitude,region_3_en,region_2_en,region_1_en,country_en,country_code,timezone,utc
369345,44.4139,41.7992,Спарта,АДЫГЕ-ХАБЛЬСКИЙ РАЙОН,Карачаево-Черкесская Республика,Russia,RU,Europe/Moscow,UTC+3
369386,43.9556,42.5514,Джага,МАЛОКАРАЧАЕВСКИЙ РАЙОН,Карачаево-Черкесская Республика,Russia,RU,Europe/Moscow,UTC+3
185504,61.9167,34.25,Шуя,ПРИОНЕЖСКИЙ РАЙОН,Карелия Республика,Russia,RU,Europe/Moscow,UTC+3
185505,61.8792,34.3208,Шуйская,ПРИОНЕЖСКИЙ РАЙОН,Карелия Республика,Russia,RU,Europe/Moscow,UTC+3
185518,61.35,34.6167,Ладва,ПРИОНЕЖСКИЙ РАЙОН,Карелия Республика,Russia,RU,Europe/Moscow,UTC+3
185519,61.35,34.45,Ладва-Ветка,ПРИОНЕЖСКИЙ РАЙОН,Карелия Республика,Russia,RU,Europe/Moscow,UTC+3
186003,61.0,32.8167,Тукса,ОЛОНЕЦКИЙ РАЙОН,Карелия Республика,Russia,RU,Europe/Moscow,UTC+3
186004,61.0142,32.6636,Ильинский,ОЛОНЕЦКИЙ РАЙОН,Карелия Республика,Russia,RU,Europe/Moscow,UTC+3
186420,63.7333,34.3167,Сегежа,СЕГЕЖСКИЙ РАЙОН,Карелия Республика,Russia,RU,Europe/Moscow,UTC+3
186521,64.3167,35.025,Сумский Посад 1,БЕЛОМОРСКИЙ РАЙОН,Карелия Республика,Russia,RU,Europe/Moscow,UTC+3
186570,64.0192,36.0083,Вирандозеро,БЕЛОМОРСКИЙ РАЙОН,Карелия Республика,Russia,RU,Europe/Moscow,UTC+3
186703,61.2833,29.4,Ринтала,ЛАХДЕНПОХСКИЙ РАЙОН,Карелия Республика,Russia,RU,Europe/Moscow,UTC+3
186862,62.4,32.1667,Вегарус,СУОЯРВСКИЙ РАЙОН,Карелия Республика,Russia,RU,Europe/Moscow,UTC+3
650055,55.3333,86.0833,Кемерово 55,,Кемеровская Область,Russia,RU,Europe/Moscow,UTC+3
650503,55.4717,85.9514,Ясногорский,КЕМЕРОВСКИЙ РАЙОН,Кемеровская Область,Russia,RU,Europe/Moscow,UTC+3
652104,55.581,84.2331,Судженка-Станция,ЯЙСКИЙ РАЙОН,Кемеровская Область,Russia,RU,Europe/Moscow,UTC+3
652132,56.3226,86.844,Ижморка-Вторая,ИЖМОРСКИЙ РАЙОН,Кемеровская Область,Russia,RU,Europe/Moscow,UTC+3
652166,56.5169,87.3422,Колеул,МАРИИНСКИЙ РАЙОН,Кемеровская Область,Russia,RU,Europe/Moscow,UTC+3
652198,56.6522,88.0794,Пихтовка,МАРИИНСКИЙ РАЙОН,Кемеровская Область,Russia,RU,Europe/Moscow,UTC+3
652214,55.7947,88.4386,Третьяково,ТИСУЛЬСКИЙ РАЙОН,Кемеровская Область,Russia,RU,Europe/Moscow,UTC+3
652421,55.6,86.2,Березовский 1,,Кемеровская Область,Russia,RU,Europe/Moscow,UTC+3
652591,54.8438,86.3281,Чусовитино,ЛЕНИНСК-КУЗНЕЦКИЙ РАЙОН,Кемеровская Область,Russia,RU,Europe/Moscow,UTC+3
652792,54.4694,85.6344,Горскино,ГУРЬЕВСКИЙ РАЙОН,Кемеровская Область,Russia,RU,Europe/Moscow,UTC+3
652809,53.6167,87.35,Осинники 9,,Кемеровская Область,Russia,RU,Europe/Moscow,UTC+3
653206,54.0967,86.9495,Терентьевское,ПРОКОПЬЕВСКИЙ РАЙОН,Кемеровская Область,Russia,RU,Europe/Moscow,UTC+3
653207,54.246,86.9289,Котино,ПРОКОПЬЕВСКИЙ РАЙОН,Кемеровская Область,Russia,RU,Europe/Moscow,UTC+3
653217,53.9615,86.4655,Верх-Чумыш,ПРОКОПЬЕВСКИЙ РАЙОН,Кемеровская Область,Russia,RU,Europe/Moscow,UTC+3
654045,53.75,87.1,Новокузнецк 45,,Кемеровская Область,Russia,RU,Europe/Moscow,UTC+3
654066,53.75,87.1,Новокузнецк 66,,Кемеровская Область,Russia,RU,Europe/Moscow,UTC+3
680012,48.4808,135.0928,Хабаровск 12,,Хабаровский Край,Russia,RU,Europe/Moscow,UTC+3
680022,48.4808,135.0928,Хабаровск 22,,Хабаровский Край,Russia,RU,Europe/Moscow,UTC+3
680533,54.688,69.8776,Победа,ХАБАРОВСКИЙ РАЙОН,Хабаровский Край,Russia,RU,Europe/Moscow,UTC+3
681085,50.5271,137.5916,Селихино,КОМСОМОЛЬСКИЙ РАЙОН,Хабаровский Край,Russia,RU,Europe/Moscow,UTC+3
682361,49.509,136.8989,Лидога,НАНАЙСКИЙ РАЙОН,Хабаровский Край,Russia,RU,Europe/Moscow,UTC+3
682380,52.4194,136.4828,Им. Полины Осипенко,ИМ. ПОЛИНЫ ОСИПЕНКО РАЙОН,Хабаровский Край,Russia,RU,Europe/Moscow,UTC+3
682431,53.0678,141.1944,Красное,НИКОЛАЕВСКИЙ РАЙОН,Хабаровский Край,Russia,RU,Europe/Moscow,UTC+3
682482,59.3833,143.3,Охотск 2,ОХОТСКИЙ РАЙОН,Хабаровский Край,Russia,RU,Europe/Moscow,UTC+3
682709,50.75,136.4,Лиан,СОЛНЕЧНЫЙ РАЙОН,Хабаровский Край,Russia,RU,Europe/Moscow,UTC+3
682863,49.2915,140.3751,Датта,ВАНИНСКИЙ РАЙОН,Хабаровский Край,Russia,RU,Europe/Moscow,UTC+3
682865,49.7667,140.1833,Тумнин,ВАНИНСКИЙ РАЙОН,Хабаровский Край,Russia,RU,Europe/Moscow,UTC+3
682992,47.1453,134.3383,Лермонтовка 2,БИКИНСКИЙ РАЙОН,Хабаровский Край,Russia,RU,Europe/Moscow,UTC+3
655000,53.71,91.42,Абакан,,Хакасия Республика,Russia,RU,Europe/Moscow,UTC+3
655002,53.71,91.42,Абакан 2,,Хакасия Республика,Russia,RU,Europe/Moscow,UTC+3
655140,53.62,90.7064,Весеннее,УСТЬ-АБАКАНСКИЙ РАЙОН,Хакасия Республика,Russia,RU,Europe/Moscow,UTC+3
655152,53.7648,90.9575,Черногорск 2,,Хакасия Республика,Russia,RU,Europe/Moscow,UTC+3
655232,54.6308,89.8131,Фыркал,ШИРИНСКИЙ РАЙОН,Хакасия Республика,Russia,RU,Europe/Moscow,UTC+3
655700,53.13,90.42,Аскиз,АСКИЗСКИЙ РАЙОН,Хакасия Республика,Russia,RU,Europe/Moscow,UTC+3
655711,53.219,90.4127,Бельтырский 1,АСКИЗСКИЙ РАЙОН,Хакасия Республика,Russia,RU,Europe/Moscow,UTC+3
655743,52.7181,89.8842,Верх-Таштып,ТАШТЫПСКИЙ РАЙОН,Хакасия Республика,Russia,RU,Europe/Moscow,UTC+3
655783,52.9519,90.7061,Табат,БЕЙСКИЙ РАЙОН,Хакасия Республика,Russia,RU,Europe/Moscow,UTC+3
655965,53.6997,90.3971,Абакан Умсц,,Хакасия Республика,Russia,RU,Europe/Moscow,UTC+3
610016,52.5667,32.3619,Киров 16,,Кировская Область,Russia,RU,Europe/Moscow,UTC+3
612027,58.1906,47.1208,Содом,ШАБАЛИНСКИЙ РАЙОН,Кировская Область,Russia,RU,Europe/Moscow,UTC+3
612051,58.4347,47.77,Рига,СВЕЧИНСКИЙ РАЙОН,Кировская Область,Russia,RU,Europe/Moscow,UTC+3
612056,58.4664,47.4939,Благовещенское,СВЕЧИНСКИЙ РАЙОН,Кировская Область,Russia,RU,Europe/Moscow,UTC+3
612077,58.34,49.48,Адышево,ОРИЧЕВСКИЙ РАЙОН,Кировская Область,Russia,RU,Europe/Moscow,UTC+3
612091,58.2089,49.4519,Кучелапы,ОРИЧЕВСКИЙ РАЙОН,Кировская Область,Russia,RU,Europe/Moscow,UTC+3
612147,59.2578,47.9264,Кривецкая,ДАРОВСКИЙ РАЙОН,Кировская Область,Russia,RU,Europe/Moscow,UTC+3
612227,57.0333,47.9333,Каракша,ЯРАНСКИЙ РАЙОН,Кировская Область,Russia,RU,Europe/Moscow,UTC+3
612234,57.3325,48.2169,Пушкино,ЯРАНСКИЙ РАЙОН,Кировская Область,Russia,RU,Europe/Moscow,UTC+3
612251,57.3111,47.6528,Кугалки,ЯРАНСКИЙ РАЙОН,Кировская Область,Russia,RU,Europe/Moscow,UTC+3
612253,57.2461,47.8353,Знаменка,ЯРАНСКИЙ РАЙОН,Кировская Область,Russia,RU,Europe/Moscow,UTC+3
612270,58.5353,48.8886,Орлов,ОРЛОВСКИЙ РАЙОН,Кировская Область,Russia,RU,Europe/Moscow,UTC+3
612423,58.4996,51.1978,Чепецкий,ЗУЕВСКИЙ РАЙОН,Кировская Область,Russia,RU,Europe/Moscow,UTC+3
612457,57.8636,49.9211,Краснополье,СУНСКИЙ РАЙОН,Кировская Область,Russia,RU,Europe/Moscow,UTC+3
612631,58.2031,48.1964,Покровское,КОТЕЛЬНИЧСКИЙ РАЙОН,Кировская Область,Russia,RU,Europe/Moscow,UTC+3
612715,59.0003,52.4158,Лесные Поляны,ОМУТНИНСКИЙ РАЙОН,Кировская Область,Russia,RU,Europe/Moscow,UTC+3
612720,57.3714,46.4631,Тонкино,ОМУТНИНСКИЙ РАЙОН,Кировская Область,Russia,RU,Europe/Moscow,UTC+3
612911,56.59,50.7,Гоньба,МАЛМЫЖСКИЙ РАЙОН,Кировская Область,Russia,RU,Europe/Moscow,UTC+3
613049,58.5492,50.0456,Кирово-Чепецк 9,,Кировская Область,Russia,RU,Europe/Moscow,UTC+3
613155,58.7322,50.1772,Слободской 5,,Кировская Область,Russia,RU,Europe/Moscow,UTC+3
613254,59.744,50.7758,Первомайск,НАГОРСКИЙ РАЙОН,Кировская Область,Russia,RU,Europe/Moscow,UTC+3
613356,57.7386,49.1469,Суводь,СОВЕТСКИЙ РАЙОН,Кировская Область,Russia,RU,Europe/Moscow,UTC+3
613373,57.3558,48.9622,Муша,СОВЕТСКИЙ РАЙОН,Кировская Область,Russia,RU,Europe/Moscow,UTC+3
613410,58.1653,49.9083,Плотники,КУМЕНСКИЙ РАЙОН,Кировская Область,Russia,RU,Europe/Moscow,UTC+3
613450,57.6389,50.1628,Кырчаны,НОЛИНСКИЙ РАЙОН,Кировская Область,Russia,RU,Europe/Moscow,UTC+3
613465,57.6031,49.6408,Зыково,НОЛИНСКИЙ РАЙОН,Кировская Область,Russia,RU,Europe/Moscow,UTC+3
613468,57.5256,49.4681,Хмелевка,НОЛИНСКИЙ РАЙОН,Кировская Область,Russia,RU,Europe/Moscow,UTC+3
613520,57.3369,49.3722,Окунево,ЛЕБЯЖСКИЙ РАЙОН,Кировская Область,Russia,RU,Europe/Moscow,UTC+3
613642,58.7739,49.0075,Пышак,ЮРЬЯНСКИЙ РАЙОН,Кировская Область,Russia,RU,Europe/Moscow,UTC+3
613710,59.3964,48.965,Мураши,МУРАШИНСКИЙ РАЙОН,Кировская Область,Russia,RU,Europe/Moscow,UTC+3
613711,59.316,48.9574,Мураши 1,МУРАШИНСКИЙ РАЙОН,Кировская Область,Russia,RU,Europe/Moscow,UTC+3
613990,60.9006,47.2586,Христофорово,ЛУЗСКИЙ РАЙОН,Кировская Область,Russia,RU,Europe/Moscow,UTC+3
167016,61.6667,50.8122,Сыктывкар 16,,Коми Республика,Russia,RU,Europe/Moscow,UTC+3
168059,62.3614,52.9222,Нившера,КОРТКЕРОССКИЙ РАЙОН,Коми Республика,Russia,RU,Europe/Moscow,UTC+3
168066,61.7556,53.715,Кужба,УСТЬ-КУЛОМСКИЙ РАЙОН,Коми Республика,Russia,RU,Europe/Moscow,UTC+3
168170,60.4442,51.0028,Койгородок,КОЙГОРОДСКИЙ РАЙОН,Коми Республика,Russia,RU,Europe/Moscow,UTC+3
169035,62.2239,50.3919,Усть-Вымь,УСТЬ-ВЫМСКИЙ РАЙОН,Коми Республика,Russia,RU,Europe/Moscow,UTC+3
169216,62.7622,51.4911,Чернореченский,КНЯЖПОГОСТСКИЙ РАЙОН,Коми Республика,Russia,RU,Europe/Moscow,UTC+3
169226,63.3386,50.9233,Мещура,КНЯЖПОГОСТСКИЙ РАЙОН,Коми Республика,Russia,RU,Europe/Moscow,UTC+3
169301,63.5581,53.6889,Ухта 1,,Коми Республика,Russia,RU,Europe/Moscow,UTC+3
169304,63.5581,53.6889,Ухта 4,,Коми Республика,Russia,RU,Europe/Moscow,UTC+3
169318,63.0795,53.3796,Ухта 18,,Коми Республика,Russia,RU,Europe/Moscow,UTC+3
169462,65.0008,53.8294,Мохча,ИЖЕМСКИЙ РАЙОН,Коми Республика,Russia,RU,Europe/Moscow,UTC+3
169521,63.7761,54.6513,Поляна,СОСНОГОРСКИЙ РАЙОН,Коми Республика,Russia,RU,Europe/Moscow,UTC+3
169620,64.7445,57.0582,Рыбница,ПЕЧОРСКИЙ РАЙОН,Коми Республика,Russia,RU,Europe/Moscow,UTC+3
169870,66.3419,60.3905,Инта-Гсп,,Коми Республика,Russia,RU,Europe/Moscow,UTC+3
169945,67.05,64.2,Елецкий,,Коми Республика,Russia,RU,Europe/Moscow,UTC+3
156536,57.6472,40.9292,Ильинское,КОСТРОМСКОЙ РАЙОН,Костромская Область,Russia,RU,Europe/Moscow,UTC+3
157008,58.4786,41.53,Буй 8,,Костромская Область,Russia,RU,Europe/Moscow,UTC+3
