postcode,latitude,longitude,region_3_lc,region_3_en,region_2_en,region_1_en,country_en,country_code,timezone,utc
10000,50.0833,14.45,Žižkov,,Hlavní město Praha,Hlavní město Praha,Czech Republic,CZ,Europe/Prague,UTC+01:00
10000,50.0673,14.4603,Vršovice,,Hlavní město Praha,Hlavní město Praha,Czech Republic,CZ,Europe/Prague,UTC+01:00
10000,50.0744,14.4437,Praha 10-Vinohrady,,Hlavní město Praha,Hlavní město Praha,Czech Republic,CZ,Europe/Prague,UTC+01:00
10000,50.0847,14.5094,Praha 10-Malešice,,Hlavní město Praha,Hlavní město Praha,Czech Republic,CZ,Europe/Prague,UTC+01:00
10000,50.0744,14.4437,Vinohrady,,Hlavní město Praha,Hlavní město Praha,Czech Republic,CZ,Europe/Prague,UTC+01:00
10000,50.0673,14.4603,Praha 10-Vršovice,,Hlavní město Praha,Hlavní město Praha,Czech Republic,CZ,Europe/Prague,UTC+01:00
10000,50.0847,14.5094,Malešice,,Hlavní město Praha,Hlavní město Praha,Czech Republic,CZ,Europe/Prague,UTC+01:00
10000,50.0833,14.45,Praha 10-Žižkov,,Hlavní město Praha,Hlavní město Praha,Czech Republic,CZ,Europe/Prague,UTC+01:00
10000,50.0774,14.4658,Strašnice,,Hlavní město Praha,Hlavní město Praha,Czech Republic,CZ,Europe/Prague,UTC+01:00
10000,50.0774,14.4658,Praha 10-Strašnice,,Hlavní město Praha,Hlavní město Praha,Czech Republic,CZ,Europe/Prague,UTC+01:00
10100,50.0624,14.4623,Praha 10-Záběhlice,,Hlavní město Praha,Hlavní město Praha,Czech Republic,CZ,Europe/Prague,UTC+01:00
10100,50.0573,14.5038,Záběhlice,,Hlavní město Praha,Hlavní město Praha,Czech Republic,CZ,Europe/Prague,UTC+01:00
10100,50.0744,14.4437,Vinohrady,,Hlavní město Praha,Hlavní město Praha,Czech Republic,CZ,Europe/Prague,UTC+01:00
10100,50.0673,14.4603,Vršovice,,Hlavní město Praha,Hlavní město Praha,Czech Republic,CZ,Europe/Prague,UTC+01:00
10100,50.048,14.4622,Praha 10-Michle,,Hlavní město Praha,Hlavní město Praha,Czech Republic,CZ,Europe/Prague,UTC+01:00
10100,50.0673,14.4603,Praha 10-Vršovice,,Hlavní město Praha,Hlavní město Praha,Czech Republic,CZ,Europe/Prague,UTC+01:00
10100,50.0744,14.4437,Praha 10-Vinohrady,,Hlavní město Praha,Hlavní město Praha,Czech Republic,CZ,Europe/Prague,UTC+01:00
10100,50.048,14.4622,Michle,,Hlavní město Praha,Hlavní město Praha,Czech Republic,CZ,Europe/Prague,UTC+01:00
10200,50.0726,14.5552,Štěrboholy,,Hlavní město Praha,Hlavní město Praha,Czech Republic,CZ,Europe/Prague,UTC+01:00
10200,50.0486,14.5244,Praha 10-Hostivař,,Hlavní město Praha,Hlavní město Praha,Czech Republic,CZ,Europe/Prague,UTC+01:00
10200,50.0486,14.5244,Hostivař,,Hlavní město Praha,Hlavní město Praha,Czech Republic,CZ,Europe/Prague,UTC+01:00
10200,50.0726,14.5552,Praha 10-Štěrboholy,,Hlavní město Praha,Hlavní město Praha,Czech Republic,CZ,Europe/Prague,UTC+01:00
10300,50.0119,14.6269,Praha 10-Kolovraty,,Hlavní město Praha,Hlavní město Praha,Czech Republic,CZ,Europe/Prague,UTC+01:00
10300,49.999,14.6178,Lipany,,Hlavní město Praha,Hlavní město Praha,Czech Republic,CZ,Europe/Prague,UTC+01:00
10300,50.0129,14.6049,Benice,,Hlavní město Praha,Hlavní město Praha,Czech Republic,CZ,Europe/Prague,UTC+01:00
10300,50.0127,14.628,Kolovraty,,Hlavní město Praha,Hlavní město Praha,Czech Republic,CZ,Europe/Prague,UTC+01:00
10300,50.017,14.6527,Praha 10-Nedvězí,,Hlavní město Praha,Hlavní město Praha,Czech Republic,CZ,Europe/Prague,UTC+01:00
10300,50.0119,14.6269,Praha 10-Lipany,,Hlavní město Praha,Hlavní město Praha,Czech Republic,CZ,Europe/Prague,UTC+01:00
10300,50.017,14.6527,Nedvězí,,Hlavní město Praha,Hlavní město Praha,Czech Republic,CZ,Europe/Prague,UTC+01:00
10300,50.0129,14.6049,Praha 10-Benice,,Hlavní město Praha,Hlavní město Praha,Czech Republic,CZ,Europe/Prague,UTC+01:00
10400,50.0288,14.5995,Praha 10-Uhříněves,,Hlavní město Praha,Hlavní město Praha,Czech Republic,CZ,Europe/Prague,UTC+01:00
10400,50.0374,14.6353,Královice,,Hlavní město Praha,Hlavní město Praha,Czech Republic,CZ,Europe/Prague,UTC+01:00
10400,50.0288,14.5995,Uhříněves,,Hlavní město Praha,Hlavní město Praha,Czech Republic,CZ,Europe/Prague,UTC+01:00
10400,50.0205,14.5789,Praha 10-Pitkovice,,Hlavní město Praha,Hlavní město Praha,Czech Republic,CZ,Europe/Prague,UTC+01:00
10400,50.0205,14.5789,Pitkovice,,Hlavní město Praha,Hlavní město Praha,Czech Republic,CZ,Europe/Prague,UTC+01:00
10400,50.0511,14.6281,Praha 10-Hájek,,Hlavní město Praha,Hlavní město Praha,Czech Republic,CZ,Europe/Prague,UTC+01:00
10400,50.0374,14.6353,Praha 10-Královice,,Hlavní město Praha,Hlavní město Praha,Czech Republic,CZ,Europe/Prague,UTC+01:00
10400,50.0332,14.6052,Praha 10-Křeslice,,Hlavní město Praha,Hlavní město Praha,Czech Republic,CZ,Europe/Prague,UTC+01:00
10400,50.0511,14.6281,Hájek,,Hlavní město Praha,Hlavní město Praha,Czech Republic,CZ,Europe/Prague,UTC+01:00
10400,50.023,14.5635,Křeslice,,Hlavní město Praha,Hlavní město Praha,Czech Republic,CZ,Europe/Prague,UTC+01:00
10600,50.0573,14.5038,Záběhlice,,Hlavní město Praha,Hlavní město Praha,Czech Republic,CZ,Europe/Prague,UTC+01:00
10600,50.0573,14.5038,Praha 10-Záběhlice,,Hlavní město Praha,Hlavní město Praha,Czech Republic,CZ,Europe/Prague,UTC+01:00
10700,50.0625,14.5941,Praha 10-Dubeč,,Hlavní město Praha,Hlavní město Praha,Czech Republic,CZ,Europe/Prague,UTC+01:00
10700,50.0625,14.5941,Dubeč,,Hlavní město Praha,Hlavní město Praha,Czech Republic,CZ,Europe/Prague,UTC+01:00
10800,50.1,14.5167,Praha 9-Hrdlořezy,,Hlavní město Praha,Hlavní město Praha,Czech Republic,CZ,Europe/Prague,UTC+01:00
10800,50.0847,14.5094,Malešice,,Hlavní město Praha,Hlavní město Praha,Czech Republic,CZ,Europe/Prague,UTC+01:00
10800,50.0924,14.513,Strašnice,,Hlavní město Praha,Hlavní město Praha,Czech Republic,CZ,Europe/Prague,UTC+01:00
10800,50.0847,14.5094,Praha 10-Malešice,,Hlavní město Praha,Hlavní město Praha,Czech Republic,CZ,Europe/Prague,UTC+01:00
10800,50.1,14.5167,Hrdlořezy,,Hlavní město Praha,Hlavní město Praha,Czech Republic,CZ,Europe/Prague,UTC+01:00
10800,50.0924,14.513,Praha 10-Strašnice,,Hlavní město Praha,Hlavní město Praha,Czech Republic,CZ,Europe/Prague,UTC+01:00
10900,50.0604,14.5573,Dolní Měcholupy,,Hlavní město Praha,Hlavní město Praha,Czech Republic,CZ,Europe/Prague,UTC+01:00
10900,50.05,14.5667,Praha 10-Horní Měcholupy,,Hlavní město Praha,Hlavní město Praha,Czech Republic,CZ,Europe/Prague,UTC+01:00
10900,50.0604,14.5573,Praha 10-Dolní Měcholupy,,Hlavní město Praha,Hlavní město Praha,Czech Republic,CZ,Europe/Prague,UTC+01:00
10900,50.034,14.5468,Praha 10-Petrovice,,Hlavní město Praha,Hlavní město Praha,Czech Republic,CZ,Europe/Prague,UTC+01:00
10900,50.05,14.5667,Horní Měcholupy,,Hlavní město Praha,Hlavní město Praha,Czech Republic,CZ,Europe/Prague,UTC+01:00
10900,50.034,14.5468,Petrovice,,Hlavní město Praha,Hlavní město Praha,Czech Republic,CZ,Europe/Prague,UTC+01:00
11000,50.0923,14.4282,Praha 1-Nové Město,,Hlavní město Praha,Hlavní město Praha,Czech Republic,CZ,Europe/Prague,UTC+01:00
11000,50.0902,14.4169,Josefov,,Hlavní město Praha,Hlavní město Praha,Czech Republic,CZ,Europe/Prague,UTC+01:00
11000,50.0744,14.4437,Vinohrady,,Hlavní město Praha,Hlavní město Praha,Czech Republic,CZ,Europe/Prague,UTC+01:00
11000,50.0902,14.4169,Praha 1-Josefov,,Hlavní město Praha,Hlavní město Praha,Czech Republic,CZ,Europe/Prague,UTC+01:00
11000,50.0856,14.4239,Praha 1-Vinohrady,,Hlavní město Praha,Hlavní město Praha,Czech Republic,CZ,Europe/Prague,UTC+01:00
11000,50.087,14.4202,Staré Město,,Hlavní město Praha,Hlavní město Praha,Czech Republic,CZ,Europe/Prague,UTC+01:00
11000,50.087,14.4202,Praha 1-Staré Město,,Hlavní město Praha,Hlavní město Praha,Czech Republic,CZ,Europe/Prague,UTC+01:00
11000,50.0783,14.4209,Nové Město,,Hlavní město Praha,Hlavní město Praha,Czech Republic,CZ,Europe/Prague,UTC+01:00
11800,50.0877,14.4045,Malá Strana,,Hlavní město Praha,Hlavní město Praha,Czech Republic,CZ,Europe/Prague,UTC+01:00
11800,50.0895,14.3976,Hradčany,,Hlavní město Praha,Hlavní město Praha,Czech Republic,CZ,Europe/Prague,UTC+01:00
11800,50.0895,14.3976,Praha 1-Hradčany,,Hlavní město Praha,Hlavní město Praha,Czech Republic,CZ,Europe/Prague,UTC+01:00
11800,50.1047,14.4495,Holešovice,,Hlavní město Praha,Hlavní město Praha,Czech Republic,CZ,Europe/Prague,UTC+01:00
11800,50.0877,14.4045,Praha 1-Malá Strana,,Hlavní město Praha,Hlavní město Praha,Czech Republic,CZ,Europe/Prague,UTC+01:00
11800,50.0918,14.4107,Praha 1-Holešovice,,Hlavní město Praha,Hlavní město Praha,Czech Republic,CZ,Europe/Prague,UTC+01:00
11900,50.0895,14.3976,Hradčany,,Hlavní město Praha,Hlavní město Praha,Czech Republic,CZ,Europe/Prague,UTC+01:00
11900,50.0895,14.3976,Praha 1-Hradčany,,Hlavní město Praha,Hlavní město Praha,Czech Republic,CZ,Europe/Prague,UTC+01:00
12000,50.0783,14.4209,Praha 2-Nové Město,,Hlavní město Praha,Hlavní město Praha,Czech Republic,CZ,Europe/Prague,UTC+01:00
12000,50.0783,14.4209,Nové Město,,Hlavní město Praha,Hlavní město Praha,Czech Republic,CZ,Europe/Prague,UTC+01:00
12000,50.0744,14.4437,Vinohrady,,Hlavní město Praha,Hlavní město Praha,Czech Republic,CZ,Europe/Prague,UTC+01:00
12000,50.0744,14.4437,Praha 2-Vinohrady,,Hlavní město Praha,Hlavní město Praha,Czech Republic,CZ,Europe/Prague,UTC+01:00
12800,50.0703,14.4232,Praha 2-Nusle,,Hlavní město Praha,Hlavní město Praha,Czech Republic,CZ,Europe/Prague,UTC+01:00
12800,50.0651,14.4171,Vyšehrad,,Hlavní město Praha,Hlavní město Praha,Czech Republic,CZ,Europe/Prague,UTC+01:00
12800,50.0646,14.4399,Nusle,,Hlavní město Praha,Hlavní město Praha,Czech Republic,CZ,Europe/Prague,UTC+01:00
12800,50.0651,14.4171,Praha 2-Vyšehrad,,Hlavní město Praha,Hlavní město Praha,Czech Republic,CZ,Europe/Prague,UTC+01:00
12800,50.0783,14.4209,Praha 2-Nové Město,,Hlavní město Praha,Hlavní město Praha,Czech Republic,CZ,Europe/Prague,UTC+01:00
12800,50.0783,14.4209,Nové Město,,Hlavní město Praha,Hlavní město Praha,Czech Republic,CZ,Europe/Prague,UTC+01:00
13000,50.0866,14.4799,Praha 3-Strašnice,,Hlavní město Praha,Hlavní město Praha,Czech Republic,CZ,Europe/Prague,UTC+01:00
13000,50.0866,14.4799,Praha 3-Vinohrady,,Hlavní město Praha,Hlavní město Praha,Czech Republic,CZ,Europe/Prague,UTC+01:00
13000,50.1094,14.5167,Vysočany,,Hlavní město Praha,Hlavní město Praha,Czech Republic,CZ,Europe/Prague,UTC+01:00
13000,50.0847,14.5094,Malešice,,Hlavní město Praha,Hlavní město Praha,Czech Republic,CZ,Europe/Prague,UTC+01:00
13000,50.0833,14.45,Praha 3-Žižkov,,Hlavní město Praha,Hlavní město Praha,Czech Republic,CZ,Europe/Prague,UTC+01:00
13000,50.0866,14.4799,Strašnice,,Hlavní město Praha,Hlavní město Praha,Czech Republic,CZ,Europe/Prague,UTC+01:00
13000,50.0847,14.5094,Praha 10-Malešice,,Hlavní město Praha,Hlavní město Praha,Czech Republic,CZ,Europe/Prague,UTC+01:00
13000,50.0866,14.4799,Praha 3-Vysočany,,Hlavní město Praha,Hlavní město Praha,Czech Republic,CZ,Europe/Prague,UTC+01:00
13000,50.0833,14.45,Žižkov,,Hlavní město Praha,Hlavní město Praha,Czech Republic,CZ,Europe/Prague,UTC+01:00
13000,50.0744,14.4437,Vinohrady,,Hlavní město Praha,Hlavní město Praha,Czech Republic,CZ,Europe/Prague,UTC+01:00
14000,50.055,14.4203,Praha 4-Podolí,,Hlavní město Praha,Hlavní město Praha,Czech Republic,CZ,Europe/Prague,UTC+01:00
14000,50.0416,14.4457,Praha 4-Krč,,Hlavní město Praha,Hlavní město Praha,Czech Republic,CZ,Europe/Prague,UTC+01:00
14000,50.048,14.4622,Michle,,Hlavní město Praha,Hlavní město Praha,Czech Republic,CZ,Europe/Prague,UTC+01:00
14000,50.055,14.4203,Podolí,,Hlavní město Praha,Hlavní město Praha,Czech Republic,CZ,Europe/Prague,UTC+01:00
14000,50.0416,14.4457,Krč,,Hlavní město Praha,Hlavní město Praha,Czech Republic,CZ,Europe/Prague,UTC+01:00
14000,50.0646,14.4399,Nusle,,Hlavní město Praha,Hlavní město Praha,Czech Republic,CZ,Europe/Prague,UTC+01:00
14000,50.048,14.4622,Praha 4-Michle,,Hlavní město Praha,Hlavní město Praha,Czech Republic,CZ,Europe/Prague,UTC+01:00
14000,50.0646,14.4399,Praha 4-Nusle,,Hlavní město Praha,Hlavní město Praha,Czech Republic,CZ,Europe/Prague,UTC+01:00
